<?xml version="1.0" encoding="UTF-8"?>
<kml xmlns="http://www.opengis.net/kml/2.2">
  <Document id="root_doc">
    <Schema id="Distrito_SAN_JOAQUIN.schema">
      <SimpleField name="Cédula" type="double"/>
      <SimpleField name="Nombres_y_" type="string"/>
      <SimpleField name="Sexo" type="string"/>
      <SimpleField name="Cambio_de_" type="string"/>
      <SimpleField name="Titular_se" type="string"/>
      <SimpleField name="Cédula_Ti" type="string"/>
      <SimpleField name="ci_UNIF" type="double"/>
      <SimpleField name="Situación" type="string"/>
      <SimpleField name="Comunidad" type="string"/>
      <SimpleField name="Modelo_imp" type="string"/>
      <SimpleField name="Departamen" type="string"/>
      <SimpleField name="Distrito" type="string"/>
      <SimpleField name="Localidad" type="string"/>
      <SimpleField name="Teléfono" type="string"/>
      <SimpleField name="Vivienda_L" type="double"/>
      <SimpleField name="Vivienda_1" type="double"/>
      <SimpleField name="Superficie" type="double"/>
      <SimpleField name="Situaci_1" type="string"/>
      <SimpleField name="Plantado" type="string"/>
      <SimpleField name="Fecha_Plan" type="string"/>
      <SimpleField name="Jornales" type="double"/>
      <SimpleField name="Monto" type="double"/>
      <SimpleField name="Grupo_de_p" type="string"/>
      <SimpleField name="Estado_del" type="string"/>
      <SimpleField name="Empresa" type="string"/>
      <SimpleField name="Lote" type="string"/>
      <SimpleField name="Parametro" type="double"/>
      <SimpleField name="Sup_SIG" type="double"/>
      <SimpleField name="Situacion" type="string"/>
      <SimpleField name="X" type="double"/>
      <SimpleField name="Y" type="double"/>
      <SimpleField name="cedula" type="string"/>
    </Schema>
    <Document id="Distrito_SAN_JOAQUIN">
      <name>Distrito_SAN JOAQUIN</name>
      <Placemark id="Distrito_SAN_JOAQUIN.1">
        <ExtendedData>
          <SchemaData schemaUrl="#Distrito_SAN_JOAQUIN.schema">
            <SimpleData name="Cédula">1175333.00000000000</SimpleData>
            <SimpleData name="Nombres_y_">AURELIO GENES MARECO</SimpleData>
            <SimpleData name="Sexo">Hombre</SimpleData>
            <SimpleData name="Cambio_de_">NO</SimpleData>
            <SimpleData name="Titular_se">NO</SimpleData>
            <SimpleData name="ci_UNIF">1175333.00000000000</SimpleData>
            <SimpleData name="Situación">NO</SimpleData>
            <SimpleData name="Comunidad">Campesina</SimpleData>
            <SimpleData name="Modelo_imp">Modelo 2</SimpleData>
            <SimpleData name="Departamen">CAAGUAZU</SimpleData>
            <SimpleData name="Distrito">SAN JOAQUIN</SimpleData>
            <SimpleData name="Localidad">VIRGEN DEL CARMEN</SimpleData>
            <SimpleData name="Teléfono">0971563549</SimpleData>
            <SimpleData name="Vivienda_L">-25.05437040000</SimpleData>
            <SimpleData name="Vivienda_1">-56.12132940000</SimpleData>
            <SimpleData name="Superficie">0.80000000000</SimpleData>
            <SimpleData name="Situaci_1">Pol?gono</SimpleData>
            <SimpleData name="Plantado">SI</SimpleData>
            <SimpleData name="Fecha_Plan">2025/10/11</SimpleData>
            <SimpleData name="Jornales">0.00000000000</SimpleData>
            <SimpleData name="Monto">0.00000000000</SimpleData>
            <SimpleData name="Grupo_de_p">D-P1-XX-XX-XX</SimpleData>
            <SimpleData name="Estado_del">Activo</SimpleData>
            <SimpleData name="Empresa">Unique Wood Paraguay SA</SimpleData>
            <SimpleData name="Lote">D</SimpleData>
            <SimpleData name="Sup_SIG">0.89757271136</SimpleData>
            <SimpleData name="X">-56.12158961000</SimpleData>
            <SimpleData name="Y">-25.05163530000</SimpleData>
            <SimpleData name="cedula">1175333</SimpleData>
          </SchemaData>
        </ExtendedData>
        <Polygon>
          <outerBoundaryIs>
            <LinearRing>
              <coordinates>
                -56.1210342000314,-25.0519593996094,0
                -56.1219683001014,-25.05214330001,0
                -56.1221442999842,-25.051368699649,0
                -56.1212545998459,-25.0510755006866,0
                -56.1210342000314,-25.0519593996094,0
              </coordinates>
            </LinearRing>
          </outerBoundaryIs>
        </Polygon>
      </Placemark>
      <Placemark id="Distrito_SAN_JOAQUIN.2">
        <ExtendedData>
          <SchemaData schemaUrl="#Distrito_SAN_JOAQUIN.schema">
            <SimpleData name="Cédula">7358466.00000000000</SimpleData>
            <SimpleData name="Nombres_y_">CAROLINA RUIZ DIAZ AQUINO</SimpleData>
            <SimpleData name="Sexo">Mujer</SimpleData>
            <SimpleData name="Cambio_de_">NO</SimpleData>
            <SimpleData name="Titular_se">NO</SimpleData>
            <SimpleData name="ci_UNIF">7358466.00000000000</SimpleData>
            <SimpleData name="Situación">NO</SimpleData>
            <SimpleData name="Comunidad">Ind?gena</SimpleData>
            <SimpleData name="Modelo_imp">Modelo 1</SimpleData>
            <SimpleData name="Departamen">CAAGUAZU</SimpleData>
            <SimpleData name="Distrito">SAN JOAQUIN</SimpleData>
            <SimpleData name="Localidad">COM INDIG TEKOHA MIRI</SimpleData>
            <SimpleData name="Teléfono">0983016092</SimpleData>
            <SimpleData name="Vivienda_L">-25.10058230000</SimpleData>
            <SimpleData name="Vivienda_1">-56.01619130000</SimpleData>
            <SimpleData name="Superficie">0.80000000000</SimpleData>
            <SimpleData name="Situaci_1">Par?metro</SimpleData>
            <SimpleData name="Plantado">SI</SimpleData>
            <SimpleData name="Fecha_Plan">2026/05/05</SimpleData>
            <SimpleData name="Jornales">0.00000000000</SimpleData>
            <SimpleData name="Monto">0.00000000000</SimpleData>
            <SimpleData name="Grupo_de_p">D-P3-XX-XX-XX</SimpleData>
            <SimpleData name="Estado_del">Activo</SimpleData>
            <SimpleData name="Empresa">Unique Wood Paraguay SA</SimpleData>
            <SimpleData name="Lote">D</SimpleData>
            <SimpleData name="Sup_SIG">1.05557715609</SimpleData>
            <SimpleData name="X">-56.01744955000</SimpleData>
            <SimpleData name="Y">-25.10034888000</SimpleData>
            <SimpleData name="cedula">7358466</SimpleData>
          </SchemaData>
        </ExtendedData>
        <Polygon>
          <outerBoundaryIs>
            <LinearRing>
              <coordinates>
                -56.016610699994,-25.1004779997018,0
                -56.0168111990814,-25.1009261001011,0
                -56.0175233997036,-25.1006824996311,0
                -56.0182847997815,-25.1002532993701,0
                -56.0179432998832,-25.0997166995457,0
                -56.016610699994,-25.1004779997018,0
              </coordinates>
            </LinearRing>
          </outerBoundaryIs>
        </Polygon>
      </Placemark>
      <Placemark id="Distrito_SAN_JOAQUIN.3">
        <ExtendedData>
          <SchemaData schemaUrl="#Distrito_SAN_JOAQUIN.schema">
            <SimpleData name="Cédula">2970033.00000000000</SimpleData>
            <SimpleData name="Nombres_y_">AURELIA  CABALLERO DE GUERRERO</SimpleData>
            <SimpleData name="Sexo">Mujer</SimpleData>
            <SimpleData name="Cambio_de_">NO</SimpleData>
            <SimpleData name="Titular_se">NO</SimpleData>
            <SimpleData name="ci_UNIF">2970033.00000000000</SimpleData>
            <SimpleData name="Situación">NO</SimpleData>
            <SimpleData name="Comunidad">Campesina</SimpleData>
            <SimpleData name="Modelo_imp">Modelo 1</SimpleData>
            <SimpleData name="Departamen">CAAGUAZU</SimpleData>
            <SimpleData name="Distrito">SAN JOAQUIN</SimpleData>
            <SimpleData name="Localidad">TARUMA</SimpleData>
            <SimpleData name="Teléfono">983892422</SimpleData>
            <SimpleData name="Vivienda_L">-25.10877330000</SimpleData>
            <SimpleData name="Vivienda_1">-56.00378670000</SimpleData>
            <SimpleData name="Superficie">0.80000000000</SimpleData>
            <SimpleData name="Situaci_1">Parametro</SimpleData>
            <SimpleData name="Plantado">SI</SimpleData>
            <SimpleData name="Fecha_Plan">2026/05/22</SimpleData>
            <SimpleData name="Jornales">0.00000000000</SimpleData>
            <SimpleData name="Monto">0.00000000000</SimpleData>
            <SimpleData name="Grupo_de_p">D-P4-XX-XX-XX</SimpleData>
            <SimpleData name="Estado_del">Activo</SimpleData>
            <SimpleData name="Empresa">Unique Wood Paraguay SA</SimpleData>
            <SimpleData name="Lote">D</SimpleData>
            <SimpleData name="Sup_SIG">0.79637406490</SimpleData>
            <SimpleData name="X">-56.00626243000</SimpleData>
            <SimpleData name="Y">-25.11111677000</SimpleData>
            <SimpleData name="cedula">2970033</SimpleData>
          </SchemaData>
        </ExtendedData>
        <Polygon>
          <outerBoundaryIs>
            <LinearRing>
              <coordinates>
                -56.0056537415206,-25.1103960566588,0
                -56.0062226137102,-25.1114591154223,0
                -56.0065043006094,-25.1119855001224,0
                -56.0068725993317,-25.1118606000402,0
                -56.0060453002884,-25.1102703004184,0
                -56.0056444003571,-25.1103786002714,0
                -56.0056537415206,-25.1103960566588,0
              </coordinates>
            </LinearRing>
          </outerBoundaryIs>
        </Polygon>
      </Placemark>
      <Placemark id="Distrito_SAN_JOAQUIN.4">
        <ExtendedData>
          <SchemaData schemaUrl="#Distrito_SAN_JOAQUIN.schema">
            <SimpleData name="Cédula">5177344.00000000000</SimpleData>
            <SimpleData name="Nombres_y_">CELINA  RUIZ DIAZ</SimpleData>
            <SimpleData name="Sexo">Mujer</SimpleData>
            <SimpleData name="Cambio_de_">NO</SimpleData>
            <SimpleData name="Titular_se">NO</SimpleData>
            <SimpleData name="ci_UNIF">5177344.00000000000</SimpleData>
            <SimpleData name="Situación">NO</SimpleData>
            <SimpleData name="Comunidad">Campesina</SimpleData>
            <SimpleData name="Modelo_imp">Modelo 5</SimpleData>
            <SimpleData name="Departamen">CAAGUAZU</SimpleData>
            <SimpleData name="Distrito">SAN JOAQUIN</SimpleData>
            <SimpleData name="Localidad">TARUMA</SimpleData>
            <SimpleData name="Teléfono">982167509</SimpleData>
            <SimpleData name="Vivienda_L">-25.10933000000</SimpleData>
            <SimpleData name="Vivienda_1">-56.00407500000</SimpleData>
            <SimpleData name="Superficie">0.70000000000</SimpleData>
            <SimpleData name="Situaci_1">Parametro</SimpleData>
            <SimpleData name="Plantado">SI</SimpleData>
            <SimpleData name="Fecha_Plan">2026/05/26</SimpleData>
            <SimpleData name="Jornales">0.00000000000</SimpleData>
            <SimpleData name="Monto">0.00000000000</SimpleData>
            <SimpleData name="Grupo_de_p">D-P4-XX-XX-XX</SimpleData>
            <SimpleData name="Estado_del">Activo</SimpleData>
            <SimpleData name="Empresa">Unique Wood Paraguay SA</SimpleData>
            <SimpleData name="Lote">D</SimpleData>
            <SimpleData name="Sup_SIG">0.78291432904</SimpleData>
            <SimpleData name="X">-56.00542572000</SimpleData>
            <SimpleData name="Y">-25.10911684000</SimpleData>
            <SimpleData name="cedula">5177344</SimpleData>
          </SchemaData>
        </ExtendedData>
        <MultiGeometry>
          <Polygon>
            <outerBoundaryIs>
              <LinearRing>
                <coordinates>
                  -56.0051920995565,-25.109479000248,0
                  -56.0058964994291,-25.1091634996537,0
                  -56.0056645992585,-25.1087333002223,0
                  -56.0049323998656,-25.1091123005862,0
                  -56.0051920995565,-25.109479000248,0
                </coordinates>
              </LinearRing>
            </outerBoundaryIs>
          </Polygon>
          <Polygon>
            <outerBoundaryIs>
              <LinearRing>
                <coordinates>
                  -56.0072951998677,-25.0997257003692,0
                  -56.0075907999545,-25.099569900151,0
                  -56.0071097999325,-25.0987039003102,0
                  -56.0068196004017,-25.0988744006632,0
                  -56.0072951998677,-25.0997257003692,0
                </coordinates>
              </LinearRing>
            </outerBoundaryIs>
          </Polygon>
        </MultiGeometry>
      </Placemark>
      <Placemark id="Distrito_SAN_JOAQUIN.5">
        <ExtendedData>
          <SchemaData schemaUrl="#Distrito_SAN_JOAQUIN.schema">
            <SimpleData name="Cédula">7379193.00000000000</SimpleData>
            <SimpleData name="Nombres_y_">ROSA SAUCEDO OJEDA</SimpleData>
            <SimpleData name="Sexo">Mujer</SimpleData>
            <SimpleData name="Cambio_de_">NO</SimpleData>
            <SimpleData name="Titular_se">NO</SimpleData>
            <SimpleData name="ci_UNIF">7379193.00000000000</SimpleData>
            <SimpleData name="Situación">NO</SimpleData>
            <SimpleData name="Comunidad">Ind?gena</SimpleData>
            <SimpleData name="Modelo_imp">Modelo 5</SimpleData>
            <SimpleData name="Departamen">CAAGUAZU</SimpleData>
            <SimpleData name="Distrito">SAN JOAQUIN</SimpleData>
            <SimpleData name="Localidad">COM INDIG TEKOHA MIRI</SimpleData>
            <SimpleData name="Teléfono">0984938349</SimpleData>
            <SimpleData name="Vivienda_L">-25.10173820000</SimpleData>
            <SimpleData name="Vivienda_1">-56.01648040000</SimpleData>
            <SimpleData name="Superficie">0.70000000000</SimpleData>
            <SimpleData name="Situaci_1">Par?metro</SimpleData>
            <SimpleData name="Plantado">SI</SimpleData>
            <SimpleData name="Fecha_Plan">2026/05/05</SimpleData>
            <SimpleData name="Jornales">0.00000000000</SimpleData>
            <SimpleData name="Monto">0.00000000000</SimpleData>
            <SimpleData name="Grupo_de_p">D-P3-XX-XX-XX</SimpleData>
            <SimpleData name="Estado_del">Activo</SimpleData>
            <SimpleData name="Empresa">Unique Wood Paraguay SA</SimpleData>
            <SimpleData name="Lote">D</SimpleData>
            <SimpleData name="Sup_SIG">0.79981173960</SimpleData>
            <SimpleData name="X">-56.01754562000</SimpleData>
            <SimpleData name="Y">-25.10201261000</SimpleData>
            <SimpleData name="cedula">7379193</SimpleData>
          </SchemaData>
        </ExtendedData>
        <Polygon>
          <outerBoundaryIs>
            <LinearRing>
              <coordinates>
                -56.0170191993518,-25.1020947996117,0
                -56.0172405999592,-25.1024656995778,0
                -56.0174499993811,-25.1023682993961,0
                -56.017566299192,-25.1024730001137,0
                -56.0181842999755,-25.102192599833,0
                -56.0177857997773,-25.1016338001411,0
                -56.0175365992454,-25.101504099849,0
                -56.0170801994987,-25.1017070996276,0
                -56.0171191994703,-25.1019771995116,0
                -56.0170191993518,-25.1020947996117,0
              </coordinates>
            </LinearRing>
          </outerBoundaryIs>
        </Polygon>
      </Placemark>
      <Placemark id="Distrito_SAN_JOAQUIN.6">
        <ExtendedData>
          <SchemaData schemaUrl="#Distrito_SAN_JOAQUIN.schema">
            <SimpleData name="Cédula">6644702.00000000000</SimpleData>
            <SimpleData name="Nombres_y_">CARMELO FLORES MARTINEZ</SimpleData>
            <SimpleData name="Sexo">Hombre</SimpleData>
            <SimpleData name="Cambio_de_">NO</SimpleData>
            <SimpleData name="Titular_se">NO</SimpleData>
            <SimpleData name="ci_UNIF">6644702.00000000000</SimpleData>
            <SimpleData name="Situación">NO</SimpleData>
            <SimpleData name="Comunidad">Ind?gena</SimpleData>
            <SimpleData name="Modelo_imp">Modelo 5</SimpleData>
            <SimpleData name="Departamen">CAAGUAZU</SimpleData>
            <SimpleData name="Distrito">SAN JOAQUIN</SimpleData>
            <SimpleData name="Localidad">COM INDIG TEKOHA MIRI</SimpleData>
            <SimpleData name="Teléfono">0982967165</SimpleData>
            <SimpleData name="Vivienda_L">-25.10327350000</SimpleData>
            <SimpleData name="Vivienda_1">-56.01752580000</SimpleData>
            <SimpleData name="Superficie">0.70000000000</SimpleData>
            <SimpleData name="Situaci_1">Par?metro</SimpleData>
            <SimpleData name="Plantado">SI</SimpleData>
            <SimpleData name="Fecha_Plan">2026/05/05</SimpleData>
            <SimpleData name="Jornales">0.00000000000</SimpleData>
            <SimpleData name="Monto">0.00000000000</SimpleData>
            <SimpleData name="Grupo_de_p">D-P3-XX-XX-XX</SimpleData>
            <SimpleData name="Estado_del">Activo</SimpleData>
            <SimpleData name="Empresa">Unique Wood Paraguay SA</SimpleData>
            <SimpleData name="Lote">D</SimpleData>
            <SimpleData name="Sup_SIG">0.72042749894</SimpleData>
            <SimpleData name="X">-56.01829345000</SimpleData>
            <SimpleData name="Y">-25.10271603000</SimpleData>
            <SimpleData name="cedula">6644702</SimpleData>
          </SchemaData>
        </ExtendedData>
        <Polygon>
          <outerBoundaryIs>
            <LinearRing>
              <coordinates>
                -56.0178571993567,-25.1023847999937,0
                -56.0180617990481,-25.103279799994,0
                -56.0187708995623,-25.1030102993603,0
                -56.0184709998292,-25.1021478001032,0
                -56.0178571993567,-25.1023847999937,0
              </coordinates>
            </LinearRing>
          </outerBoundaryIs>
        </Polygon>
      </Placemark>
      <Placemark id="Distrito_SAN_JOAQUIN.7">
        <ExtendedData>
          <SchemaData schemaUrl="#Distrito_SAN_JOAQUIN.schema">
            <SimpleData name="Cédula">5739801.00000000000</SimpleData>
            <SimpleData name="Nombres_y_">DIGNA BENITEZ FERNANDEZ</SimpleData>
            <SimpleData name="Sexo">Mujer</SimpleData>
            <SimpleData name="Cambio_de_">NO</SimpleData>
            <SimpleData name="Titular_se">NO</SimpleData>
            <SimpleData name="ci_UNIF">5739801.00000000000</SimpleData>
            <SimpleData name="Situación">NO</SimpleData>
            <SimpleData name="Comunidad">Ind?gena</SimpleData>
            <SimpleData name="Modelo_imp">Modelo 1</SimpleData>
            <SimpleData name="Departamen">CAAGUAZU</SimpleData>
            <SimpleData name="Distrito">SAN JOAQUIN</SimpleData>
            <SimpleData name="Localidad">COM INDIG TEKOHA MIRI</SimpleData>
            <SimpleData name="Teléfono">ND</SimpleData>
            <SimpleData name="Vivienda_L">-25.10416920000</SimpleData>
            <SimpleData name="Vivienda_1">-56.01885210000</SimpleData>
            <SimpleData name="Superficie">0.80000000000</SimpleData>
            <SimpleData name="Situaci_1">Par?metro</SimpleData>
            <SimpleData name="Plantado">SI</SimpleData>
            <SimpleData name="Fecha_Plan">2026/05/05</SimpleData>
            <SimpleData name="Jornales">0.00000000000</SimpleData>
            <SimpleData name="Monto">0.00000000000</SimpleData>
            <SimpleData name="Grupo_de_p">D-P3-XX-XX-XX</SimpleData>
            <SimpleData name="Estado_del">Activo</SimpleData>
            <SimpleData name="Empresa">Unique Wood Paraguay SA</SimpleData>
            <SimpleData name="Lote">D</SimpleData>
            <SimpleData name="Sup_SIG">0.94653919597</SimpleData>
            <SimpleData name="X">-56.01949204000</SimpleData>
            <SimpleData name="Y">-25.10060488000</SimpleData>
            <SimpleData name="cedula">5739801</SimpleData>
          </SchemaData>
        </ExtendedData>
        <Polygon>
          <outerBoundaryIs>
            <LinearRing>
              <coordinates>
                -56.0188015990755,-25.1004461999244,0
                -56.0191799993286,-25.1011581999619,0
                -56.0201660993949,-25.1007517995107,0
                -56.0198432991985,-25.1000643998067,0
                -56.0188015990755,-25.1004461999244,0
              </coordinates>
            </LinearRing>
          </outerBoundaryIs>
        </Polygon>
      </Placemark>
    </Document>
  </Document>
</kml>
