<?xml version="1.0" encoding="UTF-8"?>
<kml xmlns="http://www.opengis.net/kml/2.2">
  <Document id="root_doc">
    <Schema id="Distrito_YPEJH__.schema">
      <SimpleField name="Cédula" type="double"/>
      <SimpleField name="cedula" type="string"/>
      <SimpleField name="Cédula_1" type="double"/>
      <SimpleField name="N_" type="double"/>
      <SimpleField name="Nombres_y_" type="string"/>
      <SimpleField name="Sexo" type="string"/>
      <SimpleField name="Cambio_de_" type="string"/>
      <SimpleField name="Titular_se" type="string"/>
      <SimpleField name="Cédula_Ti" type="string"/>
      <SimpleField name="Situación" type="string"/>
      <SimpleField name="Comunidad" type="string"/>
      <SimpleField name="Modelo" type="string"/>
      <SimpleField name="Departamen" type="string"/>
      <SimpleField name="Distrito" type="string"/>
      <SimpleField name="Localidad" type="string"/>
      <SimpleField name="Teléfono" type="string"/>
      <SimpleField name="Vivienda_L" type="double"/>
      <SimpleField name="Vivienda_1" type="double"/>
      <SimpleField name="Superficie" type="double"/>
      <SimpleField name="Situaci_1" type="string"/>
      <SimpleField name="Plantado" type="string"/>
      <SimpleField name="Parcela_La" type="double"/>
      <SimpleField name="Parcela_Lo" type="double"/>
      <SimpleField name="Grupo_Impl" type="string"/>
      <SimpleField name="Grupo_de_P" type="string"/>
      <SimpleField name="Jornales" type="double"/>
      <SimpleField name="Monto" type="double"/>
      <SimpleField name="Estado_del" type="string"/>
      <SimpleField name="Empresa" type="string"/>
      <SimpleField name="Lote" type="string"/>
      <SimpleField name="Fecha_de_M" type="string"/>
      <SimpleField name="F__de_pren" type="string"/>
      <SimpleField name="Cocina_Efi" type="string"/>
      <SimpleField name="Estado_FAO" type="string"/>
      <SimpleField name="Etapa_de_i" type="string"/>
      <SimpleField name="Fecha_visi" type="string"/>
      <SimpleField name="Etapa_impl" type="string"/>
      <SimpleField name="Cumple_sup" type="string"/>
      <SimpleField name="Estado_mon" type="string"/>
      <SimpleField name="Situaci_12" type="string"/>
      <SimpleField name="Observaci" type="string"/>
      <SimpleField name="Dias_trans" type="string"/>
      <SimpleField name="Prioridad" type="string"/>
      <SimpleField name="OBJECTID_1" type="int"/>
    </Schema>
    <Document id="Distrito_YPEJH__">
      <name>Distrito_YPEJHÃš</name>
      <Placemark id="Distrito_YPEJH__.1">
        <ExtendedData>
          <SchemaData schemaUrl="#Distrito_YPEJH__.schema">
            <SimpleData name="Cédula">6779643.00000000000</SimpleData>
            <SimpleData name="cedula">6779643</SimpleData>
            <SimpleData name="Cédula_1">6779643.00000000000</SimpleData>
            <SimpleData name="N_">251.00000000000</SimpleData>
            <SimpleData name="Nombres_y_">PLACIDO PACHER CABRAL</SimpleData>
            <SimpleData name="Sexo">Hombre</SimpleData>
            <SimpleData name="Cambio_de_">NO</SimpleData>
            <SimpleData name="Titular_se">NO</SimpleData>
            <SimpleData name="Cédula_Ti">NO</SimpleData>
            <SimpleData name="Situación">NO</SimpleData>
            <SimpleData name="Comunidad">Ind?gena</SimpleData>
            <SimpleData name="Modelo">Modelo 1</SimpleData>
            <SimpleData name="Departamen">CANINDEYU</SimpleData>
            <SimpleData name="Distrito">YPEJH?</SimpleData>
            <SimpleData name="Localidad">COM INDIG KABAYU PASO</SimpleData>
            <SimpleData name="Teléfono">ND</SimpleData>
            <SimpleData name="Vivienda_L">-24.00076330000</SimpleData>
            <SimpleData name="Vivienda_1">-55.86977670000</SimpleData>
            <SimpleData name="Superficie">0.80000000000</SimpleData>
            <SimpleData name="Situaci_1">Par?metro</SimpleData>
            <SimpleData name="Plantado">SI</SimpleData>
            <SimpleData name="Parcela_La">-24.00056337000</SimpleData>
            <SimpleData name="Parcela_Lo">-55.87063425000</SimpleData>
            <SimpleData name="Grupo_Impl">G2</SimpleData>
            <SimpleData name="Grupo_de_P">H-P8-XX-XX-XX</SimpleData>
            <SimpleData name="Jornales">0.00000000000</SimpleData>
            <SimpleData name="Monto">0.00000000000</SimpleData>
            <SimpleData name="Estado_del">Activo</SimpleData>
            <SimpleData name="Empresa">Hyh Consultores SRL</SimpleData>
            <SimpleData name="Lote">H</SimpleData>
            <SimpleData name="Fecha_de_M">-</SimpleData>
            <SimpleData name="F__de_pren">-</SimpleData>
            <SimpleData name="Cocina_Efi">No</SimpleData>
            <SimpleData name="Estado_FAO">Verificar posible desercion</SimpleData>
            <SimpleData name="Etapa_de_i">Mantenimiento A?o 1.1</SimpleData>
            <SimpleData name="Fecha_visi">2026/07/31</SimpleData>
            <SimpleData name="Etapa_impl">Mantenimiento A?o 1.1</SimpleData>
            <SimpleData name="Cumple_sup">-</SimpleData>
            <SimpleData name="Estado_mon">-</SimpleData>
            <SimpleData name="Situaci_12">-</SimpleData>
            <SimpleData name="Observaci">-</SimpleData>
            <SimpleData name="Dias_trans">-</SimpleData>
            <SimpleData name="Prioridad">ALTA</SimpleData>
            <SimpleData name="OBJECTID_1">251</SimpleData>
          </SchemaData>
        </ExtendedData>
        <Polygon>
          <outerBoundaryIs>
            <LinearRing>
              <coordinates>
                -55.870413999591,-24.0001782000051,0
                -55.8698932991712,-24.000980000402,0
                -55.871321499192,-24.0007765005347,0
                -55.870904999493,-24.0000767001283,0
                -55.870413999591,-24.0001782000051,0
              </coordinates>
            </LinearRing>
          </outerBoundaryIs>
        </Polygon>
      </Placemark>
      <Placemark id="Distrito_YPEJH__.2">
        <ExtendedData>
          <SchemaData schemaUrl="#Distrito_YPEJH__.schema">
            <SimpleData name="Cédula">6753767.00000000000</SimpleData>
            <SimpleData name="cedula">6753767</SimpleData>
            <SimpleData name="Cédula_1">6753767.00000000000</SimpleData>
            <SimpleData name="N_">75.00000000000</SimpleData>
            <SimpleData name="Nombres_y_">ALBINA MONTANIA GARCETE</SimpleData>
            <SimpleData name="Sexo">Mujer</SimpleData>
            <SimpleData name="Cambio_de_">NO</SimpleData>
            <SimpleData name="Titular_se">NO</SimpleData>
            <SimpleData name="Cédula_Ti">NO</SimpleData>
            <SimpleData name="Situación">NO</SimpleData>
            <SimpleData name="Comunidad">Ind?gena</SimpleData>
            <SimpleData name="Modelo">Modelo 5</SimpleData>
            <SimpleData name="Departamen">CANINDEYU</SimpleData>
            <SimpleData name="Distrito">YPEJH?</SimpleData>
            <SimpleData name="Localidad"><![CDATA[COM INDIG KA'AGUY POTYRA]]></SimpleData>
            <SimpleData name="Teléfono">ND</SimpleData>
            <SimpleData name="Vivienda_L">-23.93182330000</SimpleData>
            <SimpleData name="Vivienda_1">-55.86994830000</SimpleData>
            <SimpleData name="Superficie">0.70000000000</SimpleData>
            <SimpleData name="Situaci_1">Par?metro</SimpleData>
            <SimpleData name="Plantado">SI</SimpleData>
            <SimpleData name="Parcela_La">-23.93199551000</SimpleData>
            <SimpleData name="Parcela_Lo">-55.87028385000</SimpleData>
            <SimpleData name="Grupo_Impl">G2</SimpleData>
            <SimpleData name="Grupo_de_P">H-P12-XX-XX-XX</SimpleData>
            <SimpleData name="Jornales">0.00000000000</SimpleData>
            <SimpleData name="Monto">0.00000000000</SimpleData>
            <SimpleData name="Estado_del">Activo</SimpleData>
            <SimpleData name="Empresa">Hyh Consultores SRL</SimpleData>
            <SimpleData name="Lote">H</SimpleData>
            <SimpleData name="Fecha_de_M">-</SimpleData>
            <SimpleData name="F__de_pren">-</SimpleData>
            <SimpleData name="Cocina_Efi">No</SimpleData>
            <SimpleData name="Estado_FAO">Monitorear</SimpleData>
            <SimpleData name="Etapa_de_i">Mantenimiento A?o 1.1</SimpleData>
            <SimpleData name="Fecha_visi">2026/07/27</SimpleData>
            <SimpleData name="Etapa_impl">Mantenimiento A?o 1.1</SimpleData>
            <SimpleData name="Cumple_sup">Si</SimpleData>
            <SimpleData name="Estado_mon">-</SimpleData>
            <SimpleData name="Situaci_12">-</SimpleData>
            <SimpleData name="Observaci">-</SimpleData>
            <SimpleData name="Dias_trans">6</SimpleData>
            <SimpleData name="Prioridad">ALTA</SimpleData>
            <SimpleData name="OBJECTID_1">75</SimpleData>
          </SchemaData>
        </ExtendedData>
        <Polygon>
          <outerBoundaryIs>
            <LinearRing>
              <coordinates>
                -55.8702982999491,-23.9319048000612,0
                -55.8698960001476,-23.9319037001512,0
                -55.8696678002665,-23.9318852000151,0
                -55.8698306997878,-23.9322959000999,0
                -55.8699255999361,-23.932400399828,0
                -55.8700239003205,-23.9324921995742,0
                -55.8703471996439,-23.9325051001201,0
                -55.8703276999905,-23.9322651002984,0
                -55.8706419998234,-23.932223899569,0
                -55.8707159995159,-23.9321830002956,0
                -55.8707795002365,-23.9318485004335,0
                -55.8707169004077,-23.9317613996814,0
                -55.87064759952,-23.9316435002772,0
                -55.8706080997008,-23.9314852996926,0
                -55.8705741999379,-23.9314026996591,0
                -55.8701485001453,-23.9315437996195,0
                -55.8701620995712,-23.9316176003939,0
                -55.8702982999491,-23.9319048000612,0
              </coordinates>
            </LinearRing>
          </outerBoundaryIs>
        </Polygon>
      </Placemark>
      <Placemark id="Distrito_YPEJH__.3">
        <ExtendedData>
          <SchemaData schemaUrl="#Distrito_YPEJH__.schema">
            <SimpleData name="Cédula">6718082.00000000000</SimpleData>
            <SimpleData name="cedula">6718082</SimpleData>
            <SimpleData name="Cédula_1">6718082.00000000000</SimpleData>
            <SimpleData name="N_">79.00000000000</SimpleData>
            <SimpleData name="Nombres_y_">MARIELA SALINAS OCAMPOS</SimpleData>
            <SimpleData name="Sexo">Mujer</SimpleData>
            <SimpleData name="Cambio_de_">NO</SimpleData>
            <SimpleData name="Titular_se">NO</SimpleData>
            <SimpleData name="Cédula_Ti">NO</SimpleData>
            <SimpleData name="Situación">NO</SimpleData>
            <SimpleData name="Comunidad">Ind?gena</SimpleData>
            <SimpleData name="Modelo">Modelo 1</SimpleData>
            <SimpleData name="Departamen">CANINDEYU</SimpleData>
            <SimpleData name="Distrito">YPEJH?</SimpleData>
            <SimpleData name="Localidad">COM INDIG Y APY BARRANCO</SimpleData>
            <SimpleData name="Teléfono">ND</SimpleData>
            <SimpleData name="Vivienda_L">-23.93415270000</SimpleData>
            <SimpleData name="Vivienda_1">-55.87298130000</SimpleData>
            <SimpleData name="Superficie">0.80000000000</SimpleData>
            <SimpleData name="Situaci_1">Par?metro</SimpleData>
            <SimpleData name="Plantado">SI</SimpleData>
            <SimpleData name="Parcela_La">-23.93720003000</SimpleData>
            <SimpleData name="Parcela_Lo">-55.87422285000</SimpleData>
            <SimpleData name="Grupo_Impl">G2</SimpleData>
            <SimpleData name="Grupo_de_P">H-P12-XX-XX-XX</SimpleData>
            <SimpleData name="Jornales">0.00000000000</SimpleData>
            <SimpleData name="Monto">0.00000000000</SimpleData>
            <SimpleData name="Estado_del">Activo</SimpleData>
            <SimpleData name="Empresa">Hyh Consultores SRL</SimpleData>
            <SimpleData name="Lote">H</SimpleData>
            <SimpleData name="Fecha_de_M">-</SimpleData>
            <SimpleData name="F__de_pren">-</SimpleData>
            <SimpleData name="Cocina_Efi">No</SimpleData>
            <SimpleData name="Estado_FAO">Monitorear</SimpleData>
            <SimpleData name="Etapa_de_i">Mantenimiento A?o 1.1</SimpleData>
            <SimpleData name="Fecha_visi">2026/07/27</SimpleData>
            <SimpleData name="Etapa_impl">Mantenimiento A?o 1.1</SimpleData>
            <SimpleData name="Cumple_sup">Si</SimpleData>
            <SimpleData name="Estado_mon">-</SimpleData>
            <SimpleData name="Situaci_12">-</SimpleData>
            <SimpleData name="Observaci">-</SimpleData>
            <SimpleData name="Dias_trans">6</SimpleData>
            <SimpleData name="Prioridad">ALTA</SimpleData>
            <SimpleData name="OBJECTID_1">79</SimpleData>
          </SchemaData>
        </ExtendedData>
        <Polygon>
          <outerBoundaryIs>
            <LinearRing>
              <coordinates>
                -55.873873299684,-23.9373699998783,0
                -55.8741137997675,-23.9378623998514,0
                -55.8743360997824,-23.9377349995552,0
                -55.8747027002532,-23.9375401996606,0
                -55.874755600041,-23.937521400408,0
                -55.8745901001532,-23.9372149999024,0
                -55.8745005000701,-23.9370034996089,0
                -55.8743051998297,-23.9366874997878,0
                -55.8742030999019,-23.9365276997774,0
                -55.8741361998314,-23.9364372001873,0
                -55.8740081995947,-23.9364797002408,0
                -55.8739489003169,-23.9366289999203,0
                -55.8739755996382,-23.9369188004249,0
                -55.8738599002298,-23.9369420998912,0
                -55.8738198000935,-23.9370503995886,0
                -55.873873299684,-23.9373699998783,0
              </coordinates>
            </LinearRing>
          </outerBoundaryIs>
        </Polygon>
      </Placemark>
      <Placemark id="Distrito_YPEJH__.4">
        <ExtendedData>
          <SchemaData schemaUrl="#Distrito_YPEJH__.schema">
            <SimpleData name="Cédula">6628253.00000000000</SimpleData>
            <SimpleData name="cedula">6628253</SimpleData>
            <SimpleData name="Cédula_1">6628253.00000000000</SimpleData>
            <SimpleData name="N_">61.00000000000</SimpleData>
            <SimpleData name="Nombres_y_">NORMA LOPEZ RAMIREZ</SimpleData>
            <SimpleData name="Sexo">Mujer</SimpleData>
            <SimpleData name="Cambio_de_">NO</SimpleData>
            <SimpleData name="Titular_se">NO</SimpleData>
            <SimpleData name="Cédula_Ti">NO</SimpleData>
            <SimpleData name="Situación">NO</SimpleData>
            <SimpleData name="Comunidad">Ind?gena</SimpleData>
            <SimpleData name="Modelo">Modelo 1</SimpleData>
            <SimpleData name="Departamen">CANINDEYU</SimpleData>
            <SimpleData name="Distrito">YPEJH?</SimpleData>
            <SimpleData name="Localidad">COM INDIG PYPUCU</SimpleData>
            <SimpleData name="Teléfono">0985959510</SimpleData>
            <SimpleData name="Vivienda_L">-23.89803830000</SimpleData>
            <SimpleData name="Vivienda_1">-55.65251830000</SimpleData>
            <SimpleData name="Superficie">0.80000000000</SimpleData>
            <SimpleData name="Situaci_1">Par?metro</SimpleData>
            <SimpleData name="Plantado">SI</SimpleData>
            <SimpleData name="Parcela_La">-23.89868276000</SimpleData>
            <SimpleData name="Parcela_Lo">-55.65259543000</SimpleData>
            <SimpleData name="Grupo_Impl">G2</SimpleData>
            <SimpleData name="Grupo_de_P">H-P7-XX-XX-XX</SimpleData>
            <SimpleData name="Jornales">0.00000000000</SimpleData>
            <SimpleData name="Monto">0.00000000000</SimpleData>
            <SimpleData name="Estado_del">Activo</SimpleData>
            <SimpleData name="Empresa">Hyh Consultores SRL</SimpleData>
            <SimpleData name="Lote">H</SimpleData>
            <SimpleData name="Fecha_de_M">-</SimpleData>
            <SimpleData name="F__de_pren">-</SimpleData>
            <SimpleData name="Cocina_Efi">No</SimpleData>
            <SimpleData name="Estado_FAO">Monitorear</SimpleData>
            <SimpleData name="Etapa_de_i">Mantenimiento A?o 1.1</SimpleData>
            <SimpleData name="Fecha_visi">2026/07/30</SimpleData>
            <SimpleData name="Etapa_impl">Mantenimiento A?o 1.1</SimpleData>
            <SimpleData name="Cumple_sup">Si</SimpleData>
            <SimpleData name="Estado_mon">-</SimpleData>
            <SimpleData name="Situaci_12">-</SimpleData>
            <SimpleData name="Observaci">-</SimpleData>
            <SimpleData name="Dias_trans">3</SimpleData>
            <SimpleData name="Prioridad">ALTA</SimpleData>
            <SimpleData name="OBJECTID_1">61</SimpleData>
          </SchemaData>
        </ExtendedData>
        <Polygon>
          <outerBoundaryIs>
            <LinearRing>
              <coordinates>
                -55.6521199995742,-23.8982532997384,0
                -55.6524165004354,-23.8994134995753,0
                -55.6526332001994,-23.8993611001262,0
                -55.6526075000652,-23.8990240996448,0
                -55.6531333997144,-23.8989458998661,0
                -55.6528499999199,-23.898151700021,0
                -55.6521199995742,-23.8982532997384,0
              </coordinates>
            </LinearRing>
          </outerBoundaryIs>
        </Polygon>
      </Placemark>
      <Placemark id="Distrito_YPEJH__.5">
        <ExtendedData>
          <SchemaData schemaUrl="#Distrito_YPEJH__.schema">
            <SimpleData name="Cédula">5885682.00000000000</SimpleData>
            <SimpleData name="cedula">5885682</SimpleData>
            <SimpleData name="Cédula_1">5885682.00000000000</SimpleData>
            <SimpleData name="N_">66.00000000000</SimpleData>
            <SimpleData name="Nombres_y_">SONIA LOPEZ RAMIREZ</SimpleData>
            <SimpleData name="Sexo">Mujer</SimpleData>
            <SimpleData name="Cambio_de_">NO</SimpleData>
            <SimpleData name="Titular_se">NO</SimpleData>
            <SimpleData name="Cédula_Ti">NO</SimpleData>
            <SimpleData name="Situación">NO</SimpleData>
            <SimpleData name="Comunidad">Ind?gena</SimpleData>
            <SimpleData name="Modelo">Modelo 2</SimpleData>
            <SimpleData name="Departamen">CANINDEYU</SimpleData>
            <SimpleData name="Distrito">YPEJH?</SimpleData>
            <SimpleData name="Localidad">COM INDIG ITANARA-PARIRI</SimpleData>
            <SimpleData name="Teléfono">ND</SimpleData>
            <SimpleData name="Vivienda_L">-23.87543400000</SimpleData>
            <SimpleData name="Vivienda_1">-55.70151090000</SimpleData>
            <SimpleData name="Superficie">0.80000000000</SimpleData>
            <SimpleData name="Situaci_1">Par?metro</SimpleData>
            <SimpleData name="Plantado">SI</SimpleData>
            <SimpleData name="Parcela_La">-23.87583176000</SimpleData>
            <SimpleData name="Parcela_Lo">-55.70188509000</SimpleData>
            <SimpleData name="Grupo_Impl">G2</SimpleData>
            <SimpleData name="Grupo_de_P">H-P8-XX-XX-XX</SimpleData>
            <SimpleData name="Jornales">0.00000000000</SimpleData>
            <SimpleData name="Monto">0.00000000000</SimpleData>
            <SimpleData name="Estado_del">Activo</SimpleData>
            <SimpleData name="Empresa">Hyh Consultores SRL</SimpleData>
            <SimpleData name="Lote">H</SimpleData>
            <SimpleData name="Fecha_de_M">-</SimpleData>
            <SimpleData name="F__de_pren">-</SimpleData>
            <SimpleData name="Cocina_Efi">No</SimpleData>
            <SimpleData name="Estado_FAO">Monitorear</SimpleData>
            <SimpleData name="Etapa_de_i">Mantenimiento A?o 1.1</SimpleData>
            <SimpleData name="Fecha_visi">2026/06/26</SimpleData>
            <SimpleData name="Etapa_impl">Mantenimiento A?o 1.1</SimpleData>
            <SimpleData name="Cumple_sup">Si</SimpleData>
            <SimpleData name="Estado_mon">-</SimpleData>
            <SimpleData name="Situaci_12">-</SimpleData>
            <SimpleData name="Observaci">-</SimpleData>
            <SimpleData name="Dias_trans">37</SimpleData>
            <SimpleData name="Prioridad">ALTA</SimpleData>
            <SimpleData name="OBJECTID_1">66</SimpleData>
          </SchemaData>
        </ExtendedData>
        <Polygon>
          <outerBoundaryIs>
            <LinearRing>
              <coordinates>
                -55.7012581793728,-23.8757112232153,0
                -55.7013680997722,-23.8759012001075,0
                -55.7015118964156,-23.8760892592068,0
                -55.7016919994829,-23.87627920034,0
                -55.7017558993382,-23.8763393024264,0
                -55.7018848597939,-23.8764112851788,0
                -55.7021231999489,-23.8762392000515,0
                -55.7022146997701,-23.8761259000595,0
                -55.7023883990594,-23.8759300998164,0
                -55.7024958995468,-23.8758476999901,0
                -55.7020249994356,-23.8752617000944,0
                -55.7018449992837,-23.8753382998977,0
                -55.7017098997971,-23.8754468998125,0
                -55.7014473992391,-23.8756032997998,0
                -55.7012581793728,-23.8757112232153,0
              </coordinates>
            </LinearRing>
          </outerBoundaryIs>
        </Polygon>
      </Placemark>
      <Placemark id="Distrito_YPEJH__.6">
        <ExtendedData>
          <SchemaData schemaUrl="#Distrito_YPEJH__.schema">
            <SimpleData name="Cédula">7206868.00000000000</SimpleData>
            <SimpleData name="cedula">7206868</SimpleData>
            <SimpleData name="Cédula_1">7206868.00000000000</SimpleData>
            <SimpleData name="N_">65.00000000000</SimpleData>
            <SimpleData name="Nombres_y_">DANIELA LOPEZ ISASI</SimpleData>
            <SimpleData name="Sexo">Mujer</SimpleData>
            <SimpleData name="Cambio_de_">NO</SimpleData>
            <SimpleData name="Titular_se">NO</SimpleData>
            <SimpleData name="Cédula_Ti">NO</SimpleData>
            <SimpleData name="Situación">NO</SimpleData>
            <SimpleData name="Comunidad">Ind?gena</SimpleData>
            <SimpleData name="Modelo">Modelo 5</SimpleData>
            <SimpleData name="Departamen">CANINDEYU</SimpleData>
            <SimpleData name="Distrito">YPEJH?</SimpleData>
            <SimpleData name="Localidad">COM INDIG PYPUCU</SimpleData>
            <SimpleData name="Teléfono">0983405406</SimpleData>
            <SimpleData name="Vivienda_L">-23.89937300000</SimpleData>
            <SimpleData name="Vivienda_1">-55.64716190000</SimpleData>
            <SimpleData name="Superficie">0.70000000000</SimpleData>
            <SimpleData name="Situaci_1">Par?metro</SimpleData>
            <SimpleData name="Plantado">SI</SimpleData>
            <SimpleData name="Parcela_La">-23.89811517000</SimpleData>
            <SimpleData name="Parcela_Lo">-55.64727192000</SimpleData>
            <SimpleData name="Grupo_Impl">G2</SimpleData>
            <SimpleData name="Grupo_de_P">H-P6-XX-XX-XX</SimpleData>
            <SimpleData name="Jornales">0.00000000000</SimpleData>
            <SimpleData name="Monto">0.00000000000</SimpleData>
            <SimpleData name="Estado_del">Activo</SimpleData>
            <SimpleData name="Empresa">Hyh Consultores SRL</SimpleData>
            <SimpleData name="Lote">H</SimpleData>
            <SimpleData name="Fecha_de_M">-</SimpleData>
            <SimpleData name="F__de_pren">-</SimpleData>
            <SimpleData name="Cocina_Efi">No</SimpleData>
            <SimpleData name="Estado_FAO">Monitorear</SimpleData>
            <SimpleData name="Etapa_de_i">Mantenimiento A?o 1.1</SimpleData>
            <SimpleData name="Fecha_visi">2026/07/30</SimpleData>
            <SimpleData name="Etapa_impl">Mantenimiento A?o 1.1</SimpleData>
            <SimpleData name="Cumple_sup">Si</SimpleData>
            <SimpleData name="Estado_mon">-</SimpleData>
            <SimpleData name="Situaci_12">-</SimpleData>
            <SimpleData name="Observaci">-</SimpleData>
            <SimpleData name="Dias_trans">3</SimpleData>
            <SimpleData name="Prioridad">ALTA</SimpleData>
            <SimpleData name="OBJECTID_1">65</SimpleData>
          </SchemaData>
        </ExtendedData>
        <Polygon>
          <outerBoundaryIs>
            <LinearRing>
              <coordinates>
                -55.6472550002306,-23.8989999998799,0
                -55.6474999001735,-23.899044999952,0
                -55.6474643998691,-23.8973423003926,0
                -55.6469073998697,-23.8975153999554,0
                -55.6472550002306,-23.8989999998799,0
              </coordinates>
            </LinearRing>
          </outerBoundaryIs>
        </Polygon>
      </Placemark>
      <Placemark id="Distrito_YPEJH__.7">
        <ExtendedData>
          <SchemaData schemaUrl="#Distrito_YPEJH__.schema">
            <SimpleData name="Cédula">6732638.00000000000</SimpleData>
            <SimpleData name="cedula">6732638</SimpleData>
            <SimpleData name="Cédula_1">6732638.00000000000</SimpleData>
            <SimpleData name="N_">62.00000000000</SimpleData>
            <SimpleData name="Nombres_y_">CELEDONIO PACHER CABRAL</SimpleData>
            <SimpleData name="Sexo">Hombre</SimpleData>
            <SimpleData name="Cambio_de_">NO</SimpleData>
            <SimpleData name="Titular_se">NO</SimpleData>
            <SimpleData name="Cédula_Ti">NO</SimpleData>
            <SimpleData name="Situación">NO</SimpleData>
            <SimpleData name="Comunidad">Ind?gena</SimpleData>
            <SimpleData name="Modelo">Modelo 2</SimpleData>
            <SimpleData name="Departamen">CANINDEYU</SimpleData>
            <SimpleData name="Distrito">YPEJH?</SimpleData>
            <SimpleData name="Localidad">COM INDIG YVY KATU</SimpleData>
            <SimpleData name="Teléfono">0986973365</SimpleData>
            <SimpleData name="Vivienda_L">-23.96969080000</SimpleData>
            <SimpleData name="Vivienda_1">-55.85919770000</SimpleData>
            <SimpleData name="Superficie">0.80000000000</SimpleData>
            <SimpleData name="Situaci_1">Par?metro</SimpleData>
            <SimpleData name="Plantado">SI</SimpleData>
            <SimpleData name="Parcela_La">-23.96754084000</SimpleData>
            <SimpleData name="Parcela_Lo">-55.85880926000</SimpleData>
            <SimpleData name="Grupo_Impl">G2</SimpleData>
            <SimpleData name="Grupo_de_P">H-P7-XX-XX-XX</SimpleData>
            <SimpleData name="Jornales">0.00000000000</SimpleData>
            <SimpleData name="Monto">0.00000000000</SimpleData>
            <SimpleData name="Estado_del">Activo</SimpleData>
            <SimpleData name="Empresa">Hyh Consultores SRL</SimpleData>
            <SimpleData name="Lote">H</SimpleData>
            <SimpleData name="Fecha_de_M">-</SimpleData>
            <SimpleData name="F__de_pren">-</SimpleData>
            <SimpleData name="Cocina_Efi">No</SimpleData>
            <SimpleData name="Estado_FAO">Monitorear</SimpleData>
            <SimpleData name="Etapa_de_i">Mantenimiento A?o 1.1</SimpleData>
            <SimpleData name="Fecha_visi">2026/07/23</SimpleData>
            <SimpleData name="Etapa_impl">Mantenimiento A?o 1.1</SimpleData>
            <SimpleData name="Cumple_sup">Si</SimpleData>
            <SimpleData name="Estado_mon">-</SimpleData>
            <SimpleData name="Situaci_12">-</SimpleData>
            <SimpleData name="Observaci">-</SimpleData>
            <SimpleData name="Dias_trans">10</SimpleData>
            <SimpleData name="Prioridad">ALTA</SimpleData>
            <SimpleData name="OBJECTID_1">62</SimpleData>
          </SchemaData>
        </ExtendedData>
        <Polygon>
          <outerBoundaryIs>
            <LinearRing>
              <coordinates>
                -55.8591658989245,-23.9669460934949,0
                -55.859158605089,-23.9669490547675,0
                -55.8591603995909,-23.9669541995888,0
                -55.8580247428108,-23.9674093749636,0
                -55.8580066999339,-23.9674167004086,0
                -55.8587253995892,-23.9681163002113,0
                -55.8593228855606,-23.9679151723449,0
                -55.8593233074522,-23.9679150300797,0
                -55.8593432998867,-23.967908299671,0
                -55.8592391417405,-23.9669246525628,0
                -55.8592382997104,-23.9669166998221,0
                -55.8591658989245,-23.9669460934949,0
              </coordinates>
            </LinearRing>
          </outerBoundaryIs>
        </Polygon>
      </Placemark>
      <Placemark id="Distrito_YPEJH__.8">
        <ExtendedData>
          <SchemaData schemaUrl="#Distrito_YPEJH__.schema">
            <SimpleData name="Cédula">6628265.00000000000</SimpleData>
            <SimpleData name="cedula">6628265</SimpleData>
            <SimpleData name="Cédula_1">6628265.00000000000</SimpleData>
            <SimpleData name="N_">60.00000000000</SimpleData>
            <SimpleData name="Nombres_y_">LILIANA MEDINA LOPEZ</SimpleData>
            <SimpleData name="Sexo">Mujer</SimpleData>
            <SimpleData name="Cambio_de_">NO</SimpleData>
            <SimpleData name="Titular_se">NO</SimpleData>
            <SimpleData name="Cédula_Ti">NO</SimpleData>
            <SimpleData name="Situación">NO</SimpleData>
            <SimpleData name="Comunidad">Ind?gena</SimpleData>
            <SimpleData name="Modelo">Modelo 5</SimpleData>
            <SimpleData name="Departamen">CANINDEYU</SimpleData>
            <SimpleData name="Distrito">YPEJH?</SimpleData>
            <SimpleData name="Localidad">COM INDIG PYPUCU</SimpleData>
            <SimpleData name="Teléfono">0986275360</SimpleData>
            <SimpleData name="Vivienda_L">-23.89712370000</SimpleData>
            <SimpleData name="Vivienda_1">-55.65471940000</SimpleData>
            <SimpleData name="Superficie">0.70000000000</SimpleData>
            <SimpleData name="Situaci_1">Par?metro</SimpleData>
            <SimpleData name="Plantado">SI</SimpleData>
            <SimpleData name="Parcela_La">-23.89631862000</SimpleData>
            <SimpleData name="Parcela_Lo">-55.65457638000</SimpleData>
            <SimpleData name="Grupo_Impl">G2</SimpleData>
            <SimpleData name="Grupo_de_P">H-P6-XX-XX-XX</SimpleData>
            <SimpleData name="Jornales">0.00000000000</SimpleData>
            <SimpleData name="Monto">0.00000000000</SimpleData>
            <SimpleData name="Estado_del">Activo</SimpleData>
            <SimpleData name="Empresa">Hyh Consultores SRL</SimpleData>
            <SimpleData name="Lote">H</SimpleData>
            <SimpleData name="Fecha_de_M">-</SimpleData>
            <SimpleData name="F__de_pren">-</SimpleData>
            <SimpleData name="Cocina_Efi">No</SimpleData>
            <SimpleData name="Estado_FAO">Monitorear</SimpleData>
            <SimpleData name="Etapa_de_i">Mantenimiento A?o 1.1</SimpleData>
            <SimpleData name="Fecha_visi">2026/07/31</SimpleData>
            <SimpleData name="Etapa_impl">Mantenimiento A?o 1.1</SimpleData>
            <SimpleData name="Cumple_sup">Si</SimpleData>
            <SimpleData name="Estado_mon">-</SimpleData>
            <SimpleData name="Situaci_12">-</SimpleData>
            <SimpleData name="Observaci">-</SimpleData>
            <SimpleData name="Dias_trans">2</SimpleData>
            <SimpleData name="Prioridad">ALTA</SimpleData>
            <SimpleData name="OBJECTID_1">60</SimpleData>
          </SchemaData>
        </ExtendedData>
        <Polygon>
          <outerBoundaryIs>
            <LinearRing>
              <coordinates>
                -55.653927000187,-23.8960170998328,0
                -55.6539532999747,-23.8967333002418,0
                -55.6553479997246,-23.8964280001621,0
                -55.655420200089,-23.8960815001096,0
                -55.653927000187,-23.8960170998328,0
              </coordinates>
            </LinearRing>
          </outerBoundaryIs>
        </Polygon>
      </Placemark>
      <Placemark id="Distrito_YPEJH__.9">
        <ExtendedData>
          <SchemaData schemaUrl="#Distrito_YPEJH__.schema">
            <SimpleData name="Cédula">6794990.00000000000</SimpleData>
            <SimpleData name="cedula">6794990</SimpleData>
            <SimpleData name="Cédula_1">6794990.00000000000</SimpleData>
            <SimpleData name="N_">256.00000000000</SimpleData>
            <SimpleData name="Nombres_y_">TEODORA VILLALBA BENITEZ</SimpleData>
            <SimpleData name="Sexo">Mujer</SimpleData>
            <SimpleData name="Cambio_de_">NO</SimpleData>
            <SimpleData name="Titular_se">NO</SimpleData>
            <SimpleData name="Cédula_Ti">NO</SimpleData>
            <SimpleData name="Situación">NO</SimpleData>
            <SimpleData name="Comunidad">Ind?gena</SimpleData>
            <SimpleData name="Modelo">Modelo 5</SimpleData>
            <SimpleData name="Departamen">CANINDEYU</SimpleData>
            <SimpleData name="Distrito">YPEJH?</SimpleData>
            <SimpleData name="Localidad">COM INDIG Y APY BARRANCO</SimpleData>
            <SimpleData name="Teléfono">0986878719</SimpleData>
            <SimpleData name="Vivienda_L">-23.93342830000</SimpleData>
            <SimpleData name="Vivienda_1">-55.87126830000</SimpleData>
            <SimpleData name="Superficie">0.70000000000</SimpleData>
            <SimpleData name="Situaci_1">Par?metro</SimpleData>
            <SimpleData name="Plantado">SI</SimpleData>
            <SimpleData name="Parcela_La">-23.93323650000</SimpleData>
            <SimpleData name="Parcela_Lo">-55.87206836000</SimpleData>
            <SimpleData name="Grupo_Impl">G2</SimpleData>
            <SimpleData name="Grupo_de_P">H-P9-XX-XX-XX</SimpleData>
            <SimpleData name="Jornales">0.00000000000</SimpleData>
            <SimpleData name="Monto">0.00000000000</SimpleData>
            <SimpleData name="Estado_del">Activo</SimpleData>
            <SimpleData name="Empresa">Hyh Consultores SRL</SimpleData>
            <SimpleData name="Lote">H</SimpleData>
            <SimpleData name="Fecha_de_M">-</SimpleData>
            <SimpleData name="F__de_pren">-</SimpleData>
            <SimpleData name="Cocina_Efi">No</SimpleData>
            <SimpleData name="Estado_FAO">Monitorear</SimpleData>
            <SimpleData name="Etapa_de_i">Mantenimiento A?o 1.1</SimpleData>
            <SimpleData name="Fecha_visi">2026/07/27</SimpleData>
            <SimpleData name="Etapa_impl">Mantenimiento A?o 1.1</SimpleData>
            <SimpleData name="Cumple_sup">Si</SimpleData>
            <SimpleData name="Estado_mon">-</SimpleData>
            <SimpleData name="Situaci_12">-</SimpleData>
            <SimpleData name="Observaci">-</SimpleData>
            <SimpleData name="Dias_trans">6</SimpleData>
            <SimpleData name="Prioridad">ALTA</SimpleData>
            <SimpleData name="OBJECTID_1">256</SimpleData>
          </SchemaData>
        </ExtendedData>
        <Polygon>
          <outerBoundaryIs>
            <LinearRing>
              <coordinates>
                -55.8717969996127,-23.9328825997182,0
                -55.8712740987557,-23.9336018235589,0
                -55.8727132002933,-23.9334227996901,0
                -55.872664700315,-23.9329483995873,0
                -55.8717969996127,-23.9328825997182,0
              </coordinates>
            </LinearRing>
          </outerBoundaryIs>
        </Polygon>
      </Placemark>
      <Placemark id="Distrito_YPEJH__.10">
        <ExtendedData>
          <SchemaData schemaUrl="#Distrito_YPEJH__.schema">
            <SimpleData name="Cédula">7238834.00000000000</SimpleData>
            <SimpleData name="cedula">7238834</SimpleData>
            <SimpleData name="Cédula_1">7238834.00000000000</SimpleData>
            <SimpleData name="N_">76.00000000000</SimpleData>
            <SimpleData name="Nombres_y_">BLASIDA GARCETE MARTINEZ</SimpleData>
            <SimpleData name="Sexo">Mujer</SimpleData>
            <SimpleData name="Cambio_de_">NO</SimpleData>
            <SimpleData name="Titular_se">NO</SimpleData>
            <SimpleData name="Cédula_Ti">NO</SimpleData>
            <SimpleData name="Situación">NO</SimpleData>
            <SimpleData name="Comunidad">Ind?gena</SimpleData>
            <SimpleData name="Modelo">Modelo 5</SimpleData>
            <SimpleData name="Departamen">CANINDEYU</SimpleData>
            <SimpleData name="Distrito">YPEJH?</SimpleData>
            <SimpleData name="Localidad"><![CDATA[COM INDIG KA'AGUY POTYRA]]></SimpleData>
            <SimpleData name="Teléfono">0982046409</SimpleData>
            <SimpleData name="Vivienda_L">-23.93058670000</SimpleData>
            <SimpleData name="Vivienda_1">-55.86957670000</SimpleData>
            <SimpleData name="Superficie">0.70000000000</SimpleData>
            <SimpleData name="Situaci_1">Par?metro</SimpleData>
            <SimpleData name="Plantado">SI</SimpleData>
            <SimpleData name="Parcela_La">-23.93049147000</SimpleData>
            <SimpleData name="Parcela_Lo">-55.86914532000</SimpleData>
            <SimpleData name="Grupo_Impl">G2</SimpleData>
            <SimpleData name="Grupo_de_P">H-P8-XX-XX-XX</SimpleData>
            <SimpleData name="Jornales">0.00000000000</SimpleData>
            <SimpleData name="Monto">0.00000000000</SimpleData>
            <SimpleData name="Estado_del">Activo</SimpleData>
            <SimpleData name="Empresa">Hyh Consultores SRL</SimpleData>
            <SimpleData name="Lote">H</SimpleData>
            <SimpleData name="Fecha_de_M">-</SimpleData>
            <SimpleData name="F__de_pren">-</SimpleData>
            <SimpleData name="Cocina_Efi">No</SimpleData>
            <SimpleData name="Estado_FAO">Verificar posible desercion</SimpleData>
            <SimpleData name="Etapa_de_i">Mantenimiento A?o 1.1</SimpleData>
            <SimpleData name="Fecha_visi">2026/07/29</SimpleData>
            <SimpleData name="Etapa_impl">Mantenimiento A?o 1.1</SimpleData>
            <SimpleData name="Cumple_sup">-</SimpleData>
            <SimpleData name="Estado_mon">-</SimpleData>
            <SimpleData name="Situaci_12">-</SimpleData>
            <SimpleData name="Observaci">-</SimpleData>
            <SimpleData name="Dias_trans">-</SimpleData>
            <SimpleData name="Prioridad">ALTA</SimpleData>
            <SimpleData name="OBJECTID_1">76</SimpleData>
          </SchemaData>
        </ExtendedData>
        <Polygon>
          <outerBoundaryIs>
            <LinearRing>
              <coordinates>
                -55.868408999889,-23.9300050999807,0
                -55.869244600165,-23.9310802002762,0
                -55.8696264005546,-23.9309218996586,0
                -55.8695075003374,-23.9301820998766,0
                -55.868408999889,-23.9300050999807,0
              </coordinates>
            </LinearRing>
          </outerBoundaryIs>
        </Polygon>
      </Placemark>
      <Placemark id="Distrito_YPEJH__.11">
        <ExtendedData>
          <SchemaData schemaUrl="#Distrito_YPEJH__.schema">
            <SimpleData name="Cédula">2368397.00000000000</SimpleData>
            <SimpleData name="cedula">2368397</SimpleData>
            <SimpleData name="Cédula_1">2368397.00000000000</SimpleData>
            <SimpleData name="N_">74.00000000000</SimpleData>
            <SimpleData name="Nombres_y_">DIGNO TORRES BENITEZ</SimpleData>
            <SimpleData name="Sexo">Hombre</SimpleData>
            <SimpleData name="Cambio_de_">NO</SimpleData>
            <SimpleData name="Titular_se">NO</SimpleData>
            <SimpleData name="Cédula_Ti">NO</SimpleData>
            <SimpleData name="Situación">NO</SimpleData>
            <SimpleData name="Comunidad">Ind?gena</SimpleData>
            <SimpleData name="Modelo">Modelo 5</SimpleData>
            <SimpleData name="Departamen">CANINDEYU</SimpleData>
            <SimpleData name="Distrito">YPEJH?</SimpleData>
            <SimpleData name="Localidad">COM INDIG BARRANCO APY</SimpleData>
            <SimpleData name="Teléfono">ND</SimpleData>
            <SimpleData name="Vivienda_L">-23.93180830000</SimpleData>
            <SimpleData name="Vivienda_1">-55.86995330000</SimpleData>
            <SimpleData name="Superficie">0.70000000000</SimpleData>
            <SimpleData name="Situaci_1">Par?metro</SimpleData>
            <SimpleData name="Plantado">SI</SimpleData>
            <SimpleData name="Parcela_La">-23.93121621000</SimpleData>
            <SimpleData name="Parcela_Lo">-55.87010697000</SimpleData>
            <SimpleData name="Grupo_Impl">G2</SimpleData>
            <SimpleData name="Grupo_de_P">H-P12-XX-XX-XX</SimpleData>
            <SimpleData name="Jornales">0.00000000000</SimpleData>
            <SimpleData name="Monto">0.00000000000</SimpleData>
            <SimpleData name="Estado_del">Activo</SimpleData>
            <SimpleData name="Empresa">Hyh Consultores SRL</SimpleData>
            <SimpleData name="Lote">H</SimpleData>
            <SimpleData name="Fecha_de_M">-</SimpleData>
            <SimpleData name="F__de_pren">-</SimpleData>
            <SimpleData name="Cocina_Efi">No</SimpleData>
            <SimpleData name="Estado_FAO">Monitorear</SimpleData>
            <SimpleData name="Etapa_de_i">Mantenimiento A?o 1.1</SimpleData>
            <SimpleData name="Fecha_visi">2026/07/23</SimpleData>
            <SimpleData name="Etapa_impl">Mantenimiento A?o 1.1</SimpleData>
            <SimpleData name="Cumple_sup">Si</SimpleData>
            <SimpleData name="Estado_mon">-</SimpleData>
            <SimpleData name="Situaci_12">-</SimpleData>
            <SimpleData name="Observaci">-</SimpleData>
            <SimpleData name="Dias_trans">10</SimpleData>
            <SimpleData name="Prioridad">ALTA</SimpleData>
            <SimpleData name="OBJECTID_1">74</SimpleData>
          </SchemaData>
        </ExtendedData>
        <Polygon>
          <outerBoundaryIs>
            <LinearRing>
              <coordinates>
                -55.8696408996716,-23.9315873000623,0
                -55.8697978997957,-23.9315967998332,0
                -55.8698899997192,-23.9315665996741,0
                -55.8701509999567,-23.9315378998683,0
                -55.8705116996816,-23.9314055998188,0
                -55.870449000178,-23.9311718002051,0
                -55.8709528999199,-23.9311634002425,0
                -55.8709735002786,-23.9310961004103,0
                -55.8709417000899,-23.9310423000695,0
                -55.8709106999605,-23.9310079000708,0
                -55.8708474002794,-23.9309691002293,0
                -55.8707160002871,-23.9309602999708,0
                -55.8703204997926,-23.9309271002213,0
                -55.8700714000593,-23.9309040001138,0
                -55.8699215997059,-23.9309103003704,0
                -55.8696827998766,-23.9310181001908,0
                -55.8695186998297,-23.9311150997715,0
                -55.8694866999124,-23.9311441000656,0
                -55.8695558995595,-23.9314716002915,0
                -55.8696016996383,-23.9315590998966,0
                -55.8696408996716,-23.9315873000623,0
              </coordinates>
            </LinearRing>
          </outerBoundaryIs>
        </Polygon>
      </Placemark>
      <Placemark id="Distrito_YPEJH__.12">
        <ExtendedData>
          <SchemaData schemaUrl="#Distrito_YPEJH__.schema">
            <SimpleData name="Cédula">4552791.00000000000</SimpleData>
            <SimpleData name="cedula">4552791</SimpleData>
            <SimpleData name="Cédula_1">4552791.00000000000</SimpleData>
            <SimpleData name="N_">58.00000000000</SimpleData>
            <SimpleData name="Nombres_y_">ISABELINA FERNANDEZ</SimpleData>
            <SimpleData name="Sexo">Mujer</SimpleData>
            <SimpleData name="Cambio_de_">NO</SimpleData>
            <SimpleData name="Titular_se">NO</SimpleData>
            <SimpleData name="Cédula_Ti">NO</SimpleData>
            <SimpleData name="Situación">NO</SimpleData>
            <SimpleData name="Comunidad">Ind?gena</SimpleData>
            <SimpleData name="Modelo">Modelo 5</SimpleData>
            <SimpleData name="Departamen">CANINDEYU</SimpleData>
            <SimpleData name="Distrito">YPEJH?</SimpleData>
            <SimpleData name="Localidad">COM INDIG ITANARA-PARIRI</SimpleData>
            <SimpleData name="Teléfono">0982718666</SimpleData>
            <SimpleData name="Vivienda_L">-23.83508450000</SimpleData>
            <SimpleData name="Vivienda_1">-55.68373110000</SimpleData>
            <SimpleData name="Superficie">0.70000000000</SimpleData>
            <SimpleData name="Situaci_1">Par?metro</SimpleData>
            <SimpleData name="Plantado">SI</SimpleData>
            <SimpleData name="Parcela_La">-23.83303380000</SimpleData>
            <SimpleData name="Parcela_Lo">-55.68538960000</SimpleData>
            <SimpleData name="Grupo_Impl">G2</SimpleData>
            <SimpleData name="Grupo_de_P">H-P6-XX-XX-XX</SimpleData>
            <SimpleData name="Jornales">0.00000000000</SimpleData>
            <SimpleData name="Monto">0.00000000000</SimpleData>
            <SimpleData name="Estado_del">Activo</SimpleData>
            <SimpleData name="Empresa">Hyh Consultores SRL</SimpleData>
            <SimpleData name="Lote">H</SimpleData>
            <SimpleData name="Fecha_de_M">-</SimpleData>
            <SimpleData name="F__de_pren">-</SimpleData>
            <SimpleData name="Cocina_Efi">No</SimpleData>
            <SimpleData name="Estado_FAO">Verificar posible desercion</SimpleData>
            <SimpleData name="Etapa_de_i">Mantenimiento A?o 1.1</SimpleData>
            <SimpleData name="Fecha_visi">2026/05/05</SimpleData>
            <SimpleData name="Etapa_impl">Mantenimiento A?o 1.1</SimpleData>
            <SimpleData name="Cumple_sup">-</SimpleData>
            <SimpleData name="Estado_mon">-</SimpleData>
            <SimpleData name="Situaci_12">-</SimpleData>
            <SimpleData name="Observaci">-</SimpleData>
            <SimpleData name="Dias_trans">-</SimpleData>
            <SimpleData name="Prioridad">ALTA</SimpleData>
            <SimpleData name="OBJECTID_1">58</SimpleData>
          </SchemaData>
        </ExtendedData>
        <Polygon>
          <outerBoundaryIs>
            <LinearRing>
              <coordinates>
                -55.6849473999359,-23.832553799799,0
                -55.6851832995882,-23.8335800000084,0
                -55.6858654996313,-23.8333781004204,0
                -55.6856044995499,-23.8325782995979,0
                -55.6849473999359,-23.832553799799,0
              </coordinates>
            </LinearRing>
          </outerBoundaryIs>
        </Polygon>
      </Placemark>
      <Placemark id="Distrito_YPEJH__.13">
        <ExtendedData>
          <SchemaData schemaUrl="#Distrito_YPEJH__.schema">
            <SimpleData name="Cédula">5885725.00000000000</SimpleData>
            <SimpleData name="cedula">5885725</SimpleData>
            <SimpleData name="Cédula_1">5885725.00000000000</SimpleData>
            <SimpleData name="N_">59.00000000000</SimpleData>
            <SimpleData name="Nombres_y_">SANTA RODRIGUEZ</SimpleData>
            <SimpleData name="Sexo">Hombre</SimpleData>
            <SimpleData name="Cambio_de_">NO</SimpleData>
            <SimpleData name="Titular_se">NO</SimpleData>
            <SimpleData name="Cédula_Ti">NO</SimpleData>
            <SimpleData name="Situación">NO</SimpleData>
            <SimpleData name="Comunidad">Ind?gena</SimpleData>
            <SimpleData name="Modelo">Modelo 1</SimpleData>
            <SimpleData name="Departamen">CANINDEYU</SimpleData>
            <SimpleData name="Distrito">YPEJH?</SimpleData>
            <SimpleData name="Localidad">COM INDIG ITANARA-PARIRI</SimpleData>
            <SimpleData name="Teléfono">ND</SimpleData>
            <SimpleData name="Vivienda_L">-23.82929670000</SimpleData>
            <SimpleData name="Vivienda_1">-55.68595830000</SimpleData>
            <SimpleData name="Superficie">0.80000000000</SimpleData>
            <SimpleData name="Situaci_1">Par?metro</SimpleData>
            <SimpleData name="Plantado">SI</SimpleData>
            <SimpleData name="Parcela_La">-23.82810505000</SimpleData>
            <SimpleData name="Parcela_Lo">-55.68468428000</SimpleData>
            <SimpleData name="Grupo_Impl">G2</SimpleData>
            <SimpleData name="Grupo_de_P">H-P9-XX-XX-XX</SimpleData>
            <SimpleData name="Jornales">0.00000000000</SimpleData>
            <SimpleData name="Monto">0.00000000000</SimpleData>
            <SimpleData name="Estado_del">Activo</SimpleData>
            <SimpleData name="Empresa">Hyh Consultores SRL</SimpleData>
            <SimpleData name="Lote">H</SimpleData>
            <SimpleData name="Fecha_de_M">-</SimpleData>
            <SimpleData name="F__de_pren">-</SimpleData>
            <SimpleData name="Cocina_Efi">No</SimpleData>
            <SimpleData name="Estado_FAO">Monitorear</SimpleData>
            <SimpleData name="Etapa_de_i">Mantenimiento A?o 1.1</SimpleData>
            <SimpleData name="Fecha_visi">2026/07/24</SimpleData>
            <SimpleData name="Etapa_impl">Mantenimiento A?o 1.1</SimpleData>
            <SimpleData name="Cumple_sup">Si</SimpleData>
            <SimpleData name="Estado_mon">-</SimpleData>
            <SimpleData name="Situaci_12">-</SimpleData>
            <SimpleData name="Observaci">-</SimpleData>
            <SimpleData name="Dias_trans">9</SimpleData>
            <SimpleData name="Prioridad">ALTA</SimpleData>
            <SimpleData name="OBJECTID_1">59</SimpleData>
          </SchemaData>
        </ExtendedData>
        <Polygon>
          <outerBoundaryIs>
            <LinearRing>
              <coordinates>
                -55.6843906996725,-23.8282001000758,0
                -55.6851736003304,-23.8288696998444,0
                -55.6853531999883,-23.8287340003624,0
                -55.6854977004414,-23.8285678002727,0
                -55.6842803997262,-23.8273611999547,0
                -55.6840085001566,-23.8274704002663,0
                -55.6838952000261,-23.827627400094,0
                -55.6843906996725,-23.8282001000758,0
              </coordinates>
            </LinearRing>
          </outerBoundaryIs>
        </Polygon>
      </Placemark>
      <Placemark id="Distrito_YPEJH__.14">
        <ExtendedData>
          <SchemaData schemaUrl="#Distrito_YPEJH__.schema">
            <SimpleData name="Cédula">6747876.00000000000</SimpleData>
            <SimpleData name="cedula">6747876</SimpleData>
            <SimpleData name="Cédula_1">6747876.00000000000</SimpleData>
            <SimpleData name="N_">77.00000000000</SimpleData>
            <SimpleData name="Nombres_y_">IRMA ESPINOLA SALINAS</SimpleData>
            <SimpleData name="Sexo">Mujer</SimpleData>
            <SimpleData name="Cambio_de_">NO</SimpleData>
            <SimpleData name="Titular_se">NO</SimpleData>
            <SimpleData name="Cédula_Ti">NO</SimpleData>
            <SimpleData name="Situación">NO</SimpleData>
            <SimpleData name="Comunidad">Ind?gena</SimpleData>
            <SimpleData name="Modelo">Modelo 5</SimpleData>
            <SimpleData name="Departamen">CANINDEYU</SimpleData>
            <SimpleData name="Distrito">YPEJH?</SimpleData>
            <SimpleData name="Localidad">COM INDIG Y APY BARRANCO</SimpleData>
            <SimpleData name="Teléfono">ND</SimpleData>
            <SimpleData name="Vivienda_L">-23.93397120000</SimpleData>
            <SimpleData name="Vivienda_1">-55.87315030000</SimpleData>
            <SimpleData name="Superficie">0.70000000000</SimpleData>
            <SimpleData name="Situaci_1">Par?metro</SimpleData>
            <SimpleData name="Plantado">SI</SimpleData>
            <SimpleData name="Parcela_La">-23.93729654000</SimpleData>
            <SimpleData name="Parcela_Lo">-55.87499149000</SimpleData>
            <SimpleData name="Grupo_Impl">G2</SimpleData>
            <SimpleData name="Grupo_de_P">H-P12-XX-XX-XX</SimpleData>
            <SimpleData name="Jornales">0.00000000000</SimpleData>
            <SimpleData name="Monto">0.00000000000</SimpleData>
            <SimpleData name="Estado_del">Activo</SimpleData>
            <SimpleData name="Empresa">Hyh Consultores SRL</SimpleData>
            <SimpleData name="Lote">H</SimpleData>
            <SimpleData name="Fecha_de_M">-</SimpleData>
            <SimpleData name="F__de_pren">-</SimpleData>
            <SimpleData name="Cocina_Efi">No</SimpleData>
            <SimpleData name="Estado_FAO">Monitorear</SimpleData>
            <SimpleData name="Etapa_de_i">Mantenimiento A?o 1.1</SimpleData>
            <SimpleData name="Fecha_visi">2026/07/27</SimpleData>
            <SimpleData name="Etapa_impl">Mantenimiento A?o 1.1</SimpleData>
            <SimpleData name="Cumple_sup">Si</SimpleData>
            <SimpleData name="Estado_mon">-</SimpleData>
            <SimpleData name="Situaci_12">-</SimpleData>
            <SimpleData name="Observaci">-</SimpleData>
            <SimpleData name="Dias_trans">6</SimpleData>
            <SimpleData name="Prioridad">ALTA</SimpleData>
            <SimpleData name="OBJECTID_1">77</SimpleData>
          </SchemaData>
        </ExtendedData>
        <Polygon>
          <outerBoundaryIs>
            <LinearRing>
              <coordinates>
                -55.8747567725707,-23.9375211371581,0
                -55.8749132998606,-23.9379032994177,0
                -55.875516500487,-23.937634799977,0
                -55.8752216004292,-23.9371003094595,0
                -55.8750099999424,-23.9366581997571,0
                -55.8745032738492,-23.9369510442285,0
                -55.8747567725707,-23.9375211371581,0
              </coordinates>
            </LinearRing>
          </outerBoundaryIs>
        </Polygon>
      </Placemark>
      <Placemark id="Distrito_YPEJH__.15">
        <ExtendedData>
          <SchemaData schemaUrl="#Distrito_YPEJH__.schema">
            <SimpleData name="Cédula">6740662.00000000000</SimpleData>
            <SimpleData name="cedula">6740662</SimpleData>
            <SimpleData name="Cédula_1">6740662.00000000000</SimpleData>
            <SimpleData name="N_">80.00000000000</SimpleData>
            <SimpleData name="Nombres_y_">PEDRO BENITEZ</SimpleData>
            <SimpleData name="Sexo">Hombre</SimpleData>
            <SimpleData name="Cambio_de_">NO</SimpleData>
            <SimpleData name="Titular_se">NO</SimpleData>
            <SimpleData name="Cédula_Ti">NO</SimpleData>
            <SimpleData name="Situación">NO</SimpleData>
            <SimpleData name="Comunidad">Ind?gena</SimpleData>
            <SimpleData name="Modelo">Modelo 1</SimpleData>
            <SimpleData name="Departamen">CANINDEYU</SimpleData>
            <SimpleData name="Distrito">YPEJH?</SimpleData>
            <SimpleData name="Localidad">COM INDIG BARRANCO RUGUA</SimpleData>
            <SimpleData name="Teléfono">0985807233</SimpleData>
            <SimpleData name="Vivienda_L">-23.92999340000</SimpleData>
            <SimpleData name="Vivienda_1">-55.85709960000</SimpleData>
            <SimpleData name="Superficie">0.80000000000</SimpleData>
            <SimpleData name="Situaci_1">Par?metro</SimpleData>
            <SimpleData name="Plantado">SI</SimpleData>
            <SimpleData name="Parcela_La">-23.92936537000</SimpleData>
            <SimpleData name="Parcela_Lo">-55.85782655000</SimpleData>
            <SimpleData name="Grupo_Impl">G2</SimpleData>
            <SimpleData name="Grupo_de_P">H-P12-XX-XX-XX</SimpleData>
            <SimpleData name="Jornales">0.00000000000</SimpleData>
            <SimpleData name="Monto">0.00000000000</SimpleData>
            <SimpleData name="Estado_del">Activo</SimpleData>
            <SimpleData name="Empresa">Hyh Consultores SRL</SimpleData>
            <SimpleData name="Lote">H</SimpleData>
            <SimpleData name="Fecha_de_M">-</SimpleData>
            <SimpleData name="F__de_pren">-</SimpleData>
            <SimpleData name="Cocina_Efi">No</SimpleData>
            <SimpleData name="Estado_FAO">Monitorear</SimpleData>
            <SimpleData name="Etapa_de_i">Mantenimiento A?o 1.1</SimpleData>
            <SimpleData name="Fecha_visi">2026/05/13</SimpleData>
            <SimpleData name="Etapa_impl">Mantenimiento A?o 1.1</SimpleData>
            <SimpleData name="Cumple_sup">Si</SimpleData>
            <SimpleData name="Estado_mon">-</SimpleData>
            <SimpleData name="Situaci_12">-</SimpleData>
            <SimpleData name="Observaci">-</SimpleData>
            <SimpleData name="Dias_trans">81</SimpleData>
            <SimpleData name="Prioridad">ALTA</SimpleData>
            <SimpleData name="OBJECTID_1">80</SimpleData>
          </SchemaData>
        </ExtendedData>
        <Polygon>
          <outerBoundaryIs>
            <LinearRing>
              <coordinates>
                -55.8577201004561,-23.9287985996773,0
                -55.8576309999883,-23.928945100024,0
                -55.8573781000047,-23.928940400103,0
                -55.8572875003546,-23.9289790001614,0
                -55.8574268996531,-23.9297638997434,0
                -55.8582292998503,-23.9297970995804,0
                -55.8583020997463,-23.9297243002859,0
                -55.8583850001228,-23.9296241998438,0
                -55.85852550023,-23.9294510000698,0
                -55.8580251997792,-23.9291126998462,0
                -55.8578538996413,-23.9290363000514,0
                -55.857981799692,-23.9288177998308,0
                -55.8577952004005,-23.9287481002836,0
                -55.8577201004561,-23.9287985996773,0
              </coordinates>
            </LinearRing>
          </outerBoundaryIs>
        </Polygon>
      </Placemark>
      <Placemark id="Distrito_YPEJH__.16">
        <ExtendedData>
          <SchemaData schemaUrl="#Distrito_YPEJH__.schema">
            <SimpleData name="Cédula">6636344.00000000000</SimpleData>
            <SimpleData name="cedula">6636344</SimpleData>
            <SimpleData name="Cédula_1">6636344.00000000000</SimpleData>
            <SimpleData name="N_">56.00000000000</SimpleData>
            <SimpleData name="Nombres_y_">PABLINA MARTINEZ CANDIA</SimpleData>
            <SimpleData name="Sexo">Mujer</SimpleData>
            <SimpleData name="Cambio_de_">NO</SimpleData>
            <SimpleData name="Titular_se">NO</SimpleData>
            <SimpleData name="Cédula_Ti">NO</SimpleData>
            <SimpleData name="Situación">NO</SimpleData>
            <SimpleData name="Comunidad">Campesina</SimpleData>
            <SimpleData name="Modelo">Modelo 5</SimpleData>
            <SimpleData name="Departamen">CANINDEYU</SimpleData>
            <SimpleData name="Distrito">YPEJH?</SimpleData>
            <SimpleData name="Localidad">KOE PORA</SimpleData>
            <SimpleData name="Teléfono">0985675544</SimpleData>
            <SimpleData name="Vivienda_L">-24.02040570000</SimpleData>
            <SimpleData name="Vivienda_1">-55.85415280000</SimpleData>
            <SimpleData name="Superficie">0.70000000000</SimpleData>
            <SimpleData name="Situaci_1">Par?metro</SimpleData>
            <SimpleData name="Plantado">SI</SimpleData>
            <SimpleData name="Parcela_La">-24.02043124000</SimpleData>
            <SimpleData name="Parcela_Lo">-55.85507223000</SimpleData>
            <SimpleData name="Grupo_Impl">G2</SimpleData>
            <SimpleData name="Grupo_de_P">H-P8-XX-XX-XX</SimpleData>
            <SimpleData name="Jornales">0.00000000000</SimpleData>
            <SimpleData name="Monto">0.00000000000</SimpleData>
            <SimpleData name="Estado_del">Activo</SimpleData>
            <SimpleData name="Empresa">Hyh Consultores SRL</SimpleData>
            <SimpleData name="Lote">H</SimpleData>
            <SimpleData name="Fecha_de_M">-</SimpleData>
            <SimpleData name="F__de_pren">-</SimpleData>
            <SimpleData name="Cocina_Efi">No</SimpleData>
            <SimpleData name="Estado_FAO">Verificar posible desercion</SimpleData>
            <SimpleData name="Etapa_de_i">Mantenimiento A?o 1.1</SimpleData>
            <SimpleData name="Fecha_visi">2026/07/20</SimpleData>
            <SimpleData name="Etapa_impl">Mantenimiento A?o 1.1</SimpleData>
            <SimpleData name="Cumple_sup">-</SimpleData>
            <SimpleData name="Estado_mon">-</SimpleData>
            <SimpleData name="Situaci_12">-</SimpleData>
            <SimpleData name="Observaci">-</SimpleData>
            <SimpleData name="Dias_trans">-</SimpleData>
            <SimpleData name="Prioridad">ALTA</SimpleData>
            <SimpleData name="OBJECTID_1">56</SimpleData>
          </SchemaData>
        </ExtendedData>
        <Polygon>
          <outerBoundaryIs>
            <LinearRing>
              <coordinates>
                -55.8551519000069,-24.0209226999329,0
                -55.8555423992638,-24.0209419003031,0
                -55.8554397990551,-24.0200744004564,0
                -55.8547549999189,-24.0200167001134,0
                -55.8545382993327,-24.0201016997212,0
                -55.854634399778,-24.0206740998097,0
                -55.8550985999262,-24.020700300391,0
                -55.8551519000069,-24.0209226999329,0
              </coordinates>
            </LinearRing>
          </outerBoundaryIs>
        </Polygon>
      </Placemark>
      <Placemark id="Distrito_YPEJH__.17">
        <ExtendedData>
          <SchemaData schemaUrl="#Distrito_YPEJH__.schema">
            <SimpleData name="Cédula">6751685.00000000000</SimpleData>
            <SimpleData name="cedula">6751685</SimpleData>
            <SimpleData name="Cédula_1">6751685.00000000000</SimpleData>
            <SimpleData name="N_">64.00000000000</SimpleData>
            <SimpleData name="Nombres_y_">IRMA RAMIREZ ROA</SimpleData>
            <SimpleData name="Sexo">Mujer</SimpleData>
            <SimpleData name="Cambio_de_">NO</SimpleData>
            <SimpleData name="Titular_se">NO</SimpleData>
            <SimpleData name="Cédula_Ti">NO</SimpleData>
            <SimpleData name="Situación">NO</SimpleData>
            <SimpleData name="Comunidad">Ind?gena</SimpleData>
            <SimpleData name="Modelo">Modelo 1</SimpleData>
            <SimpleData name="Departamen">CANINDEYU</SimpleData>
            <SimpleData name="Distrito">YPEJH?</SimpleData>
            <SimpleData name="Localidad">COM INDIG PYPUCU</SimpleData>
            <SimpleData name="Teléfono">0983405406</SimpleData>
            <SimpleData name="Vivienda_L">-23.89874110000</SimpleData>
            <SimpleData name="Vivienda_1">-55.65009370000</SimpleData>
            <SimpleData name="Superficie">0.80000000000</SimpleData>
            <SimpleData name="Situaci_1">Par?metro</SimpleData>
            <SimpleData name="Plantado">SI</SimpleData>
            <SimpleData name="Parcela_La">-23.89758577000</SimpleData>
            <SimpleData name="Parcela_Lo">-55.64964468000</SimpleData>
            <SimpleData name="Grupo_Impl">G2</SimpleData>
            <SimpleData name="Grupo_de_P">H-P6-XX-XX-XX</SimpleData>
            <SimpleData name="Jornales">0.00000000000</SimpleData>
            <SimpleData name="Monto">0.00000000000</SimpleData>
            <SimpleData name="Estado_del">Activo</SimpleData>
            <SimpleData name="Empresa">Hyh Consultores SRL</SimpleData>
            <SimpleData name="Lote">H</SimpleData>
            <SimpleData name="Fecha_de_M">-</SimpleData>
            <SimpleData name="F__de_pren">-</SimpleData>
            <SimpleData name="Cocina_Efi">No</SimpleData>
            <SimpleData name="Estado_FAO">Monitorear</SimpleData>
            <SimpleData name="Etapa_de_i">Mantenimiento A?o 1.1</SimpleData>
            <SimpleData name="Fecha_visi">2026/07/28</SimpleData>
            <SimpleData name="Etapa_impl">Mantenimiento A?o 1.1</SimpleData>
            <SimpleData name="Cumple_sup">Si</SimpleData>
            <SimpleData name="Estado_mon">-</SimpleData>
            <SimpleData name="Situaci_12">-</SimpleData>
            <SimpleData name="Observaci">-</SimpleData>
            <SimpleData name="Dias_trans">5</SimpleData>
            <SimpleData name="Prioridad">ALTA</SimpleData>
            <SimpleData name="OBJECTID_1">64</SimpleData>
          </SchemaData>
        </ExtendedData>
        <Polygon>
          <outerBoundaryIs>
            <LinearRing>
              <coordinates>
                -55.6496141335325,-23.8970532030328,0
                -55.6494780998274,-23.8968432998219,0
                -55.6494834426999,-23.8968420101907,0
                -55.649479599967,-23.8968358003447,0
                -55.649032200333,-23.8970251997626,0
                -55.6498399000669,-23.8983991997785,0
                -55.6502250998601,-23.8980404998882,0
                -55.6496141335325,-23.8970532030328,0
              </coordinates>
            </LinearRing>
          </outerBoundaryIs>
        </Polygon>
      </Placemark>
      <Placemark id="Distrito_YPEJH__.18">
        <ExtendedData>
          <SchemaData schemaUrl="#Distrito_YPEJH__.schema">
            <SimpleData name="Cédula">8445135.00000000000</SimpleData>
            <SimpleData name="cedula">8445135</SimpleData>
            <SimpleData name="Cédula_1">8445135.00000000000</SimpleData>
            <SimpleData name="N_">63.00000000000</SimpleData>
            <SimpleData name="Nombres_y_">GRACIELA GAUTO MARTINEZ</SimpleData>
            <SimpleData name="Sexo">Mujer</SimpleData>
            <SimpleData name="Cambio_de_">NO</SimpleData>
            <SimpleData name="Titular_se">NO</SimpleData>
            <SimpleData name="Cédula_Ti">NO</SimpleData>
            <SimpleData name="Situación">NO</SimpleData>
            <SimpleData name="Comunidad">Ind?gena</SimpleData>
            <SimpleData name="Modelo">Modelo 1</SimpleData>
            <SimpleData name="Departamen">CANINDEYU</SimpleData>
            <SimpleData name="Distrito">YPEJH?</SimpleData>
            <SimpleData name="Localidad">COM INDIG PYPUCU</SimpleData>
            <SimpleData name="Teléfono">0983405406</SimpleData>
            <SimpleData name="Vivienda_L">-23.89852170000</SimpleData>
            <SimpleData name="Vivienda_1">-55.65110170000</SimpleData>
            <SimpleData name="Superficie">0.80000000000</SimpleData>
            <SimpleData name="Situaci_1">Par?metro</SimpleData>
            <SimpleData name="Plantado">SI</SimpleData>
            <SimpleData name="Parcela_La">-23.89735092000</SimpleData>
            <SimpleData name="Parcela_Lo">-55.65013343000</SimpleData>
            <SimpleData name="Grupo_Impl">G2</SimpleData>
            <SimpleData name="Grupo_de_P">H-P6-XX-XX-XX</SimpleData>
            <SimpleData name="Jornales">0.00000000000</SimpleData>
            <SimpleData name="Monto">0.00000000000</SimpleData>
            <SimpleData name="Estado_del">Activo</SimpleData>
            <SimpleData name="Empresa">Hyh Consultores SRL</SimpleData>
            <SimpleData name="Lote">H</SimpleData>
            <SimpleData name="Fecha_de_M">-</SimpleData>
            <SimpleData name="F__de_pren">-</SimpleData>
            <SimpleData name="Cocina_Efi">No</SimpleData>
            <SimpleData name="Estado_FAO">Monitorear</SimpleData>
            <SimpleData name="Etapa_de_i">Mantenimiento A?o 1.1</SimpleData>
            <SimpleData name="Fecha_visi">2026/07/29</SimpleData>
            <SimpleData name="Etapa_impl">Mantenimiento A?o 1.1</SimpleData>
            <SimpleData name="Cumple_sup">Si</SimpleData>
            <SimpleData name="Estado_mon">-</SimpleData>
            <SimpleData name="Situaci_12">-</SimpleData>
            <SimpleData name="Observaci">-</SimpleData>
            <SimpleData name="Dias_trans">4</SimpleData>
            <SimpleData name="Prioridad">ALTA</SimpleData>
            <SimpleData name="OBJECTID_1">63</SimpleData>
          </SchemaData>
        </ExtendedData>
        <Polygon>
          <outerBoundaryIs>
            <LinearRing>
              <coordinates>
                -55.6494834426999,-23.8968420101907,0
                -55.6494780998274,-23.8968432998219,0
                -55.6496141335325,-23.8970532030328,0
                -55.6502371995894,-23.8980146003337,0
                -55.6507850002993,-23.8977850002811,0
                -55.6500167004149,-23.896713299871,0
                -55.6494834426999,-23.8968420101907,0
              </coordinates>
            </LinearRing>
          </outerBoundaryIs>
        </Polygon>
      </Placemark>
      <Placemark id="Distrito_YPEJH__.19">
        <ExtendedData>
          <SchemaData schemaUrl="#Distrito_YPEJH__.schema">
            <SimpleData name="Cédula">7207993.00000000000</SimpleData>
            <SimpleData name="cedula">7207993</SimpleData>
            <SimpleData name="Cédula_1">7207993.00000000000</SimpleData>
            <SimpleData name="N_">78.00000000000</SimpleData>
            <SimpleData name="Nombres_y_">ANGELA GARCETE MARTINEZ</SimpleData>
            <SimpleData name="Sexo">Mujer</SimpleData>
            <SimpleData name="Cambio_de_">NO</SimpleData>
            <SimpleData name="Titular_se">NO</SimpleData>
            <SimpleData name="Cédula_Ti">NO</SimpleData>
            <SimpleData name="Situación">NO</SimpleData>
            <SimpleData name="Comunidad">Ind?gena</SimpleData>
            <SimpleData name="Modelo">Modelo 5</SimpleData>
            <SimpleData name="Departamen">CANINDEYU</SimpleData>
            <SimpleData name="Distrito">YPEJH?</SimpleData>
            <SimpleData name="Localidad"><![CDATA[COM INDIG KA'AGUY POTYRA]]></SimpleData>
            <SimpleData name="Teléfono">0983422196</SimpleData>
            <SimpleData name="Vivienda_L">-23.93114000000</SimpleData>
            <SimpleData name="Vivienda_1">-55.86835830000</SimpleData>
            <SimpleData name="Superficie">0.70000000000</SimpleData>
            <SimpleData name="Situaci_1">Pol?gono</SimpleData>
            <SimpleData name="Plantado">SI</SimpleData>
            <SimpleData name="Parcela_La">-23.93023854000</SimpleData>
            <SimpleData name="Parcela_Lo">-55.86816757000</SimpleData>
            <SimpleData name="Grupo_Impl">G2</SimpleData>
            <SimpleData name="Grupo_de_P">H-P12-XX-XX-XX</SimpleData>
            <SimpleData name="Jornales">0.00000000000</SimpleData>
            <SimpleData name="Monto">0.00000000000</SimpleData>
            <SimpleData name="Estado_del">Activo</SimpleData>
            <SimpleData name="Empresa">Hyh Consultores SRL</SimpleData>
            <SimpleData name="Lote">H</SimpleData>
            <SimpleData name="Fecha_de_M">-</SimpleData>
            <SimpleData name="F__de_pren">-</SimpleData>
            <SimpleData name="Cocina_Efi">No</SimpleData>
            <SimpleData name="Estado_FAO">Monitorear</SimpleData>
            <SimpleData name="Etapa_de_i">Mantenimiento A?o 1.1</SimpleData>
            <SimpleData name="Fecha_visi">2026/07/30</SimpleData>
            <SimpleData name="Etapa_impl">Mantenimiento A?o 1.1</SimpleData>
            <SimpleData name="Cumple_sup">Si</SimpleData>
            <SimpleData name="Estado_mon">-</SimpleData>
            <SimpleData name="Situaci_12">-</SimpleData>
            <SimpleData name="Observaci">-</SimpleData>
            <SimpleData name="Dias_trans">3</SimpleData>
            <SimpleData name="Prioridad">ALTA</SimpleData>
            <SimpleData name="OBJECTID_1">78</SimpleData>
          </SchemaData>
        </ExtendedData>
        <Polygon>
          <outerBoundaryIs>
            <LinearRing>
              <coordinates>
                -55.8683243618981,-23.9296895124088,0
                -55.8682673549499,-23.9294566001455,0
                -55.8677767000749,-23.9295217001362,0
                -55.8681428996086,-23.9311937998648,0
                -55.8685132995974,-23.9308550004038,0
                -55.8683243618981,-23.9296895124088,0
              </coordinates>
            </LinearRing>
          </outerBoundaryIs>
        </Polygon>
      </Placemark>
    </Document>
  </Document>
</kml>
