<?xml version="1.0" encoding="UTF-8"?>
<kml xmlns="http://www.opengis.net/kml/2.2">
  <Document id="root_doc">
    <Schema id="Distrito_CARAYAO.schema">
      <SimpleField name="Cédula" type="double"/>
      <SimpleField name="Nombres_y_" type="string"/>
      <SimpleField name="Sexo" type="string"/>
      <SimpleField name="Cambio_de_" type="string"/>
      <SimpleField name="Titular_se" type="string"/>
      <SimpleField name="Cédula_Ti" type="string"/>
      <SimpleField name="ci_UNIF" type="double"/>
      <SimpleField name="Situación" type="string"/>
      <SimpleField name="Comunidad" type="string"/>
      <SimpleField name="Modelo_imp" type="string"/>
      <SimpleField name="Departamen" type="string"/>
      <SimpleField name="Distrito" type="string"/>
      <SimpleField name="Localidad" type="string"/>
      <SimpleField name="Teléfono" type="string"/>
      <SimpleField name="Vivienda_L" type="double"/>
      <SimpleField name="Vivienda_1" type="double"/>
      <SimpleField name="Superficie" type="double"/>
      <SimpleField name="Situaci_1" type="string"/>
      <SimpleField name="Plantado" type="string"/>
      <SimpleField name="Fecha_Plan" type="string"/>
      <SimpleField name="Jornales" type="double"/>
      <SimpleField name="Monto" type="double"/>
      <SimpleField name="Grupo_de_p" type="string"/>
      <SimpleField name="Estado_del" type="string"/>
      <SimpleField name="Empresa" type="string"/>
      <SimpleField name="Lote" type="string"/>
      <SimpleField name="Parametro" type="double"/>
      <SimpleField name="Sup_SIG" type="double"/>
      <SimpleField name="Situacion" type="string"/>
      <SimpleField name="X" type="double"/>
      <SimpleField name="Y" type="double"/>
      <SimpleField name="cedula" type="string"/>
    </Schema>
    <Document id="Distrito_CARAYAO">
      <name>Distrito_CARAYAO</name>
      <Placemark id="Distrito_CARAYAO.1">
        <ExtendedData>
          <SchemaData schemaUrl="#Distrito_CARAYAO.schema">
            <SimpleData name="Cédula">2117840.00000000000</SimpleData>
            <SimpleData name="Nombres_y_">AMELIA ESTER AGUERO DE AMARILLA</SimpleData>
            <SimpleData name="Sexo">Mujer</SimpleData>
            <SimpleData name="Cambio_de_">NO</SimpleData>
            <SimpleData name="Titular_se">NO</SimpleData>
            <SimpleData name="ci_UNIF">2117840.00000000000</SimpleData>
            <SimpleData name="Situación">NO</SimpleData>
            <SimpleData name="Comunidad">Campesina</SimpleData>
            <SimpleData name="Modelo_imp">Modelo 3</SimpleData>
            <SimpleData name="Departamen">CAAGUAZU</SimpleData>
            <SimpleData name="Distrito">CARAYAO</SimpleData>
            <SimpleData name="Localidad">TENIENTE MORALES-ALEMAN KUE</SimpleData>
            <SimpleData name="Teléfono">0971480426</SimpleData>
            <SimpleData name="Vivienda_L">-25.27269490000</SimpleData>
            <SimpleData name="Vivienda_1">-56.26843150000</SimpleData>
            <SimpleData name="Superficie">1.00000000000</SimpleData>
            <SimpleData name="Situaci_1">Par?metro</SimpleData>
            <SimpleData name="Plantado">SI</SimpleData>
            <SimpleData name="Fecha_Plan">2026/04/24</SimpleData>
            <SimpleData name="Jornales">0.00000000000</SimpleData>
            <SimpleData name="Monto">0.00000000000</SimpleData>
            <SimpleData name="Grupo_de_p">D-P3-XX-XX-XX</SimpleData>
            <SimpleData name="Estado_del">Activo</SimpleData>
            <SimpleData name="Empresa">Unique Wood Paraguay SA</SimpleData>
            <SimpleData name="Lote">D</SimpleData>
            <SimpleData name="Sup_SIG">1.22644762322</SimpleData>
            <SimpleData name="X">-56.26828369000</SimpleData>
            <SimpleData name="Y">-25.27118022000</SimpleData>
            <SimpleData name="cedula">2117840</SimpleData>
          </SchemaData>
        </ExtendedData>
        <Polygon>
          <outerBoundaryIs>
            <LinearRing>
              <coordinates>
                -56.2680032998476,-25.2704666997767,0
                -56.2678133002275,-25.2719482997913,0
                -56.2685100003807,-25.2719266998652,0
                -56.2687980001882,-25.2704443002204,0
                -56.2680032998476,-25.2704666997767,0
              </coordinates>
            </LinearRing>
          </outerBoundaryIs>
        </Polygon>
      </Placemark>
      <Placemark id="Distrito_CARAYAO.2">
        <ExtendedData>
          <SchemaData schemaUrl="#Distrito_CARAYAO.schema">
            <SimpleData name="Cédula">5636287.00000000000</SimpleData>
            <SimpleData name="Nombres_y_">MARIA AUXILIADORA CANTERO AGUERO</SimpleData>
            <SimpleData name="Sexo">Mujer</SimpleData>
            <SimpleData name="Cambio_de_">NO</SimpleData>
            <SimpleData name="Titular_se">NO</SimpleData>
            <SimpleData name="ci_UNIF">5636287.00000000000</SimpleData>
            <SimpleData name="Situación">NO</SimpleData>
            <SimpleData name="Comunidad">Campesina</SimpleData>
            <SimpleData name="Modelo_imp">Modelo 3</SimpleData>
            <SimpleData name="Departamen">CAAGUAZU</SimpleData>
            <SimpleData name="Distrito">CARAYAO</SimpleData>
            <SimpleData name="Localidad">CALLE 13 MIL</SimpleData>
            <SimpleData name="Teléfono">0986345291</SimpleData>
            <SimpleData name="Vivienda_L">-25.18992910000</SimpleData>
            <SimpleData name="Vivienda_1">-56.25594180000</SimpleData>
            <SimpleData name="Superficie">1.00000000000</SimpleData>
            <SimpleData name="Situaci_1">Par?metro</SimpleData>
            <SimpleData name="Plantado">SI</SimpleData>
            <SimpleData name="Fecha_Plan">2026/04/22</SimpleData>
            <SimpleData name="Jornales">0.00000000000</SimpleData>
            <SimpleData name="Monto">0.00000000000</SimpleData>
            <SimpleData name="Grupo_de_p">D-P3-XX-XX-XX</SimpleData>
            <SimpleData name="Estado_del">Activo</SimpleData>
            <SimpleData name="Empresa">Unique Wood Paraguay SA</SimpleData>
            <SimpleData name="Lote">D</SimpleData>
            <SimpleData name="Sup_SIG">1.01284417632</SimpleData>
            <SimpleData name="X">-56.25580142000</SimpleData>
            <SimpleData name="Y">-25.19409397000</SimpleData>
            <SimpleData name="cedula">5636287</SimpleData>
          </SchemaData>
        </ExtendedData>
        <Polygon>
          <outerBoundaryIs>
            <LinearRing>
              <coordinates>
                -56.2554567002702,-25.1934415998139,0
                -56.2554750002514,-25.194803299604,0
                -56.2560923002892,-25.1947733000736,0
                -56.2561834997163,-25.1934314000068,0
                -56.2554567002702,-25.1934415998139,0
              </coordinates>
            </LinearRing>
          </outerBoundaryIs>
        </Polygon>
      </Placemark>
      <Placemark id="Distrito_CARAYAO.3">
        <ExtendedData>
          <SchemaData schemaUrl="#Distrito_CARAYAO.schema">
            <SimpleData name="Cédula">1920304.00000000000</SimpleData>
            <SimpleData name="Nombres_y_">ESTHER LOPEZ DE DIAZ</SimpleData>
            <SimpleData name="Sexo">Mujer</SimpleData>
            <SimpleData name="Cambio_de_">NO</SimpleData>
            <SimpleData name="Titular_se">NO</SimpleData>
            <SimpleData name="ci_UNIF">1920304.00000000000</SimpleData>
            <SimpleData name="Situación">NO</SimpleData>
            <SimpleData name="Comunidad">Campesina</SimpleData>
            <SimpleData name="Modelo_imp">Modelo 3</SimpleData>
            <SimpleData name="Departamen">CAAGUAZU</SimpleData>
            <SimpleData name="Distrito">CARAYAO</SimpleData>
            <SimpleData name="Localidad">CALLE 14 MIL</SimpleData>
            <SimpleData name="Teléfono">0973658669</SimpleData>
            <SimpleData name="Vivienda_L">-25.18991550000</SimpleData>
            <SimpleData name="Vivienda_1">-56.23819240000</SimpleData>
            <SimpleData name="Superficie">1.00000000000</SimpleData>
            <SimpleData name="Situaci_1">Par?metro</SimpleData>
            <SimpleData name="Plantado">SI</SimpleData>
            <SimpleData name="Fecha_Plan">2026/04/24</SimpleData>
            <SimpleData name="Jornales">0.00000000000</SimpleData>
            <SimpleData name="Monto">0.00000000000</SimpleData>
            <SimpleData name="Grupo_de_p">D-P3-XX-XX-XX</SimpleData>
            <SimpleData name="Estado_del">Activo</SimpleData>
            <SimpleData name="Empresa">Unique Wood Paraguay SA</SimpleData>
            <SimpleData name="Lote">D</SimpleData>
            <SimpleData name="Sup_SIG">1.01588355834</SimpleData>
            <SimpleData name="X">-56.23839095000</SimpleData>
            <SimpleData name="Y">-25.18874306000</SimpleData>
            <SimpleData name="cedula">1920304</SimpleData>
          </SchemaData>
        </ExtendedData>
        <Polygon>
          <outerBoundaryIs>
            <LinearRing>
              <coordinates>
                -56.2374450002988,-25.1889967004381,0
                -56.2392282997765,-25.1890059997975,0
                -56.2392198998749,-25.1883966995676,0
                -56.2374422000955,-25.1885838997291,0
                -56.2374450002988,-25.1889967004381,0
              </coordinates>
            </LinearRing>
          </outerBoundaryIs>
        </Polygon>
      </Placemark>
      <Placemark id="Distrito_CARAYAO.4">
        <ExtendedData>
          <SchemaData schemaUrl="#Distrito_CARAYAO.schema">
            <SimpleData name="Cédula">6115549.00000000000</SimpleData>
            <SimpleData name="Nombres_y_">SONIA RAQUEL FERNANDEZ</SimpleData>
            <SimpleData name="Sexo">Mujer</SimpleData>
            <SimpleData name="Cambio_de_">NO</SimpleData>
            <SimpleData name="Titular_se">NO</SimpleData>
            <SimpleData name="ci_UNIF">6115549.00000000000</SimpleData>
            <SimpleData name="Situación">NO</SimpleData>
            <SimpleData name="Comunidad">Campesina</SimpleData>
            <SimpleData name="Modelo_imp">Modelo 3</SimpleData>
            <SimpleData name="Departamen">CAAGUAZU</SimpleData>
            <SimpleData name="Distrito">CARAYAO</SimpleData>
            <SimpleData name="Localidad">CRISTO REY</SimpleData>
            <SimpleData name="Teléfono">0972932449</SimpleData>
            <SimpleData name="Vivienda_L">-25.19038930000</SimpleData>
            <SimpleData name="Vivienda_1">-56.29368310000</SimpleData>
            <SimpleData name="Superficie">1.00000000000</SimpleData>
            <SimpleData name="Situaci_1">Par?metro</SimpleData>
            <SimpleData name="Plantado">SI</SimpleData>
            <SimpleData name="Fecha_Plan">2026/04/21</SimpleData>
            <SimpleData name="Jornales">0.00000000000</SimpleData>
            <SimpleData name="Monto">0.00000000000</SimpleData>
            <SimpleData name="Grupo_de_p">D-P3-XX-XX-XX</SimpleData>
            <SimpleData name="Estado_del">Activo</SimpleData>
            <SimpleData name="Empresa">Unique Wood Paraguay SA</SimpleData>
            <SimpleData name="Lote">D</SimpleData>
            <SimpleData name="Sup_SIG">1.17549613615</SimpleData>
            <SimpleData name="X">-56.29336915000</SimpleData>
            <SimpleData name="Y">-25.19753344000</SimpleData>
            <SimpleData name="cedula">6115549</SimpleData>
          </SchemaData>
        </ExtendedData>
        <Polygon>
          <outerBoundaryIs>
            <LinearRing>
              <coordinates>
                -56.2927590002484,-25.1980350001906,0
                -56.2938440997548,-25.1980780999147,0
                -56.2938198000744,-25.1967624001222,0
                -56.293393399734,-25.1966549995845,0
                -56.293509000379,-25.1970076999265,0
                -56.2933183002696,-25.1972816999321,0
                -56.2927412999052,-25.1973135998174,0
                -56.2927590002484,-25.1980350001906,0
              </coordinates>
            </LinearRing>
          </outerBoundaryIs>
        </Polygon>
      </Placemark>
      <Placemark id="Distrito_CARAYAO.5">
        <ExtendedData>
          <SchemaData schemaUrl="#Distrito_CARAYAO.schema">
            <SimpleData name="Cédula">5391373.00000000000</SimpleData>
            <SimpleData name="Nombres_y_">JUSTO VIDAL BOGADO</SimpleData>
            <SimpleData name="Sexo">Hombre</SimpleData>
            <SimpleData name="Cambio_de_">NO</SimpleData>
            <SimpleData name="Titular_se">NO</SimpleData>
            <SimpleData name="ci_UNIF">5391373.00000000000</SimpleData>
            <SimpleData name="Situación">NO</SimpleData>
            <SimpleData name="Comunidad">Campesina</SimpleData>
            <SimpleData name="Modelo_imp">Modelo 3</SimpleData>
            <SimpleData name="Departamen">CAAGUAZU</SimpleData>
            <SimpleData name="Distrito">CARAYAO</SimpleData>
            <SimpleData name="Localidad">SANTA CATALINA</SimpleData>
            <SimpleData name="Teléfono">0984949423</SimpleData>
            <SimpleData name="Vivienda_L">-25.17438620000</SimpleData>
            <SimpleData name="Vivienda_1">-56.31638110000</SimpleData>
            <SimpleData name="Superficie">1.00000000000</SimpleData>
            <SimpleData name="Situaci_1">Par?metro</SimpleData>
            <SimpleData name="Plantado">SI</SimpleData>
            <SimpleData name="Fecha_Plan">2026/04/21</SimpleData>
            <SimpleData name="Jornales">0.00000000000</SimpleData>
            <SimpleData name="Monto">0.00000000000</SimpleData>
            <SimpleData name="Grupo_de_p">D-P3-XX-XX-XX</SimpleData>
            <SimpleData name="Estado_del">Activo</SimpleData>
            <SimpleData name="Empresa">Unique Wood Paraguay SA</SimpleData>
            <SimpleData name="Lote">D</SimpleData>
            <SimpleData name="Sup_SIG">1.46698824487</SimpleData>
            <SimpleData name="X">-56.31602029000</SimpleData>
            <SimpleData name="Y">-25.17519300000</SimpleData>
            <SimpleData name="cedula">5391373</SimpleData>
          </SchemaData>
        </ExtendedData>
        <Polygon>
          <outerBoundaryIs>
            <LinearRing>
              <coordinates>
                -56.3155469996229,-25.1744428001916,0
                -56.315723399706,-25.1760683003762,0
                -56.3164664998356,-25.1760218002734,0
                -56.3164167001028,-25.1756232996546,0
                -56.3164744004069,-25.1755655002525,0
                -56.3163454002778,-25.1750035002315,0
                -56.3165786002135,-25.1749555002598,0
                -56.3164877998344,-25.1746899004001,0
                -56.3161952995749,-25.1746858004283,0
                -56.3161349995746,-25.1741966999544,0
                -56.3155469996229,-25.1744428001916,0
              </coordinates>
            </LinearRing>
          </outerBoundaryIs>
        </Polygon>
      </Placemark>
    </Document>
  </Document>
</kml>
