<?xml version="1.0" encoding="UTF-8"?>
<kml xmlns="http://www.opengis.net/kml/2.2">
  <Document id="root_doc">
    <Schema id="Distrito_AZOTEY.schema">
      <SimpleField name="Cédula" type="double"/>
      <SimpleField name="Nombres_y_" type="string"/>
      <SimpleField name="Sexo" type="string"/>
      <SimpleField name="Cambio_de_" type="string"/>
      <SimpleField name="Titular_se" type="string"/>
      <SimpleField name="Cédula_Ti" type="string"/>
      <SimpleField name="ci_UNIF" type="double"/>
      <SimpleField name="Situación" type="string"/>
      <SimpleField name="Comunidad" type="string"/>
      <SimpleField name="Modelo_imp" type="string"/>
      <SimpleField name="Departamen" type="string"/>
      <SimpleField name="Distrito" type="string"/>
      <SimpleField name="Localidad" type="string"/>
      <SimpleField name="Teléfono" type="string"/>
      <SimpleField name="Vivienda_L" type="double"/>
      <SimpleField name="Vivienda_1" type="double"/>
      <SimpleField name="Superficie" type="double"/>
      <SimpleField name="Situaci_1" type="string"/>
      <SimpleField name="Plantado" type="string"/>
      <SimpleField name="Fecha_Plan" type="string"/>
      <SimpleField name="Jornales" type="double"/>
      <SimpleField name="Monto" type="double"/>
      <SimpleField name="Grupo_de_p" type="string"/>
      <SimpleField name="Estado_del" type="string"/>
      <SimpleField name="Empresa" type="string"/>
      <SimpleField name="Lote" type="string"/>
      <SimpleField name="Parametro" type="double"/>
      <SimpleField name="Sup_SIG" type="double"/>
      <SimpleField name="Situacion" type="string"/>
      <SimpleField name="X" type="double"/>
      <SimpleField name="Y" type="double"/>
      <SimpleField name="cedula" type="string"/>
    </Schema>
    <Document id="Distrito_AZOTEY">
      <name>Distrito_AZOTEY</name>
      <Placemark id="Distrito_AZOTEY.1">
        <ExtendedData>
          <SchemaData schemaUrl="#Distrito_AZOTEY.schema">
            <SimpleData name="Cédula">6931248.00000000000</SimpleData>
            <SimpleData name="Nombres_y_">LIZ PAOLA CABRERA ESPINOLA</SimpleData>
            <SimpleData name="Sexo">Mujer</SimpleData>
            <SimpleData name="Cambio_de_">NO</SimpleData>
            <SimpleData name="Titular_se">NO</SimpleData>
            <SimpleData name="ci_UNIF">6931248.00000000000</SimpleData>
            <SimpleData name="Situación">NO</SimpleData>
            <SimpleData name="Comunidad">Ind?gena</SimpleData>
            <SimpleData name="Modelo_imp">Modelo 1</SimpleData>
            <SimpleData name="Departamen">CONCEPCION</SimpleData>
            <SimpleData name="Distrito">AZOTEY</SimpleData>
            <SimpleData name="Localidad">COM INDIG VYA PAVE-AZOTEY</SimpleData>
            <SimpleData name="Teléfono">0982571202</SimpleData>
            <SimpleData name="Vivienda_L">-23.34841570000</SimpleData>
            <SimpleData name="Vivienda_1">-56.50877480000</SimpleData>
            <SimpleData name="Superficie">0.80000000000</SimpleData>
            <SimpleData name="Situaci_1">Par?metro</SimpleData>
            <SimpleData name="Plantado">SI</SimpleData>
            <SimpleData name="Fecha_Plan">2025/12/13</SimpleData>
            <SimpleData name="Jornales">0.00000000000</SimpleData>
            <SimpleData name="Monto">0.00000000000</SimpleData>
            <SimpleData name="Grupo_de_p">J-P1-XX-XX-XX</SimpleData>
            <SimpleData name="Estado_del">Activo</SimpleData>
            <SimpleData name="Empresa">Emilio Sol?s Grance</SimpleData>
            <SimpleData name="Lote">J</SimpleData>
            <SimpleData name="Sup_SIG">0.86520610933</SimpleData>
            <SimpleData name="X">-56.50324830000</SimpleData>
            <SimpleData name="Y">-23.34306721000</SimpleData>
            <SimpleData name="cedula">6931248</SimpleData>
          </SchemaData>
        </ExtendedData>
        <Polygon>
          <outerBoundaryIs>
            <LinearRing>
              <coordinates>
                -56.5025369654718,-23.3433500448245,0
                -56.5025382995955,-23.3433417000287,0
                -56.5038980303994,-23.3433549488766,0
                -56.5039566997085,-23.3427949996277,0
                -56.502609999676,-23.3427750000768,0
                -56.502533299148,-23.3433500006594,0
                -56.5025369654718,-23.3433500448245,0
              </coordinates>
            </LinearRing>
          </outerBoundaryIs>
        </Polygon>
      </Placemark>
      <Placemark id="Distrito_AZOTEY.2">
        <ExtendedData>
          <SchemaData schemaUrl="#Distrito_AZOTEY.schema">
            <SimpleData name="Cédula">6915932.00000000000</SimpleData>
            <SimpleData name="Nombres_y_">EDILSON VARGAS GIMENEZ</SimpleData>
            <SimpleData name="Sexo">Hombre</SimpleData>
            <SimpleData name="Cambio_de_">NO</SimpleData>
            <SimpleData name="Titular_se">NO</SimpleData>
            <SimpleData name="ci_UNIF">6915932.00000000000</SimpleData>
            <SimpleData name="Situación">NO</SimpleData>
            <SimpleData name="Comunidad">Ind?gena</SimpleData>
            <SimpleData name="Modelo_imp">Modelo 1</SimpleData>
            <SimpleData name="Departamen">CONCEPCION</SimpleData>
            <SimpleData name="Distrito">AZOTEY</SimpleData>
            <SimpleData name="Localidad">COM INDIG VYA PAVE-AZOTEY</SimpleData>
            <SimpleData name="Teléfono">0972740598</SimpleData>
            <SimpleData name="Vivienda_L">-23.34781270000</SimpleData>
            <SimpleData name="Vivienda_1">-56.50893920000</SimpleData>
            <SimpleData name="Superficie">0.80000000000</SimpleData>
            <SimpleData name="Situaci_1">Par?metro</SimpleData>
            <SimpleData name="Plantado">SI</SimpleData>
            <SimpleData name="Fecha_Plan">2025/12/18</SimpleData>
            <SimpleData name="Jornales">0.00000000000</SimpleData>
            <SimpleData name="Monto">0.00000000000</SimpleData>
            <SimpleData name="Grupo_de_p">J-P1-XX-XX-XX</SimpleData>
            <SimpleData name="Estado_del">Activo</SimpleData>
            <SimpleData name="Empresa">Emilio Sol?s Grance</SimpleData>
            <SimpleData name="Lote">J</SimpleData>
            <SimpleData name="Sup_SIG">0.85741576937</SimpleData>
            <SimpleData name="X">-56.50318902000</SimpleData>
            <SimpleData name="Y">-23.34362451000</SimpleData>
            <SimpleData name="cedula">6915932</SimpleData>
          </SchemaData>
        </ExtendedData>
        <Polygon>
          <outerBoundaryIs>
            <LinearRing>
              <coordinates>
                -56.5025369654718,-23.3433500448245,0
                -56.5024532991853,-23.3438733003711,0
                -56.503829999247,-23.343925000507,0
                -56.5039033000508,-23.343355000799,0
                -56.5038980303994,-23.3433549488766,0
                -56.5025382995955,-23.3433417000287,0
                -56.5025369654718,-23.3433500448245,0
              </coordinates>
            </LinearRing>
          </outerBoundaryIs>
        </Polygon>
      </Placemark>
      <Placemark id="Distrito_AZOTEY.3">
        <ExtendedData>
          <SchemaData schemaUrl="#Distrito_AZOTEY.schema">
            <SimpleData name="Cédula">7235064.00000000000</SimpleData>
            <SimpleData name="Nombres_y_">LUZ MARINA CABRERA ESPINOLA</SimpleData>
            <SimpleData name="Sexo">Mujer</SimpleData>
            <SimpleData name="Cambio_de_">NO</SimpleData>
            <SimpleData name="Titular_se">NO</SimpleData>
            <SimpleData name="ci_UNIF">7235064.00000000000</SimpleData>
            <SimpleData name="Situación">NO</SimpleData>
            <SimpleData name="Comunidad">Ind?gena</SimpleData>
            <SimpleData name="Modelo_imp">Modelo 5</SimpleData>
            <SimpleData name="Departamen">CONCEPCION</SimpleData>
            <SimpleData name="Distrito">AZOTEY</SimpleData>
            <SimpleData name="Localidad">COM INDIG VYA PAVE-AZOTEY</SimpleData>
            <SimpleData name="Teléfono">0983836371</SimpleData>
            <SimpleData name="Vivienda_L">-23.34893540000</SimpleData>
            <SimpleData name="Vivienda_1">-56.50881130000</SimpleData>
            <SimpleData name="Superficie">0.70000000000</SimpleData>
            <SimpleData name="Situaci_1">Par?metro</SimpleData>
            <SimpleData name="Plantado">SI</SimpleData>
            <SimpleData name="Fecha_Plan">2025/12/13</SimpleData>
            <SimpleData name="Jornales">0.00000000000</SimpleData>
            <SimpleData name="Monto">0.00000000000</SimpleData>
            <SimpleData name="Grupo_de_p">J-P2-XX-XX-XX</SimpleData>
            <SimpleData name="Estado_del">Activo</SimpleData>
            <SimpleData name="Empresa">Emilio Sol?s Grance</SimpleData>
            <SimpleData name="Lote">J</SimpleData>
            <SimpleData name="Sup_SIG">0.79354553391</SimpleData>
            <SimpleData name="X">-56.50325066000</SimpleData>
            <SimpleData name="Y">-23.34262739000</SimpleData>
            <SimpleData name="cedula">7235064</SimpleData>
          </SchemaData>
        </ExtendedData>
        <MultiGeometry>
          <Polygon>
            <outerBoundaryIs>
              <LinearRing>
                <coordinates>
                  -56.5077921993642,-23.3486528002359,0
                  -56.5082180999357,-23.3487572996671,0
                  -56.5085305995237,-23.3487995997371,0
                  -56.5085903998289,-23.3487354999719,0
                  -56.5088345992584,-23.3486806999484,0
                  -56.5088288996599,-23.3485882004624,0
                  -56.5085767990556,-23.3485437998551,0
                  -56.5085693993641,-23.3486296001435,0
                  -56.5083982993519,-23.3486500001782,0
                  -56.5084148992532,-23.3484089998088,0
                  -56.5083290991186,-23.3483331004185,0
                  -56.5078699992124,-23.3482250003495,0
                  -56.5078156996464,-23.3483190997655,0
                  -56.5077921993642,-23.3486528002359,0
                </coordinates>
              </LinearRing>
            </outerBoundaryIs>
          </Polygon>
          <Polygon>
            <outerBoundaryIs>
              <LinearRing>
                <coordinates>
                  -56.5039542991543,-23.3427804997667,0
                  -56.5039632999597,-23.3425617000721,0
                  -56.5026822995442,-23.3424140000271,0
                  -56.5026083999442,-23.3427630003152,0
                  -56.5039542991543,-23.3427804997667,0
                </coordinates>
              </LinearRing>
            </outerBoundaryIs>
          </Polygon>
        </MultiGeometry>
      </Placemark>
      <Placemark id="Distrito_AZOTEY.4">
        <ExtendedData>
          <SchemaData schemaUrl="#Distrito_AZOTEY.schema">
            <SimpleData name="Cédula">5573114.00000000000</SimpleData>
            <SimpleData name="Nombres_y_">CALIXTA TORRES FRANCO</SimpleData>
            <SimpleData name="Sexo">Mujer</SimpleData>
            <SimpleData name="Cambio_de_">NO</SimpleData>
            <SimpleData name="Titular_se">NO</SimpleData>
            <SimpleData name="ci_UNIF">5573114.00000000000</SimpleData>
            <SimpleData name="Situación">NO</SimpleData>
            <SimpleData name="Comunidad">Ind?gena</SimpleData>
            <SimpleData name="Modelo_imp">Modelo 5</SimpleData>
            <SimpleData name="Departamen">CONCEPCION</SimpleData>
            <SimpleData name="Distrito">AZOTEY</SimpleData>
            <SimpleData name="Localidad">COM INDIG VYA PAVE-AZOTEY</SimpleData>
            <SimpleData name="Teléfono">0976828754</SimpleData>
            <SimpleData name="Vivienda_L">-23.35193480000</SimpleData>
            <SimpleData name="Vivienda_1">-56.50831880000</SimpleData>
            <SimpleData name="Superficie">0.70000000000</SimpleData>
            <SimpleData name="Situaci_1">Par?metro</SimpleData>
            <SimpleData name="Plantado">SI</SimpleData>
            <SimpleData name="Fecha_Plan">2025/12/05</SimpleData>
            <SimpleData name="Jornales">0.00000000000</SimpleData>
            <SimpleData name="Monto">0.00000000000</SimpleData>
            <SimpleData name="Grupo_de_p">J-P2-XX-XX-XX</SimpleData>
            <SimpleData name="Estado_del">Activo</SimpleData>
            <SimpleData name="Empresa">Emilio Sol?s Grance</SimpleData>
            <SimpleData name="Lote">J</SimpleData>
            <SimpleData name="Sup_SIG">0.71712578912</SimpleData>
            <SimpleData name="X">-56.50712539000</SimpleData>
            <SimpleData name="Y">-23.35178350000</SimpleData>
            <SimpleData name="cedula">5573114</SimpleData>
          </SchemaData>
        </ExtendedData>
        <Polygon>
          <outerBoundaryIs>
            <LinearRing>
              <coordinates>
                -56.5063790996264,-23.3518805000968,0
                -56.5077636997489,-23.3521351996301,0
                -56.507824700315,-23.3516724001097,0
                -56.5065372997264,-23.3514350000983,0
                -56.5063790996264,-23.3518805000968,0
              </coordinates>
            </LinearRing>
          </outerBoundaryIs>
        </Polygon>
      </Placemark>
      <Placemark id="Distrito_AZOTEY.5">
        <ExtendedData>
          <SchemaData schemaUrl="#Distrito_AZOTEY.schema">
            <SimpleData name="Cédula">4174314.00000000000</SimpleData>
            <SimpleData name="Nombres_y_">BERNARDINO OCAMPO GARCETE</SimpleData>
            <SimpleData name="Sexo">Hombre</SimpleData>
            <SimpleData name="Cambio_de_">NO</SimpleData>
            <SimpleData name="Titular_se">NO</SimpleData>
            <SimpleData name="ci_UNIF">4174314.00000000000</SimpleData>
            <SimpleData name="Situación">NO</SimpleData>
            <SimpleData name="Comunidad">Ind?gena</SimpleData>
            <SimpleData name="Modelo_imp">Modelo 1</SimpleData>
            <SimpleData name="Departamen">CONCEPCION</SimpleData>
            <SimpleData name="Distrito">AZOTEY</SimpleData>
            <SimpleData name="Localidad">COM INDIG VYA PAVE-AZOTEY</SimpleData>
            <SimpleData name="Teléfono">0974607790</SimpleData>
            <SimpleData name="Vivienda_L">-23.35047170000</SimpleData>
            <SimpleData name="Vivienda_1">-56.50851100000</SimpleData>
            <SimpleData name="Superficie">0.80000000000</SimpleData>
            <SimpleData name="Situaci_1">Par?metro</SimpleData>
            <SimpleData name="Plantado">SI</SimpleData>
            <SimpleData name="Fecha_Plan">2025/12/05</SimpleData>
            <SimpleData name="Jornales">0.00000000000</SimpleData>
            <SimpleData name="Monto">0.00000000000</SimpleData>
            <SimpleData name="Grupo_de_p">J-P1-XX-XX-XX</SimpleData>
            <SimpleData name="Estado_del">Activo</SimpleData>
            <SimpleData name="Empresa">Emilio Sol?s Grance</SimpleData>
            <SimpleData name="Lote">J</SimpleData>
            <SimpleData name="Sup_SIG">0.84498837154</SimpleData>
            <SimpleData name="X">-56.50668724000</SimpleData>
            <SimpleData name="Y">-23.34963932000</SimpleData>
            <SimpleData name="cedula">4174314</SimpleData>
          </SchemaData>
        </ExtendedData>
        <Polygon>
          <outerBoundaryIs>
            <LinearRing>
              <coordinates>
                -56.5070908223457,-23.3493553205021,0
                -56.5067848074343,-23.3492999539444,0
                -56.5066899004746,-23.3493975002009,0
                -56.5065574996787,-23.3495817001635,0
                -56.5064918999442,-23.3492573002445,0
                -56.5063104001144,-23.3492227998793,0
                -56.5062522997009,-23.3492848003696,0
                -56.5060881998406,-23.349231800314,0
                -56.5059848998128,-23.3497715003184,0
                -56.5061135467043,-23.3498012348399,0
                -56.506125900168,-23.3498018997832,0
                -56.5062521510824,-23.3498332706056,0
                -56.5072050003732,-23.3500535001467,0
                -56.5073005997023,-23.3500238996991,0
                -56.5073772003773,-23.3498622997898,0
                -56.5072950004236,-23.3497333000212,0
                -56.5072636997698,-23.3495567996591,0
                -56.5071780001575,-23.3494110004227,0
                -56.5071328997391,-23.3493632997745,0
                -56.5070908223457,-23.3493553205021,0
              </coordinates>
            </LinearRing>
          </outerBoundaryIs>
        </Polygon>
      </Placemark>
      <Placemark id="Distrito_AZOTEY.6">
        <ExtendedData>
          <SchemaData schemaUrl="#Distrito_AZOTEY.schema">
            <SimpleData name="Cédula">5251908.00000000000</SimpleData>
            <SimpleData name="Nombres_y_">ELEUTERIA GOMEZ LOPEZ</SimpleData>
            <SimpleData name="Sexo">Mujer</SimpleData>
            <SimpleData name="Cambio_de_">NO</SimpleData>
            <SimpleData name="Titular_se">NO</SimpleData>
            <SimpleData name="ci_UNIF">5251908.00000000000</SimpleData>
            <SimpleData name="Situación">NO</SimpleData>
            <SimpleData name="Comunidad">Ind?gena</SimpleData>
            <SimpleData name="Modelo_imp">Modelo 2</SimpleData>
            <SimpleData name="Departamen">CONCEPCION</SimpleData>
            <SimpleData name="Distrito">AZOTEY</SimpleData>
            <SimpleData name="Localidad">COM INDIG VYA PAVE-AZOTEY</SimpleData>
            <SimpleData name="Teléfono">0981081898</SimpleData>
            <SimpleData name="Vivienda_L">-23.35000020000</SimpleData>
            <SimpleData name="Vivienda_1">-56.50913810000</SimpleData>
            <SimpleData name="Superficie">0.80000000000</SimpleData>
            <SimpleData name="Situaci_1">Par?metro</SimpleData>
            <SimpleData name="Plantado">SI</SimpleData>
            <SimpleData name="Fecha_Plan">2025/12/14</SimpleData>
            <SimpleData name="Jornales">0.00000000000</SimpleData>
            <SimpleData name="Monto">0.00000000000</SimpleData>
            <SimpleData name="Grupo_de_p">J-P1-XX-XX-XX</SimpleData>
            <SimpleData name="Estado_del">Activo</SimpleData>
            <SimpleData name="Empresa">Emilio Sol?s Grance</SimpleData>
            <SimpleData name="Lote">J</SimpleData>
            <SimpleData name="Sup_SIG">0.81491194126</SimpleData>
            <SimpleData name="X">-56.50532664000</SimpleData>
            <SimpleData name="Y">-23.35068486000</SimpleData>
            <SimpleData name="cedula">5251908</SimpleData>
          </SchemaData>
        </ExtendedData>
        <Polygon>
          <outerBoundaryIs>
            <LinearRing>
              <coordinates>
                -56.5052395996655,-23.3510937998052,0
                -56.5057442002517,-23.3511597000668,0
                -56.5058535000102,-23.3504184999274,0
                -56.5048054999632,-23.3502245999042,0
                -56.5048316999786,-23.3505504999301,0
                -56.5048767003059,-23.3509699995852,0
                -56.5051782996317,-23.3509817003664,0
                -56.5052395996655,-23.3510937998052,0
              </coordinates>
            </LinearRing>
          </outerBoundaryIs>
        </Polygon>
      </Placemark>
      <Placemark id="Distrito_AZOTEY.7">
        <ExtendedData>
          <SchemaData schemaUrl="#Distrito_AZOTEY.schema">
            <SimpleData name="Cédula">4200825.00000000000</SimpleData>
            <SimpleData name="Nombres_y_">LEONCIA ARCE</SimpleData>
            <SimpleData name="Sexo">Mujer</SimpleData>
            <SimpleData name="Cambio_de_">NO</SimpleData>
            <SimpleData name="Titular_se">NO</SimpleData>
            <SimpleData name="ci_UNIF">4200825.00000000000</SimpleData>
            <SimpleData name="Situación">NO</SimpleData>
            <SimpleData name="Comunidad">Ind?gena</SimpleData>
            <SimpleData name="Modelo_imp">Modelo 1</SimpleData>
            <SimpleData name="Departamen">CONCEPCION</SimpleData>
            <SimpleData name="Distrito">AZOTEY</SimpleData>
            <SimpleData name="Localidad">COM INDIG VYA PAVE-AZOTEY</SimpleData>
            <SimpleData name="Teléfono">0982698398</SimpleData>
            <SimpleData name="Vivienda_L">-23.35122680000</SimpleData>
            <SimpleData name="Vivienda_1">-56.50855260000</SimpleData>
            <SimpleData name="Superficie">0.80000000000</SimpleData>
            <SimpleData name="Situaci_1">Par?metro</SimpleData>
            <SimpleData name="Plantado">SI</SimpleData>
            <SimpleData name="Fecha_Plan">2025/12/05</SimpleData>
            <SimpleData name="Jornales">0.00000000000</SimpleData>
            <SimpleData name="Monto">0.00000000000</SimpleData>
            <SimpleData name="Grupo_de_p">J-P2-XX-XX-XX</SimpleData>
            <SimpleData name="Estado_del">Activo</SimpleData>
            <SimpleData name="Empresa">Emilio Sol?s Grance</SimpleData>
            <SimpleData name="Lote">J</SimpleData>
            <SimpleData name="Sup_SIG">0.81299080648</SimpleData>
            <SimpleData name="X">-56.50536351000</SimpleData>
            <SimpleData name="Y">-23.34999615000</SimpleData>
            <SimpleData name="cedula">4200825</SimpleData>
          </SchemaData>
        </ExtendedData>
        <Polygon>
          <outerBoundaryIs>
            <LinearRing>
              <coordinates>
                -56.5059369124775,-23.3497862449069,0
                -56.5050193251207,-23.3495953069112,0
                -56.5048565465538,-23.349561434018,0
                -56.5047863306873,-23.3502191746841,0
                -56.5058753012815,-23.3504193563982,0
                -56.5059503400581,-23.3497890386747,0
                -56.5059369124775,-23.3497862449069,0
              </coordinates>
            </LinearRing>
          </outerBoundaryIs>
        </Polygon>
      </Placemark>
      <Placemark id="Distrito_AZOTEY.8">
        <ExtendedData>
          <SchemaData schemaUrl="#Distrito_AZOTEY.schema">
            <SimpleData name="Cédula">7951506.00000000000</SimpleData>
            <SimpleData name="Nombres_y_">ALBINA TORRES MARTINEZ</SimpleData>
            <SimpleData name="Sexo">Mujer</SimpleData>
            <SimpleData name="Cambio_de_">NO</SimpleData>
            <SimpleData name="Titular_se">NO</SimpleData>
            <SimpleData name="ci_UNIF">7951506.00000000000</SimpleData>
            <SimpleData name="Situación">NO</SimpleData>
            <SimpleData name="Comunidad">Ind?gena</SimpleData>
            <SimpleData name="Modelo_imp">Modelo 1</SimpleData>
            <SimpleData name="Departamen">CONCEPCION</SimpleData>
            <SimpleData name="Distrito">AZOTEY</SimpleData>
            <SimpleData name="Localidad"><![CDATA[COM INDIG VY'A PAVE]]></SimpleData>
            <SimpleData name="Teléfono">987265083</SimpleData>
            <SimpleData name="Vivienda_L">-23.35430370000</SimpleData>
            <SimpleData name="Vivienda_1">-56.50726760000</SimpleData>
            <SimpleData name="Superficie">0.80000000000</SimpleData>
            <SimpleData name="Situaci_1">Parametro</SimpleData>
            <SimpleData name="Plantado">SI</SimpleData>
            <SimpleData name="Fecha_Plan">2026/02/13</SimpleData>
            <SimpleData name="Jornales">0.00000000000</SimpleData>
            <SimpleData name="Monto">0.00000000000</SimpleData>
            <SimpleData name="Grupo_de_p">J-P2-XX-XX-XX</SimpleData>
            <SimpleData name="Estado_del">Activo</SimpleData>
            <SimpleData name="Empresa">Emilio Sol?s Grance</SimpleData>
            <SimpleData name="Lote">J</SimpleData>
            <SimpleData name="Sup_SIG">0.81945332765</SimpleData>
            <SimpleData name="X">-56.50616504000</SimpleData>
            <SimpleData name="Y">-23.35395862000</SimpleData>
            <SimpleData name="cedula">7951506</SimpleData>
          </SchemaData>
        </ExtendedData>
        <Polygon>
          <outerBoundaryIs>
            <LinearRing>
              <coordinates>
                -56.505231700492,-23.3538900005423,0
                -56.5069575999561,-23.3543986999161,0
                -56.5071500993899,-23.3540608006351,0
                -56.5058706997588,-23.3536595008013,0
                -56.5053483999172,-23.3535101007213,0
                -56.505231700492,-23.3538900005423,0
              </coordinates>
            </LinearRing>
          </outerBoundaryIs>
        </Polygon>
      </Placemark>
      <Placemark id="Distrito_AZOTEY.9">
        <ExtendedData>
          <SchemaData schemaUrl="#Distrito_AZOTEY.schema">
            <SimpleData name="Cédula">4591561.00000000000</SimpleData>
            <SimpleData name="Nombres_y_">TERESA MONTANIA</SimpleData>
            <SimpleData name="Sexo">Mujer</SimpleData>
            <SimpleData name="Cambio_de_">NO</SimpleData>
            <SimpleData name="Titular_se">NO</SimpleData>
            <SimpleData name="ci_UNIF">4591561.00000000000</SimpleData>
            <SimpleData name="Situación">NO</SimpleData>
            <SimpleData name="Comunidad">Ind?gena</SimpleData>
            <SimpleData name="Modelo_imp">Modelo 1</SimpleData>
            <SimpleData name="Departamen">CONCEPCION</SimpleData>
            <SimpleData name="Distrito">AZOTEY</SimpleData>
            <SimpleData name="Localidad">COM INDIG VYA PAVE-AZOTEY</SimpleData>
            <SimpleData name="Teléfono">0987223092</SimpleData>
            <SimpleData name="Vivienda_L">-23.35233480000</SimpleData>
            <SimpleData name="Vivienda_1">-56.50889400000</SimpleData>
            <SimpleData name="Superficie">0.80000000000</SimpleData>
            <SimpleData name="Situaci_1">Par?metro</SimpleData>
            <SimpleData name="Plantado">SI</SimpleData>
            <SimpleData name="Fecha_Plan">2025/12/05</SimpleData>
            <SimpleData name="Jornales">0.00000000000</SimpleData>
            <SimpleData name="Monto">0.00000000000</SimpleData>
            <SimpleData name="Grupo_de_p">J-P1-XX-XX-XX</SimpleData>
            <SimpleData name="Estado_del">Activo</SimpleData>
            <SimpleData name="Empresa">Emilio Sol?s Grance</SimpleData>
            <SimpleData name="Lote">J</SimpleData>
            <SimpleData name="Sup_SIG">0.83722101750</SimpleData>
            <SimpleData name="X">-56.50963463000</SimpleData>
            <SimpleData name="Y">-23.35265286000</SimpleData>
            <SimpleData name="cedula">4591561</SimpleData>
          </SchemaData>
        </ExtendedData>
        <Polygon>
          <outerBoundaryIs>
            <LinearRing>
              <coordinates>
                -56.5091923994013,-23.3530529994598,0
                -56.5098610992477,-23.3533218001317,0
                -56.5099417991568,-23.3532819010197,0
                -56.5099083000016,-23.3523717003511,0
                -56.5100099992047,-23.3522349999234,0
                -56.5100550000248,-23.35212330006,0
                -56.5094737997011,-23.3519685996525,0
                -56.5091923994013,-23.3530529994598,0
              </coordinates>
            </LinearRing>
          </outerBoundaryIs>
        </Polygon>
      </Placemark>
      <Placemark id="Distrito_AZOTEY.10">
        <ExtendedData>
          <SchemaData schemaUrl="#Distrito_AZOTEY.schema">
            <SimpleData name="Cédula">6906429.00000000000</SimpleData>
            <SimpleData name="Nombres_y_">DELFINA ARCE</SimpleData>
            <SimpleData name="Sexo">Mujer</SimpleData>
            <SimpleData name="Cambio_de_">NO</SimpleData>
            <SimpleData name="Titular_se">NO</SimpleData>
            <SimpleData name="ci_UNIF">6906429.00000000000</SimpleData>
            <SimpleData name="Situación">NO</SimpleData>
            <SimpleData name="Comunidad">Ind?gena</SimpleData>
            <SimpleData name="Modelo_imp">Modelo 5</SimpleData>
            <SimpleData name="Departamen">CONCEPCION</SimpleData>
            <SimpleData name="Distrito">AZOTEY</SimpleData>
            <SimpleData name="Localidad">COM INDIG VYA PAVE-AZOTEY</SimpleData>
            <SimpleData name="Teléfono">0981129711</SimpleData>
            <SimpleData name="Vivienda_L">-23.34941400000</SimpleData>
            <SimpleData name="Vivienda_1">-56.50846180000</SimpleData>
            <SimpleData name="Superficie">0.70000000000</SimpleData>
            <SimpleData name="Situaci_1">Par?metro</SimpleData>
            <SimpleData name="Plantado">SI</SimpleData>
            <SimpleData name="Fecha_Plan">2025/12/23</SimpleData>
            <SimpleData name="Jornales">0.00000000000</SimpleData>
            <SimpleData name="Monto">0.00000000000</SimpleData>
            <SimpleData name="Grupo_de_p">J-P1-XX-XX-XX</SimpleData>
            <SimpleData name="Estado_del">Activo</SimpleData>
            <SimpleData name="Empresa">Emilio Sol?s Grance</SimpleData>
            <SimpleData name="Lote">J</SimpleData>
            <SimpleData name="Sup_SIG">0.72802754589</SimpleData>
            <SimpleData name="X">-56.50676309000</SimpleData>
            <SimpleData name="Y">-23.34912029000</SimpleData>
            <SimpleData name="cedula">6906429</SimpleData>
          </SchemaData>
        </ExtendedData>
        <Polygon>
          <outerBoundaryIs>
            <LinearRing>
              <coordinates>
                -56.5058776117526,-23.3487958182876,0
                -56.505854652485,-23.3489902367896,0
                -56.5058506258036,-23.3490243319903,0
                -56.5058396375141,-23.349117371434,0
                -56.5058383003119,-23.349128699783,0
                -56.5059085955485,-23.349141419439,0
                -56.5067848074343,-23.3492999539444,0
                -56.5070908223457,-23.3493553205021,0
                -56.507668300063,-23.3494597999656,0
                -56.5077032997019,-23.3492322008507,0
                -56.5076785996552,-23.349178900022,0
                -56.5076181990202,-23.3491043004483,0
                -56.505896329241,-23.3487786879106,0
                -56.5058799992791,-23.3487756004458,0
                -56.5058776117526,-23.3487958182876,0
              </coordinates>
            </LinearRing>
          </outerBoundaryIs>
        </Polygon>
      </Placemark>
      <Placemark id="Distrito_AZOTEY.11">
        <ExtendedData>
          <SchemaData schemaUrl="#Distrito_AZOTEY.schema">
            <SimpleData name="Cédula">6948705.00000000000</SimpleData>
            <SimpleData name="Nombres_y_">SEBASTIANA ROJAS MONTANIA</SimpleData>
            <SimpleData name="Sexo">Mujer</SimpleData>
            <SimpleData name="Cambio_de_">NO</SimpleData>
            <SimpleData name="Titular_se">NO</SimpleData>
            <SimpleData name="ci_UNIF">6948705.00000000000</SimpleData>
            <SimpleData name="Situación">NO</SimpleData>
            <SimpleData name="Comunidad">Ind?gena</SimpleData>
            <SimpleData name="Modelo_imp">Modelo 5</SimpleData>
            <SimpleData name="Departamen">CONCEPCION</SimpleData>
            <SimpleData name="Distrito">AZOTEY</SimpleData>
            <SimpleData name="Localidad">COM INDIG VYA PAVE-AZOTEY</SimpleData>
            <SimpleData name="Teléfono">0982084928</SimpleData>
            <SimpleData name="Vivienda_L">-23.35056240000</SimpleData>
            <SimpleData name="Vivienda_1">-56.50861270000</SimpleData>
            <SimpleData name="Superficie">0.70000000000</SimpleData>
            <SimpleData name="Situaci_1">Par?metro</SimpleData>
            <SimpleData name="Plantado">SI</SimpleData>
            <SimpleData name="Fecha_Plan">2025/12/05</SimpleData>
            <SimpleData name="Jornales">0.00000000000</SimpleData>
            <SimpleData name="Monto">0.00000000000</SimpleData>
            <SimpleData name="Grupo_de_p">J-P2-XX-XX-XX</SimpleData>
            <SimpleData name="Estado_del">Activo</SimpleData>
            <SimpleData name="Empresa">Emilio Sol?s Grance</SimpleData>
            <SimpleData name="Lote">J</SimpleData>
            <SimpleData name="Sup_SIG">0.70345777550</SimpleData>
            <SimpleData name="X">-56.50642187000</SimpleData>
            <SimpleData name="Y">-23.35024516000</SimpleData>
            <SimpleData name="cedula">6948705</SimpleData>
          </SchemaData>
        </ExtendedData>
        <Polygon>
          <outerBoundaryIs>
            <LinearRing>
              <coordinates>
                -56.5059630994216,-23.3497891999773,0
                -56.5058255991872,-23.3511730004081,0
                -56.5059616991933,-23.3511800004218,0
                -56.5060600994479,-23.3502260005124,0
                -56.5071382996416,-23.3504300001122,0
                -56.5072499991207,-23.3500933003535,0
                -56.5059630994216,-23.3497891999773,0
              </coordinates>
            </LinearRing>
          </outerBoundaryIs>
        </Polygon>
      </Placemark>
      <Placemark id="Distrito_AZOTEY.12">
        <ExtendedData>
          <SchemaData schemaUrl="#Distrito_AZOTEY.schema">
            <SimpleData name="Cédula">7086980.00000000000</SimpleData>
            <SimpleData name="Nombres_y_">ROSANA TORRES</SimpleData>
            <SimpleData name="Sexo">Mujer</SimpleData>
            <SimpleData name="Cambio_de_">NO</SimpleData>
            <SimpleData name="Titular_se">NO</SimpleData>
            <SimpleData name="ci_UNIF">7086980.00000000000</SimpleData>
            <SimpleData name="Situación">NO</SimpleData>
            <SimpleData name="Comunidad">Ind?gena</SimpleData>
            <SimpleData name="Modelo_imp">Modelo 1</SimpleData>
            <SimpleData name="Departamen">CONCEPCION</SimpleData>
            <SimpleData name="Distrito">AZOTEY</SimpleData>
            <SimpleData name="Localidad">COM INDIG VYA PAVE-AZOTEY</SimpleData>
            <SimpleData name="Teléfono">0983206746</SimpleData>
            <SimpleData name="Vivienda_L">-23.34874900000</SimpleData>
            <SimpleData name="Vivienda_1">-56.50929360000</SimpleData>
            <SimpleData name="Superficie">0.80000000000</SimpleData>
            <SimpleData name="Situaci_1">Par?metro</SimpleData>
            <SimpleData name="Plantado">SI</SimpleData>
            <SimpleData name="Fecha_Plan">2025/12/13</SimpleData>
            <SimpleData name="Jornales">0.00000000000</SimpleData>
            <SimpleData name="Monto">0.00000000000</SimpleData>
            <SimpleData name="Grupo_de_p">J-P1-XX-XX-XX</SimpleData>
            <SimpleData name="Estado_del">Activo</SimpleData>
            <SimpleData name="Empresa">Emilio Sol?s Grance</SimpleData>
            <SimpleData name="Lote">J</SimpleData>
            <SimpleData name="Sup_SIG">0.89541872723</SimpleData>
            <SimpleData name="X">-56.50527936000</SimpleData>
            <SimpleData name="Y">-23.34800708000</SimpleData>
            <SimpleData name="cedula">7086980</SimpleData>
          </SchemaData>
        </ExtendedData>
        <Polygon>
          <outerBoundaryIs>
            <LinearRing>
              <coordinates>
                -56.5046964995161,-23.3482583996082,0
                -56.5057900001258,-23.3484533001321,0
                -56.5058956002335,-23.3477770998873,0
                -56.5047433004567,-23.3475536999199,0
                -56.5046964995161,-23.3482583996082,0
              </coordinates>
            </LinearRing>
          </outerBoundaryIs>
        </Polygon>
      </Placemark>
      <Placemark id="Distrito_AZOTEY.13">
        <ExtendedData>
          <SchemaData schemaUrl="#Distrito_AZOTEY.schema">
            <SimpleData name="Cédula">4200830.00000000000</SimpleData>
            <SimpleData name="Nombres_y_">VICTORIANA TORRES MARTINEZ</SimpleData>
            <SimpleData name="Sexo">Mujer</SimpleData>
            <SimpleData name="Cambio_de_">NO</SimpleData>
            <SimpleData name="Titular_se">NO</SimpleData>
            <SimpleData name="ci_UNIF">4200830.00000000000</SimpleData>
            <SimpleData name="Situación">NO</SimpleData>
            <SimpleData name="Comunidad">Ind?gena</SimpleData>
            <SimpleData name="Modelo_imp">Modelo 5</SimpleData>
            <SimpleData name="Departamen">CONCEPCION</SimpleData>
            <SimpleData name="Distrito">AZOTEY</SimpleData>
            <SimpleData name="Localidad">COM INDIG VYA PAVE-AZOTEY</SimpleData>
            <SimpleData name="Teléfono">0984676981</SimpleData>
            <SimpleData name="Vivienda_L">-23.35379250000</SimpleData>
            <SimpleData name="Vivienda_1">-56.50791810000</SimpleData>
            <SimpleData name="Superficie">0.70000000000</SimpleData>
            <SimpleData name="Situaci_1">Par?metro</SimpleData>
            <SimpleData name="Plantado">SI</SimpleData>
            <SimpleData name="Fecha_Plan">2025/12/05</SimpleData>
            <SimpleData name="Jornales">0.00000000000</SimpleData>
            <SimpleData name="Monto">0.00000000000</SimpleData>
            <SimpleData name="Grupo_de_p">J-P2-XX-XX-XX</SimpleData>
            <SimpleData name="Estado_del">Activo</SimpleData>
            <SimpleData name="Empresa">Emilio Sol?s Grance</SimpleData>
            <SimpleData name="Lote">J</SimpleData>
            <SimpleData name="Sup_SIG">0.75504119281</SimpleData>
            <SimpleData name="X">-56.50532130000</SimpleData>
            <SimpleData name="Y">-23.35289951000</SimpleData>
            <SimpleData name="cedula">4200830</SimpleData>
          </SchemaData>
        </ExtendedData>
        <Polygon>
          <outerBoundaryIs>
            <LinearRing>
              <coordinates>
                -56.5055357997415,-23.3532024002549,0
                -56.5059208005405,-23.3533181997525,0
                -56.5060269001765,-23.3528186001361,0
                -56.5049458004978,-23.3525475998237,0
                -56.504670400168,-23.3525716998852,0
                -56.5046317001197,-23.3526151002182,0
                -56.5046516996598,-23.3530100002516,0
                -56.5050980004421,-23.3530844998893,0
                -56.5055357997415,-23.3532024002549,0
              </coordinates>
            </LinearRing>
          </outerBoundaryIs>
        </Polygon>
      </Placemark>
      <Placemark id="Distrito_AZOTEY.14">
        <ExtendedData>
          <SchemaData schemaUrl="#Distrito_AZOTEY.schema">
            <SimpleData name="Cédula">6944617.00000000000</SimpleData>
            <SimpleData name="Nombres_y_">LEONARDA TORRES MARTINEZ</SimpleData>
            <SimpleData name="Sexo">Mujer</SimpleData>
            <SimpleData name="Cambio_de_">NO</SimpleData>
            <SimpleData name="Titular_se">NO</SimpleData>
            <SimpleData name="ci_UNIF">6944617.00000000000</SimpleData>
            <SimpleData name="Situación">NO</SimpleData>
            <SimpleData name="Comunidad">Ind?gena</SimpleData>
            <SimpleData name="Modelo_imp">Modelo 5</SimpleData>
            <SimpleData name="Departamen">CONCEPCION</SimpleData>
            <SimpleData name="Distrito">AZOTEY</SimpleData>
            <SimpleData name="Localidad"><![CDATA[COM INDIG VY'A PAVE]]></SimpleData>
            <SimpleData name="Teléfono">971472921</SimpleData>
            <SimpleData name="Vivienda_L">-23.35401870000</SimpleData>
            <SimpleData name="Vivienda_1">-56.50745160000</SimpleData>
            <SimpleData name="Superficie">0.70000000000</SimpleData>
            <SimpleData name="Situaci_1">Parametro</SimpleData>
            <SimpleData name="Plantado">SI</SimpleData>
            <SimpleData name="Fecha_Plan">2026/02/17</SimpleData>
            <SimpleData name="Jornales">0.00000000000</SimpleData>
            <SimpleData name="Monto">0.00000000000</SimpleData>
            <SimpleData name="Grupo_de_p">J-P2-XX-XX-XX</SimpleData>
            <SimpleData name="Estado_del">Activo</SimpleData>
            <SimpleData name="Empresa">Emilio Sol?s Grance</SimpleData>
            <SimpleData name="Lote">J</SimpleData>
            <SimpleData name="Sup_SIG">0.78004077110</SimpleData>
            <SimpleData name="X">-56.50623280000</SimpleData>
            <SimpleData name="Y">-23.35357356000</SimpleData>
            <SimpleData name="cedula">6944617</SimpleData>
          </SchemaData>
        </ExtendedData>
        <MultiGeometry>
          <Polygon>
            <outerBoundaryIs>
              <LinearRing>
                <coordinates>
                  -56.5071403003958,-23.3540571006562,0
                  -56.5072832998328,-23.3538550008759,0
                  -56.5071783001545,-23.3536982997531,0
                  -56.507201699852,-23.3536000006864,0
                  -56.5069145998758,-23.3535150002608,0
                  -56.5060933006972,-23.353360000552,0
                  -56.5060149997941,-23.3536900002478,0
                  -56.5071403003958,-23.3540571006562,0
                </coordinates>
              </LinearRing>
            </outerBoundaryIs>
          </Polygon>
          <Polygon>
            <outerBoundaryIs>
              <LinearRing>
                <coordinates>
                  -56.5047850000616,-23.3533616998085,0
                  -56.5047950055878,-23.3533640212769,0
                  -56.504796800085,-23.3533570996923,0
                  -56.5049867332881,-23.3534085027253,0
                  -56.5054100001444,-23.3535067002972,0
                  -56.505504999484,-23.3532200000473,0
                  -56.5049079003058,-23.3530578996586,0
                  -56.5047850000616,-23.3533616998085,0
                </coordinates>
              </LinearRing>
            </outerBoundaryIs>
          </Polygon>
        </MultiGeometry>
      </Placemark>
      <Placemark id="Distrito_AZOTEY.15">
        <ExtendedData>
          <SchemaData schemaUrl="#Distrito_AZOTEY.schema">
            <SimpleData name="Cédula">6944618.00000000000</SimpleData>
            <SimpleData name="Nombres_y_">ANTONIA TORRES MARTINEZ</SimpleData>
            <SimpleData name="Sexo">Mujer</SimpleData>
            <SimpleData name="Cambio_de_">NO</SimpleData>
            <SimpleData name="Titular_se">NO</SimpleData>
            <SimpleData name="ci_UNIF">6944618.00000000000</SimpleData>
            <SimpleData name="Situación">NO</SimpleData>
            <SimpleData name="Comunidad">Ind?gena</SimpleData>
            <SimpleData name="Modelo_imp">Modelo 2</SimpleData>
            <SimpleData name="Departamen">CONCEPCION</SimpleData>
            <SimpleData name="Distrito">AZOTEY</SimpleData>
            <SimpleData name="Localidad"><![CDATA[COM INDIG VY'A PAVE]]></SimpleData>
            <SimpleData name="Teléfono">984053527</SimpleData>
            <SimpleData name="Vivienda_L">-23.35451150000</SimpleData>
            <SimpleData name="Vivienda_1">-56.50797250000</SimpleData>
            <SimpleData name="Superficie">0.80000000000</SimpleData>
            <SimpleData name="Situaci_1">Parametro</SimpleData>
            <SimpleData name="Plantado">SI</SimpleData>
            <SimpleData name="Fecha_Plan">2026/02/13</SimpleData>
            <SimpleData name="Jornales">0.00000000000</SimpleData>
            <SimpleData name="Monto">0.00000000000</SimpleData>
            <SimpleData name="Grupo_de_p">J-P2-XX-XX-XX</SimpleData>
            <SimpleData name="Estado_del">Activo</SimpleData>
            <SimpleData name="Empresa">Emilio Sol?s Grance</SimpleData>
            <SimpleData name="Lote">J</SimpleData>
            <SimpleData name="Sup_SIG">0.81706852884</SimpleData>
            <SimpleData name="X">-56.50698347000</SimpleData>
            <SimpleData name="Y">-23.35329982000</SimpleData>
            <SimpleData name="cedula">6944618</SimpleData>
          </SchemaData>
        </ExtendedData>
        <MultiGeometry>
          <Polygon>
            <outerBoundaryIs>
              <LinearRing>
                <coordinates>
                  -56.5079548996774,-23.3549549999633,0
                  -56.5081548996026,-23.3549358005788,0
                  -56.5082176991547,-23.3549095010392,0
                  -56.5084016998645,-23.3544416003882,0
                  -56.5080532996734,-23.3542549999423,0
                  -56.507930299393,-23.3544334006781,0
                  -56.508057799815,-23.354533699786,0
                  -56.5079884999752,-23.3547538003659,0
                  -56.5079548996774,-23.3549549999633,0
                </coordinates>
              </LinearRing>
            </outerBoundaryIs>
          </Polygon>
          <Polygon>
            <outerBoundaryIs>
              <LinearRing>
                <coordinates>
                  -56.5053433002153,-23.3535050009419,0
                  -56.5049867332881,-23.3534085027253,0
                  -56.504796800085,-23.3533570996923,0
                  -56.5047950055878,-23.3533640212769,0
                  -56.5046833002771,-23.353795000747,0
                  -56.5051985000688,-23.353945100519,0
                  -56.5053433002153,-23.3535050009419,0
                </coordinates>
              </LinearRing>
            </outerBoundaryIs>
          </Polygon>
          <Polygon>
            <outerBoundaryIs>
              <LinearRing>
                <coordinates>
                  -56.507379599181,-23.3531804002928,0
                  -56.5067222992257,-23.3530229002173,0
                  -56.5066098998144,-23.3534128998321,0
                  -56.5071999992711,-23.3535900005276,0
                  -56.507379599181,-23.3531804002928,0
                </coordinates>
              </LinearRing>
            </outerBoundaryIs>
          </Polygon>
        </MultiGeometry>
      </Placemark>
      <Placemark id="Distrito_AZOTEY.16">
        <ExtendedData>
          <SchemaData schemaUrl="#Distrito_AZOTEY.schema">
            <SimpleData name="Cédula">4174305.00000000000</SimpleData>
            <SimpleData name="Nombres_y_">LIDIA CABRAL MONTANIA</SimpleData>
            <SimpleData name="Sexo">Mujer</SimpleData>
            <SimpleData name="Cambio_de_">NO</SimpleData>
            <SimpleData name="Titular_se">NO</SimpleData>
            <SimpleData name="ci_UNIF">4174305.00000000000</SimpleData>
            <SimpleData name="Situación">NO</SimpleData>
            <SimpleData name="Comunidad">Ind?gena</SimpleData>
            <SimpleData name="Modelo_imp">Modelo 1</SimpleData>
            <SimpleData name="Departamen">CONCEPCION</SimpleData>
            <SimpleData name="Distrito">AZOTEY</SimpleData>
            <SimpleData name="Localidad"><![CDATA[COM INDIG VY'A PAVE]]></SimpleData>
            <SimpleData name="Teléfono">985986789</SimpleData>
            <SimpleData name="Vivienda_L">-23.35228040000</SimpleData>
            <SimpleData name="Vivienda_1">-56.50759250000</SimpleData>
            <SimpleData name="Superficie">0.80000000000</SimpleData>
            <SimpleData name="Situaci_1">Parametro</SimpleData>
            <SimpleData name="Plantado">SI</SimpleData>
            <SimpleData name="Fecha_Plan">2026/02/13</SimpleData>
            <SimpleData name="Jornales">0.00000000000</SimpleData>
            <SimpleData name="Monto">0.00000000000</SimpleData>
            <SimpleData name="Grupo_de_p">J-P2-XX-XX-XX</SimpleData>
            <SimpleData name="Estado_del">Activo</SimpleData>
            <SimpleData name="Empresa">Emilio Sol?s Grance</SimpleData>
            <SimpleData name="Lote">J</SimpleData>
            <SimpleData name="Sup_SIG">0.86720942397</SimpleData>
            <SimpleData name="X">-56.50504990000</SimpleData>
            <SimpleData name="Y">-23.35147059000</SimpleData>
            <SimpleData name="cedula">4174305</SimpleData>
          </SchemaData>
        </ExtendedData>
        <Polygon>
          <outerBoundaryIs>
            <LinearRing>
              <coordinates>
                -56.5043158998134,-23.3517023007701,0
                -56.5057620994924,-23.3517517002377,0
                -56.5058739001265,-23.3513485005293,0
                -56.5058200001209,-23.3512901003736,0
                -56.5047152994102,-23.3511779004102,0
                -56.5043051995292,-23.3511909005045,0
                -56.5043158998134,-23.3517023007701,0
              </coordinates>
            </LinearRing>
          </outerBoundaryIs>
        </Polygon>
      </Placemark>
      <Placemark id="Distrito_AZOTEY.17">
        <ExtendedData>
          <SchemaData schemaUrl="#Distrito_AZOTEY.schema">
            <SimpleData name="Cédula">6985322.00000000000</SimpleData>
            <SimpleData name="Nombres_y_">ISIDORA MENDOZA VELAZQUEZ</SimpleData>
            <SimpleData name="Sexo">Mujer</SimpleData>
            <SimpleData name="Cambio_de_">NO</SimpleData>
            <SimpleData name="Titular_se">NO</SimpleData>
            <SimpleData name="ci_UNIF">6985322.00000000000</SimpleData>
            <SimpleData name="Situación">NO</SimpleData>
            <SimpleData name="Comunidad">Ind?gena</SimpleData>
            <SimpleData name="Modelo_imp">Modelo 1</SimpleData>
            <SimpleData name="Departamen">CONCEPCION</SimpleData>
            <SimpleData name="Distrito">AZOTEY</SimpleData>
            <SimpleData name="Localidad">COM INDIG VYA PAVE-AZOTEY</SimpleData>
            <SimpleData name="Teléfono">0975362702</SimpleData>
            <SimpleData name="Vivienda_L">-23.35041750000</SimpleData>
            <SimpleData name="Vivienda_1">-56.50910120000</SimpleData>
            <SimpleData name="Superficie">0.80000000000</SimpleData>
            <SimpleData name="Situaci_1">Par?metro</SimpleData>
            <SimpleData name="Plantado">SI</SimpleData>
            <SimpleData name="Fecha_Plan">2025/12/05</SimpleData>
            <SimpleData name="Jornales">0.00000000000</SimpleData>
            <SimpleData name="Monto">0.00000000000</SimpleData>
            <SimpleData name="Grupo_de_p">J-P4-XX-XX-XX</SimpleData>
            <SimpleData name="Estado_del">Activo</SimpleData>
            <SimpleData name="Empresa">Emilio Sol?s Grance</SimpleData>
            <SimpleData name="Lote">J</SimpleData>
            <SimpleData name="Sup_SIG">0.82648579442</SimpleData>
            <SimpleData name="X">-56.50550219000</SimpleData>
            <SimpleData name="Y">-23.34933589000</SimpleData>
            <SimpleData name="cedula">6985322</SimpleData>
          </SchemaData>
        </ExtendedData>
        <Polygon>
          <outerBoundaryIs>
            <LinearRing>
              <coordinates>
                -56.5050193251207,-23.3495953069112,0
                -56.5059369124775,-23.3497862449069,0
                -56.5060600000374,-23.3492416998374,0
                -56.5060142005743,-23.3491984995251,0
                -56.5058199994533,-23.3491365999298,0
                -56.505854652485,-23.3489902367896,0
                -56.5058776117526,-23.3487958182876,0
                -56.505614100348,-23.3487619001359,0
                -56.505555000363,-23.3487899997684,0
                -56.5055284999248,-23.3490240999307,0
                -56.5055802995042,-23.3490648000788,0
                -56.505575000049,-23.3491619999143,0
                -56.504945365318,-23.3490589358256,0
                -56.5048406714138,-23.3495377819728,0
                -56.5050193251207,-23.3495953069112,0
              </coordinates>
            </LinearRing>
          </outerBoundaryIs>
        </Polygon>
      </Placemark>
      <Placemark id="Distrito_AZOTEY.18">
        <ExtendedData>
          <SchemaData schemaUrl="#Distrito_AZOTEY.schema">
            <SimpleData name="Cédula">6974934.00000000000</SimpleData>
            <SimpleData name="Nombres_y_">MABEL GALEANO</SimpleData>
            <SimpleData name="Sexo">Mujer</SimpleData>
            <SimpleData name="Cambio_de_">NO</SimpleData>
            <SimpleData name="Titular_se">NO</SimpleData>
            <SimpleData name="ci_UNIF">6974934.00000000000</SimpleData>
            <SimpleData name="Situación">NO</SimpleData>
            <SimpleData name="Comunidad">Ind?gena</SimpleData>
            <SimpleData name="Modelo_imp">Modelo 5</SimpleData>
            <SimpleData name="Departamen">CONCEPCION</SimpleData>
            <SimpleData name="Distrito">AZOTEY</SimpleData>
            <SimpleData name="Localidad">COM INDIG VYA PAVE-AZOTEY</SimpleData>
            <SimpleData name="Teléfono">0984761164</SimpleData>
            <SimpleData name="Vivienda_L">-23.35094710000</SimpleData>
            <SimpleData name="Vivienda_1">-56.50869980000</SimpleData>
            <SimpleData name="Superficie">0.70000000000</SimpleData>
            <SimpleData name="Situaci_1">Par?metro</SimpleData>
            <SimpleData name="Plantado">SI</SimpleData>
            <SimpleData name="Fecha_Plan">2025/12/05</SimpleData>
            <SimpleData name="Jornales">0.00000000000</SimpleData>
            <SimpleData name="Monto">0.00000000000</SimpleData>
            <SimpleData name="Grupo_de_p">J-P2-XX-XX-XX</SimpleData>
            <SimpleData name="Estado_del">Activo</SimpleData>
            <SimpleData name="Empresa">Emilio Sol?s Grance</SimpleData>
            <SimpleData name="Lote">J</SimpleData>
            <SimpleData name="Sup_SIG">0.73955784308</SimpleData>
            <SimpleData name="X">-56.50706149000</SimpleData>
            <SimpleData name="Y">-23.35108025000</SimpleData>
            <SimpleData name="cedula">6974934</SimpleData>
          </SchemaData>
        </ExtendedData>
        <Polygon>
          <outerBoundaryIs>
            <LinearRing>
              <coordinates>
                -56.5065123997393,-23.3514223000617,0
                -56.5078149998031,-23.3516683003301,0
                -56.5078002996088,-23.3515508004353,0
                -56.5073414001029,-23.3514851996345,0
                -56.5073049999084,-23.3510810997139,0
                -56.5073195999583,-23.350527799972,0
                -56.5068404004542,-23.3505051002496,0
                -56.5067354002847,-23.3506244000543,0
                -56.5067287996742,-23.3507766002374,0
                -56.5067616997314,-23.350936600052,0
                -56.5066471996372,-23.3513894001599,0
                -56.506524900218,-23.3513932998748,0
                -56.5065123997393,-23.3514223000617,0
              </coordinates>
            </LinearRing>
          </outerBoundaryIs>
        </Polygon>
      </Placemark>
    </Document>
  </Document>
</kml>
