<?xml version="1.0" encoding="UTF-8"?>
<kml xmlns="http://www.opengis.net/kml/2.2">
  <Document id="root_doc">
    <Schema id="Distrito_ITAKYRY.schema">
      <SimpleField name="Cédula" type="double"/>
      <SimpleField name="Nombres_y_" type="string"/>
      <SimpleField name="Sexo" type="string"/>
      <SimpleField name="Cambio_de_" type="string"/>
      <SimpleField name="Titular_se" type="string"/>
      <SimpleField name="Cédula_Ti" type="string"/>
      <SimpleField name="ci_UNIF" type="double"/>
      <SimpleField name="Situación" type="string"/>
      <SimpleField name="Comunidad" type="string"/>
      <SimpleField name="Modelo_imp" type="string"/>
      <SimpleField name="Departamen" type="string"/>
      <SimpleField name="Distrito" type="string"/>
      <SimpleField name="Localidad" type="string"/>
      <SimpleField name="Localidad_" type="string"/>
      <SimpleField name="Teléfono" type="string"/>
      <SimpleField name="Vivienda_L" type="double"/>
      <SimpleField name="Vivienda_1" type="double"/>
      <SimpleField name="Superficie" type="double"/>
      <SimpleField name="Fecha_Plan" type="string"/>
      <SimpleField name="Jornales" type="double"/>
      <SimpleField name="Monto" type="double"/>
      <SimpleField name="Grupo_de_p" type="string"/>
      <SimpleField name="ETAPA_FAO" type="string"/>
      <SimpleField name="Estado_del" type="string"/>
      <SimpleField name="Empresa" type="string"/>
      <SimpleField name="Lote" type="string"/>
      <SimpleField name="X" type="double"/>
      <SimpleField name="Y" type="double"/>
      <SimpleField name="Sup_SIG" type="double"/>
      <SimpleField name="cedula" type="string"/>
    </Schema>
    <Document id="Distrito_ITAKYRY">
      <name>Distrito_ITAKYRY</name>
      <Placemark id="Distrito_ITAKYRY.1">
        <ExtendedData>
          <SchemaData schemaUrl="#Distrito_ITAKYRY.schema">
            <SimpleData name="Cédula">2261475.00000000000</SimpleData>
            <SimpleData name="Nombres_y_">AMALIA  PEREIRA PERALTA</SimpleData>
            <SimpleData name="Sexo">Mujer</SimpleData>
            <SimpleData name="Cambio_de_">NO</SimpleData>
            <SimpleData name="Titular_se">NO</SimpleData>
            <SimpleData name="Cédula_Ti">NO</SimpleData>
            <SimpleData name="ci_UNIF">2261475.00000000000</SimpleData>
            <SimpleData name="Situación">NO</SimpleData>
            <SimpleData name="Comunidad">Campesina</SimpleData>
            <SimpleData name="Modelo_imp">Modelo 5</SimpleData>
            <SimpleData name="Departamen">ALTO PARANA</SimpleData>
            <SimpleData name="Distrito">ITAKYRY</SimpleData>
            <SimpleData name="Localidad">MARIA AUXILIADORA</SimpleData>
            <SimpleData name="Localidad_">MARIA AUXILIADORA</SimpleData>
            <SimpleData name="Teléfono">971362287</SimpleData>
            <SimpleData name="Vivienda_L">-24.98332330000</SimpleData>
            <SimpleData name="Vivienda_1">-55.15669170000</SimpleData>
            <SimpleData name="Superficie">0.70000000000</SimpleData>
            <SimpleData name="Fecha_Plan">2026/01/14</SimpleData>
            <SimpleData name="Jornales">0.00000000000</SimpleData>
            <SimpleData name="Monto">0.00000000000</SimpleData>
            <SimpleData name="Grupo_de_p">F-P2-XX-XX-XX</SimpleData>
            <SimpleData name="ETAPA_FAO">Mantenimiento A?o 1.1</SimpleData>
            <SimpleData name="Estado_del">Activo</SimpleData>
            <SimpleData name="Empresa">Red Forestal Paraguay SA</SimpleData>
            <SimpleData name="Lote">F</SimpleData>
            <SimpleData name="X">-55.10952824000</SimpleData>
            <SimpleData name="Y">-24.98586500000</SimpleData>
            <SimpleData name="Sup_SIG">0.70846156067</SimpleData>
            <SimpleData name="cedula">2261475</SimpleData>
          </SchemaData>
        </ExtendedData>
        <Polygon>
          <outerBoundaryIs>
            <LinearRing>
              <coordinates>
                -55.1089317001645,-24.9860367002524,0
                -55.1099181993829,-24.9862444005589,0
                -55.1100417991092,-24.986123800377,0
                -55.1101641005006,-24.9857304002204,0
                -55.1090565998539,-24.9854581010326,0
                -55.1089317001645,-24.9860367002524,0
              </coordinates>
            </LinearRing>
          </outerBoundaryIs>
        </Polygon>
      </Placemark>
    </Document>
  </Document>
</kml>
