<?xml version="1.0" encoding="UTF-8"?>
<kml xmlns="http://www.opengis.net/kml/2.2">
  <Document id="root_doc">
    <Schema id="Distrito_YRYBUCUA.schema">
      <SimpleField name="Cédula" type="double"/>
      <SimpleField name="Nombres_y_" type="string"/>
      <SimpleField name="Sexo" type="string"/>
      <SimpleField name="Cambio_de_" type="string"/>
      <SimpleField name="Titular_se" type="string"/>
      <SimpleField name="Cédula_Ti" type="string"/>
      <SimpleField name="ci_UNIF" type="double"/>
      <SimpleField name="Situación" type="string"/>
      <SimpleField name="Comunidad" type="string"/>
      <SimpleField name="Modelo" type="string"/>
      <SimpleField name="Departamen" type="string"/>
      <SimpleField name="Distrito" type="string"/>
      <SimpleField name="Localidad" type="string"/>
      <SimpleField name="Teléfono" type="string"/>
      <SimpleField name="Vivienda_L" type="double"/>
      <SimpleField name="Vivienda_1" type="double"/>
      <SimpleField name="Situaci_1" type="string"/>
      <SimpleField name="Plantado_f" type="string"/>
      <SimpleField name="año_usar" type="string"/>
      <SimpleField name="año" type="double"/>
      <SimpleField name="mes" type="string"/>
      <SimpleField name="Grupo_de_p" type="string"/>
      <SimpleField name="ETAPA_FAO" type="string"/>
      <SimpleField name="Estado_del" type="string"/>
      <SimpleField name="Empresa" type="string"/>
      <SimpleField name="Lote" type="string"/>
      <SimpleField name="X" type="double"/>
      <SimpleField name="Y" type="double"/>
      <SimpleField name="Sup_SIG" type="double"/>
    </Schema>
    <Document id="Distrito_YRYBUCUA">
      <name>Distrito_YRYBUCUA</name>
      <Placemark id="Distrito_YRYBUCUA.1">
        <ExtendedData>
          <SchemaData schemaUrl="#Distrito_YRYBUCUA.schema">
            <SimpleData name="Cédula">2460679.00000000000</SimpleData>
            <SimpleData name="Nombres_y_">HERMENEGILDA VERA BENITEZ</SimpleData>
            <SimpleData name="Sexo">Mujer</SimpleData>
            <SimpleData name="Cambio_de_">NO</SimpleData>
            <SimpleData name="Titular_se">NO</SimpleData>
            <SimpleData name="ci_UNIF">2460679.00000000000</SimpleData>
            <SimpleData name="Situación">NO</SimpleData>
            <SimpleData name="Comunidad">Ind?gena</SimpleData>
            <SimpleData name="Modelo">Modelo 5</SimpleData>
            <SimpleData name="Departamen">SAN PEDRO</SimpleData>
            <SimpleData name="Distrito">YRYBUCUA</SimpleData>
            <SimpleData name="Localidad">COM INDIG Y APY SANTA ISABEL</SimpleData>
            <SimpleData name="Teléfono">0975284519</SimpleData>
            <SimpleData name="Vivienda_L">-24.50048360000</SimpleData>
            <SimpleData name="Vivienda_1">-56.11853050000</SimpleData>
            <SimpleData name="Situaci_1">Pol?gono</SimpleData>
            <SimpleData name="Plantado_f">2025/08/08</SimpleData>
            <SimpleData name="año_usar">2025/08/08</SimpleData>
            <SimpleData name="año">2025.00000000000</SimpleData>
            <SimpleData name="mes">agosto</SimpleData>
            <SimpleData name="Grupo_de_p">Lote 1-P1</SimpleData>
            <SimpleData name="ETAPA_FAO">Mantenimiento A?o 1.1</SimpleData>
            <SimpleData name="Estado_del">Activo</SimpleData>
            <SimpleData name="Empresa">Hyh Consultores SRL</SimpleData>
            <SimpleData name="Lote">Lote 1</SimpleData>
            <SimpleData name="X">-56.11941951000</SimpleData>
            <SimpleData name="Y">-24.50025960000</SimpleData>
            <SimpleData name="Sup_SIG">0.78664547492</SimpleData>
          </SchemaData>
        </ExtendedData>
        <Polygon>
          <outerBoundaryIs>
            <LinearRing>
              <coordinates>
                -56.1187968010406,-24.5002233002555,0
                -56.1193000995428,-24.5008207000193,0
                -56.1200682999178,-24.5002482994345,0
                -56.1194998017487,-24.4997217999361,0
                -56.1187968010406,-24.5002233002555,0
              </coordinates>
            </LinearRing>
          </outerBoundaryIs>
        </Polygon>
      </Placemark>
      <Placemark id="Distrito_YRYBUCUA.2">
        <ExtendedData>
          <SchemaData schemaUrl="#Distrito_YRYBUCUA.schema">
            <SimpleData name="Cédula">6985376.00000000000</SimpleData>
            <SimpleData name="Nombres_y_">VICENTA CASIANO AMADEO</SimpleData>
            <SimpleData name="Sexo">Mujer</SimpleData>
            <SimpleData name="Cambio_de_">NO</SimpleData>
            <SimpleData name="Titular_se">NO</SimpleData>
            <SimpleData name="ci_UNIF">6985376.00000000000</SimpleData>
            <SimpleData name="Situación">NO</SimpleData>
            <SimpleData name="Comunidad">Ind?gena</SimpleData>
            <SimpleData name="Modelo">Modelo 2</SimpleData>
            <SimpleData name="Departamen">SAN PEDRO</SimpleData>
            <SimpleData name="Distrito">YRYBUCUA</SimpleData>
            <SimpleData name="Localidad">COM INDIG PALOMITA - 1</SimpleData>
            <SimpleData name="Teléfono">0983592533</SimpleData>
            <SimpleData name="Vivienda_L">-24.56206690000</SimpleData>
            <SimpleData name="Vivienda_1">-56.24256220000</SimpleData>
            <SimpleData name="Situaci_1">Pol?gono</SimpleData>
            <SimpleData name="Plantado_f">2025/08/08</SimpleData>
            <SimpleData name="año_usar">2025/08/08</SimpleData>
            <SimpleData name="año">2025.00000000000</SimpleData>
            <SimpleData name="mes">agosto</SimpleData>
            <SimpleData name="Grupo_de_p">Lote 1-P1</SimpleData>
            <SimpleData name="ETAPA_FAO">Mantenimiento A?o 1.1</SimpleData>
            <SimpleData name="Estado_del">Activo</SimpleData>
            <SimpleData name="Empresa">Hyh Consultores SRL</SimpleData>
            <SimpleData name="Lote">Lote 1</SimpleData>
            <SimpleData name="X">-56.24235308000</SimpleData>
            <SimpleData name="Y">-24.56321150000</SimpleData>
            <SimpleData name="Sup_SIG">0.92670141519</SimpleData>
          </SchemaData>
        </ExtendedData>
        <Polygon>
          <outerBoundaryIs>
            <LinearRing>
              <coordinates>
                -56.2419732987472,-24.5627076991786,0
                -56.2419387001009,-24.5637408001784,0
                -56.2429097989092,-24.5636513008402,0
                -56.2425037004873,-24.5625045013969,0
                -56.2422885998223,-24.5626588009988,0
                -56.2419732987472,-24.5627076991786,0
              </coordinates>
            </LinearRing>
          </outerBoundaryIs>
        </Polygon>
      </Placemark>
      <Placemark id="Distrito_YRYBUCUA.3">
        <ExtendedData>
          <SchemaData schemaUrl="#Distrito_YRYBUCUA.schema">
            <SimpleData name="Cédula">5826130.00000000000</SimpleData>
            <SimpleData name="Nombres_y_">ALBEDA VERA GAUTO</SimpleData>
            <SimpleData name="Sexo">Mujer</SimpleData>
            <SimpleData name="Cambio_de_">NO</SimpleData>
            <SimpleData name="Titular_se">NO</SimpleData>
            <SimpleData name="ci_UNIF">5826130.00000000000</SimpleData>
            <SimpleData name="Situación">NO</SimpleData>
            <SimpleData name="Comunidad">Ind?gena</SimpleData>
            <SimpleData name="Modelo">Modelo 1</SimpleData>
            <SimpleData name="Departamen">SAN PEDRO</SimpleData>
            <SimpleData name="Distrito">YRYBUCUA</SimpleData>
            <SimpleData name="Localidad">COM INDIG Y APY ARROYO SAYJU</SimpleData>
            <SimpleData name="Teléfono">0984804772</SimpleData>
            <SimpleData name="Vivienda_L">-24.52024630000</SimpleData>
            <SimpleData name="Vivienda_1">-56.14134690000</SimpleData>
            <SimpleData name="Situaci_1">Pol?gono</SimpleData>
            <SimpleData name="Plantado_f">2025/08/08</SimpleData>
            <SimpleData name="año_usar">2025/08/08</SimpleData>
            <SimpleData name="año">2025.00000000000</SimpleData>
            <SimpleData name="mes">agosto</SimpleData>
            <SimpleData name="Grupo_de_p">Lote 1-P1</SimpleData>
            <SimpleData name="ETAPA_FAO">Mantenimiento A?o 1.1</SimpleData>
            <SimpleData name="Estado_del">Activo</SimpleData>
            <SimpleData name="Empresa">Hyh Consultores SRL</SimpleData>
            <SimpleData name="Lote">Lote 1</SimpleData>
            <SimpleData name="X">-56.14294494000</SimpleData>
            <SimpleData name="Y">-24.51913090000</SimpleData>
            <SimpleData name="Sup_SIG">0.95866514456</SimpleData>
          </SchemaData>
        </ExtendedData>
        <Polygon>
          <outerBoundaryIs>
            <LinearRing>
              <coordinates>
                -56.1424227998168,-24.5188273003426,0
                -56.1426016999948,-24.5197551996353,0
                -56.1434967995592,-24.5194017007599,0
                -56.143258900011,-24.5185153008139,0
                -56.1424227998168,-24.5188273003426,0
              </coordinates>
            </LinearRing>
          </outerBoundaryIs>
        </Polygon>
      </Placemark>
      <Placemark id="Distrito_YRYBUCUA.4">
        <ExtendedData>
          <SchemaData schemaUrl="#Distrito_YRYBUCUA.schema">
            <SimpleData name="Cédula">7624397.00000000000</SimpleData>
            <SimpleData name="Nombres_y_">DANIEL VERA DUARTE</SimpleData>
            <SimpleData name="Sexo">Hombre</SimpleData>
            <SimpleData name="Cambio_de_">NO</SimpleData>
            <SimpleData name="Titular_se">NO</SimpleData>
            <SimpleData name="ci_UNIF">7624397.00000000000</SimpleData>
            <SimpleData name="Situación">NO</SimpleData>
            <SimpleData name="Comunidad">Ind?gena</SimpleData>
            <SimpleData name="Modelo">Modelo 1</SimpleData>
            <SimpleData name="Departamen">SAN PEDRO</SimpleData>
            <SimpleData name="Distrito">YRYBUCUA</SimpleData>
            <SimpleData name="Localidad">COM INDIG Y APY SANTA ISABEL</SimpleData>
            <SimpleData name="Teléfono">ND</SimpleData>
            <SimpleData name="Vivienda_L">-24.50164190000</SimpleData>
            <SimpleData name="Vivienda_1">-56.11713670000</SimpleData>
            <SimpleData name="Situaci_1">Pol?gono</SimpleData>
            <SimpleData name="Plantado_f">2025/08/08</SimpleData>
            <SimpleData name="año_usar">2025/08/08</SimpleData>
            <SimpleData name="año">2025.00000000000</SimpleData>
            <SimpleData name="mes">agosto</SimpleData>
            <SimpleData name="Grupo_de_p">Lote 1-P1</SimpleData>
            <SimpleData name="ETAPA_FAO">Mantenimiento A?o 1.1</SimpleData>
            <SimpleData name="Estado_del">Activo</SimpleData>
            <SimpleData name="Empresa">Hyh Consultores SRL</SimpleData>
            <SimpleData name="Lote">Lote 1</SimpleData>
            <SimpleData name="X">-56.11650278000</SimpleData>
            <SimpleData name="Y">-24.50355007000</SimpleData>
            <SimpleData name="Sup_SIG">1.06952152967</SimpleData>
          </SchemaData>
        </ExtendedData>
        <Polygon>
          <outerBoundaryIs>
            <LinearRing>
              <coordinates>
                -56.115756600424,-24.5038572010093,0
                -56.1162444999487,-24.5042270996385,0
                -56.1163922999698,-24.5040561007423,0
                -56.116628099736,-24.5041417000513,0
                -56.1169133984284,-24.5038909000314,0
                -56.1167211017887,-24.5035949008452,0
                -56.1171805002684,-24.5030583002118,0
                -56.116828758439,-24.5027336832884,0
                -56.115756600424,-24.5038572010093,0
              </coordinates>
            </LinearRing>
          </outerBoundaryIs>
        </Polygon>
      </Placemark>
      <Placemark id="Distrito_YRYBUCUA.5">
        <ExtendedData>
          <SchemaData schemaUrl="#Distrito_YRYBUCUA.schema">
            <SimpleData name="Cédula">6969524.00000000000</SimpleData>
            <SimpleData name="Nombres_y_">ADALBERTA CASIANO AMADEO</SimpleData>
            <SimpleData name="Sexo">Mujer</SimpleData>
            <SimpleData name="Cambio_de_">NO</SimpleData>
            <SimpleData name="Titular_se">NO</SimpleData>
            <SimpleData name="ci_UNIF">6969524.00000000000</SimpleData>
            <SimpleData name="Situación">NO</SimpleData>
            <SimpleData name="Comunidad">Ind?gena</SimpleData>
            <SimpleData name="Modelo">Modelo 1</SimpleData>
            <SimpleData name="Departamen">SAN PEDRO</SimpleData>
            <SimpleData name="Distrito">YRYBUCUA</SimpleData>
            <SimpleData name="Localidad">COM INDIG PALOMITA - 1</SimpleData>
            <SimpleData name="Teléfono">0984567670</SimpleData>
            <SimpleData name="Vivienda_L">-24.56180730000</SimpleData>
            <SimpleData name="Vivienda_1">-56.24307020000</SimpleData>
            <SimpleData name="Situaci_1">Pol?gono</SimpleData>
            <SimpleData name="Plantado_f">2025/08/28</SimpleData>
            <SimpleData name="año_usar">2025/08/28</SimpleData>
            <SimpleData name="año">2025.00000000000</SimpleData>
            <SimpleData name="mes">agosto</SimpleData>
            <SimpleData name="Grupo_de_p">Lote 1-P1</SimpleData>
            <SimpleData name="ETAPA_FAO">Mantenimiento A?o 1.1</SimpleData>
            <SimpleData name="Estado_del">Activo</SimpleData>
            <SimpleData name="Empresa">Hyh Consultores SRL</SimpleData>
            <SimpleData name="Lote">Lote 1</SimpleData>
            <SimpleData name="X">-56.24314265000</SimpleData>
            <SimpleData name="Y">-24.56309814000</SimpleData>
            <SimpleData name="Sup_SIG">0.86185280951</SimpleData>
          </SchemaData>
        </ExtendedData>
        <Polygon>
          <outerBoundaryIs>
            <LinearRing>
              <coordinates>
                -56.2425565004587,-24.5624331004956,0
                -56.2429375993198,-24.5636174004889,0
                -56.2437638009829,-24.5635316000696,0
                -56.2436049001319,-24.5629266011736,0
                -56.2435371004626,-24.5629167998702,0
                -56.2435291003425,-24.5628585009834,0
                -56.243068100892,-24.5629278009733,0
                -56.2429147010182,-24.5623817009487,0
                -56.2425565004587,-24.5624331004956,0
              </coordinates>
            </LinearRing>
          </outerBoundaryIs>
        </Polygon>
      </Placemark>
      <Placemark id="Distrito_YRYBUCUA.6">
        <ExtendedData>
          <SchemaData schemaUrl="#Distrito_YRYBUCUA.schema">
            <SimpleData name="Cédula">6754704.00000000000</SimpleData>
            <SimpleData name="Nombres_y_">FAUSTINA VERA GIMENEZ</SimpleData>
            <SimpleData name="Sexo">Mujer</SimpleData>
            <SimpleData name="Cambio_de_">NO</SimpleData>
            <SimpleData name="Titular_se">NO</SimpleData>
            <SimpleData name="ci_UNIF">6754704.00000000000</SimpleData>
            <SimpleData name="Situación">NO</SimpleData>
            <SimpleData name="Comunidad">Ind?gena</SimpleData>
            <SimpleData name="Modelo">Modelo 1</SimpleData>
            <SimpleData name="Departamen">SAN PEDRO</SimpleData>
            <SimpleData name="Distrito">YRYBUCUA</SimpleData>
            <SimpleData name="Localidad">COM INDIG Y APY SANTA ISABEL</SimpleData>
            <SimpleData name="Teléfono">0975382621</SimpleData>
            <SimpleData name="Vivienda_L">-24.50178580000</SimpleData>
            <SimpleData name="Vivienda_1">-56.12056760000</SimpleData>
            <SimpleData name="Situaci_1">Pol?gono</SimpleData>
            <SimpleData name="Plantado_f">2025/08/08</SimpleData>
            <SimpleData name="año_usar">2025/08/08</SimpleData>
            <SimpleData name="año">2025.00000000000</SimpleData>
            <SimpleData name="mes">agosto</SimpleData>
            <SimpleData name="Grupo_de_p">Lote 1-P1</SimpleData>
            <SimpleData name="ETAPA_FAO">Mantenimiento A?o 1.1</SimpleData>
            <SimpleData name="Estado_del">Activo</SimpleData>
            <SimpleData name="Empresa">Hyh Consultores SRL</SimpleData>
            <SimpleData name="Lote">Lote 1</SimpleData>
            <SimpleData name="X">-56.12151814000</SimpleData>
            <SimpleData name="Y">-24.50079424000</SimpleData>
            <SimpleData name="Sup_SIG">0.91560220513</SimpleData>
          </SchemaData>
        </ExtendedData>
        <Polygon>
          <outerBoundaryIs>
            <LinearRing>
              <coordinates>
                -56.1207970001318,-24.5014319000039,0
                -56.1211402996297,-24.5016637998661,0
                -56.1222279005929,-24.500250600425,0
                -56.1218220009224,-24.4999725996597,0
                -56.1211821005383,-24.5007919998199,0
                -56.1212520995472,-24.5008742000509,0
                -56.1207970001318,-24.5014319000039,0
              </coordinates>
            </LinearRing>
          </outerBoundaryIs>
        </Polygon>
      </Placemark>
      <Placemark id="Distrito_YRYBUCUA.7">
        <ExtendedData>
          <SchemaData schemaUrl="#Distrito_YRYBUCUA.schema">
            <SimpleData name="Cédula">6548778.00000000000</SimpleData>
            <SimpleData name="Nombres_y_">BONIFACIA CASIANO AMADEO</SimpleData>
            <SimpleData name="Sexo">Mujer</SimpleData>
            <SimpleData name="Cambio_de_">NO</SimpleData>
            <SimpleData name="Titular_se">NO</SimpleData>
            <SimpleData name="ci_UNIF">6548778.00000000000</SimpleData>
            <SimpleData name="Situación">NO</SimpleData>
            <SimpleData name="Comunidad">Ind?gena</SimpleData>
            <SimpleData name="Modelo">Modelo 2</SimpleData>
            <SimpleData name="Departamen">SAN PEDRO</SimpleData>
            <SimpleData name="Distrito">YRYBUCUA</SimpleData>
            <SimpleData name="Localidad">COM INDIG PALOMITA - 1</SimpleData>
            <SimpleData name="Teléfono">0981341692</SimpleData>
            <SimpleData name="Vivienda_L">-24.55951760000</SimpleData>
            <SimpleData name="Vivienda_1">-56.24302780000</SimpleData>
            <SimpleData name="Situaci_1">Pol?gono</SimpleData>
            <SimpleData name="Plantado_f">2025/08/21</SimpleData>
            <SimpleData name="año_usar">2025/08/21</SimpleData>
            <SimpleData name="año">2025.00000000000</SimpleData>
            <SimpleData name="mes">agosto</SimpleData>
            <SimpleData name="Grupo_de_p">Lote 1-P1</SimpleData>
            <SimpleData name="ETAPA_FAO">Mantenimiento A?o 1.1</SimpleData>
            <SimpleData name="Estado_del">Activo</SimpleData>
            <SimpleData name="Empresa">Hyh Consultores SRL</SimpleData>
            <SimpleData name="Lote">Lote 1</SimpleData>
            <SimpleData name="X">-56.23386479000</SimpleData>
            <SimpleData name="Y">-24.55635177000</SimpleData>
            <SimpleData name="Sup_SIG">0.92580740914</SimpleData>
          </SchemaData>
        </ExtendedData>
        <MultiGeometry>
          <Polygon>
            <outerBoundaryIs>
              <LinearRing>
                <coordinates>
                  -56.2348936003486,-24.5590194002968,0
                  -56.2349683014807,-24.5594817000514,0
                  -56.2357213000312,-24.5592651996947,0
                  -56.2354397992378,-24.5587600012337,0
                  -56.2348936003486,-24.5590194002968,0
                </coordinates>
              </LinearRing>
            </outerBoundaryIs>
          </Polygon>
          <Polygon>
            <outerBoundaryIs>
              <LinearRing>
                <coordinates>
                  -56.2334045996161,-24.5562150002269,0
                  -56.233665001491,-24.556806800848,0
                  -56.2343306997443,-24.5564729005909,0
                  -56.2340633005421,-24.5559049997006,0
                  -56.2334045996161,-24.5562150002269,0
                </coordinates>
              </LinearRing>
            </outerBoundaryIs>
          </Polygon>
        </MultiGeometry>
      </Placemark>
      <Placemark id="Distrito_YRYBUCUA.8">
        <ExtendedData>
          <SchemaData schemaUrl="#Distrito_YRYBUCUA.schema">
            <SimpleData name="Cédula">6275056.00000000000</SimpleData>
            <SimpleData name="Nombres_y_">SINTIA VERA ESCOBAR</SimpleData>
            <SimpleData name="Sexo">Mujer</SimpleData>
            <SimpleData name="Cambio_de_">NO</SimpleData>
            <SimpleData name="Titular_se">NO</SimpleData>
            <SimpleData name="ci_UNIF">6275056.00000000000</SimpleData>
            <SimpleData name="Situación">NO</SimpleData>
            <SimpleData name="Comunidad">Ind?gena</SimpleData>
            <SimpleData name="Modelo">Modelo 2</SimpleData>
            <SimpleData name="Departamen">SAN PEDRO</SimpleData>
            <SimpleData name="Distrito">YRYBUCUA</SimpleData>
            <SimpleData name="Localidad">COM INDIG Y APY SANTA ISABEL</SimpleData>
            <SimpleData name="Teléfono">0986920904</SimpleData>
            <SimpleData name="Vivienda_L">-24.50215360000</SimpleData>
            <SimpleData name="Vivienda_1">-56.12120140000</SimpleData>
            <SimpleData name="Situaci_1">Pol?gono</SimpleData>
            <SimpleData name="Plantado_f">2025/08/08</SimpleData>
            <SimpleData name="año_usar">2025/08/08</SimpleData>
            <SimpleData name="año">2025.00000000000</SimpleData>
            <SimpleData name="mes">agosto</SimpleData>
            <SimpleData name="Grupo_de_p">Lote 1-P1</SimpleData>
            <SimpleData name="ETAPA_FAO">Mantenimiento A?o 1.1</SimpleData>
            <SimpleData name="Estado_del">Activo</SimpleData>
            <SimpleData name="Empresa">Hyh Consultores SRL</SimpleData>
            <SimpleData name="Lote">Lote 1</SimpleData>
            <SimpleData name="X">-56.12184897000</SimpleData>
            <SimpleData name="Y">-24.50107675000</SimpleData>
            <SimpleData name="Sup_SIG">0.82234124726</SimpleData>
          </SchemaData>
        </ExtendedData>
        <Polygon>
          <outerBoundaryIs>
            <LinearRing>
              <coordinates>
                -56.1211098003591,-24.5017107993107,0
                -56.1214161995357,-24.5019133000974,0
                -56.1225700013103,-24.5005249014446,0
                -56.1222354289962,-24.5002440732423,0
                -56.1211098003591,-24.5017107993107,0
              </coordinates>
            </LinearRing>
          </outerBoundaryIs>
        </Polygon>
      </Placemark>
      <Placemark id="Distrito_YRYBUCUA.9">
        <ExtendedData>
          <SchemaData schemaUrl="#Distrito_YRYBUCUA.schema">
            <SimpleData name="Cédula">5316172.00000000000</SimpleData>
            <SimpleData name="Nombres_y_">HERMELINDA GUIMARAE BENITEZ</SimpleData>
            <SimpleData name="Sexo">Mujer</SimpleData>
            <SimpleData name="Cambio_de_">NO</SimpleData>
            <SimpleData name="Titular_se">NO</SimpleData>
            <SimpleData name="ci_UNIF">5316172.00000000000</SimpleData>
            <SimpleData name="Situación">NO</SimpleData>
            <SimpleData name="Comunidad">Ind?gena</SimpleData>
            <SimpleData name="Modelo">Modelo 4</SimpleData>
            <SimpleData name="Departamen">SAN PEDRO</SimpleData>
            <SimpleData name="Distrito">YRYBUCUA</SimpleData>
            <SimpleData name="Localidad">COM INDIG Y APY MBURUCUYA</SimpleData>
            <SimpleData name="Teléfono">0982059663</SimpleData>
            <SimpleData name="Vivienda_L">-24.52026770000</SimpleData>
            <SimpleData name="Vivienda_1">-56.11683300000</SimpleData>
            <SimpleData name="Situaci_1">Pol?gono</SimpleData>
            <SimpleData name="Plantado_f">2025/02/05</SimpleData>
            <SimpleData name="año_usar">2025/02/05</SimpleData>
            <SimpleData name="año">2025.00000000000</SimpleData>
            <SimpleData name="mes">febrero</SimpleData>
            <SimpleData name="Grupo_de_p">Lote 1-G5</SimpleData>
            <SimpleData name="ETAPA_FAO">Mantenimiento A?o 1.2</SimpleData>
            <SimpleData name="Estado_del">Activo</SimpleData>
            <SimpleData name="Empresa">Hyh Consultores SRL</SimpleData>
            <SimpleData name="Lote">Lote 1</SimpleData>
            <SimpleData name="X">-56.11562917000</SimpleData>
            <SimpleData name="Y">-24.51456043000</SimpleData>
            <SimpleData name="Sup_SIG">0.74978413523</SimpleData>
          </SchemaData>
        </ExtendedData>
        <Polygon>
          <outerBoundaryIs>
            <LinearRing>
              <coordinates>
                -56.115442800886,-24.5150798998893,0
                -56.1157206994957,-24.5151079016462,0
                -56.1157349999777,-24.5148737004899,0
                -56.1161316005268,-24.5147951009422,0
                -56.1159558992885,-24.5141043000262,0
                -56.1159062998993,-24.5140985999225,0
                -56.1156462996137,-24.514125199907,0
                -56.1155831996213,-24.514133400522,0
                -56.115393899415,-24.5141888998538,0
                -56.1150909997587,-24.5143972006127,0
                -56.115442800886,-24.5150798998893,0
              </coordinates>
            </LinearRing>
          </outerBoundaryIs>
        </Polygon>
      </Placemark>
      <Placemark id="Distrito_YRYBUCUA.10">
        <ExtendedData>
          <SchemaData schemaUrl="#Distrito_YRYBUCUA.schema">
            <SimpleData name="Cédula">4138655.00000000000</SimpleData>
            <SimpleData name="Nombres_y_">ASUNCIONA ALEGRE</SimpleData>
            <SimpleData name="Sexo">Mujer</SimpleData>
            <SimpleData name="Cambio_de_">NO</SimpleData>
            <SimpleData name="Titular_se">NO</SimpleData>
            <SimpleData name="ci_UNIF">4138655.00000000000</SimpleData>
            <SimpleData name="Situación">NO</SimpleData>
            <SimpleData name="Comunidad">Ind?gena</SimpleData>
            <SimpleData name="Modelo">Modelo 1</SimpleData>
            <SimpleData name="Departamen">SAN PEDRO</SimpleData>
            <SimpleData name="Distrito">YRYBUCUA</SimpleData>
            <SimpleData name="Localidad">COM INDIG Y APY SANTA ISABEL</SimpleData>
            <SimpleData name="Teléfono">0983089949</SimpleData>
            <SimpleData name="Vivienda_L">-24.50143790000</SimpleData>
            <SimpleData name="Vivienda_1">-56.11782460000</SimpleData>
            <SimpleData name="Situaci_1">Pol?gono</SimpleData>
            <SimpleData name="Plantado_f">2025/08/08</SimpleData>
            <SimpleData name="año_usar">2025/08/08</SimpleData>
            <SimpleData name="año">2025.00000000000</SimpleData>
            <SimpleData name="mes">agosto</SimpleData>
            <SimpleData name="Grupo_de_p">Lote 1-P1</SimpleData>
            <SimpleData name="ETAPA_FAO">Mantenimiento A?o 1.1</SimpleData>
            <SimpleData name="Estado_del">Activo</SimpleData>
            <SimpleData name="Empresa">Hyh Consultores SRL</SimpleData>
            <SimpleData name="Lote">Lote 1</SimpleData>
            <SimpleData name="X">-56.11616366000</SimpleData>
            <SimpleData name="Y">-24.50302447000</SimpleData>
            <SimpleData name="Sup_SIG">0.94477332975</SimpleData>
          </SchemaData>
        </ExtendedData>
        <MultiGeometry>
          <Polygon>
            <outerBoundaryIs>
              <LinearRing>
                <coordinates>
                  -56.1152922998728,-24.5035827006295,0
                  -56.1156667000755,-24.5039532995636,0
                  -56.1165869995545,-24.5029217993081,0
                  -56.1161800000783,-24.5025882997939,0
                  -56.1152922998728,-24.5035827006295,0
                </coordinates>
              </LinearRing>
            </outerBoundaryIs>
          </Polygon>
          <Polygon>
            <outerBoundaryIs>
              <LinearRing>
                <coordinates>
                  -56.1171739005293,-24.5017020995616,0
                  -56.1174432003628,-24.5019635000231,0
                  -56.1176908999834,-24.5016246016082,0
                  -56.1175639004661,-24.5014500011431,0
                  -56.1171739005293,-24.5017020995616,0
                </coordinates>
              </LinearRing>
            </outerBoundaryIs>
          </Polygon>
        </MultiGeometry>
      </Placemark>
      <Placemark id="Distrito_YRYBUCUA.11">
        <ExtendedData>
          <SchemaData schemaUrl="#Distrito_YRYBUCUA.schema">
            <SimpleData name="Cédula">7161105.00000000000</SimpleData>
            <SimpleData name="Nombres_y_">LEIDI BENITEZ DUARTE</SimpleData>
            <SimpleData name="Sexo">Mujer</SimpleData>
            <SimpleData name="Cambio_de_">NO</SimpleData>
            <SimpleData name="Titular_se">NO</SimpleData>
            <SimpleData name="ci_UNIF">7161105.00000000000</SimpleData>
            <SimpleData name="Situación">NO</SimpleData>
            <SimpleData name="Comunidad">Ind?gena</SimpleData>
            <SimpleData name="Modelo">Modelo 2</SimpleData>
            <SimpleData name="Departamen">SAN PEDRO</SimpleData>
            <SimpleData name="Distrito">YRYBUCUA</SimpleData>
            <SimpleData name="Localidad">COM INDIG Y APY SANTA ISABEL</SimpleData>
            <SimpleData name="Vivienda_L">-24.51285000000</SimpleData>
            <SimpleData name="Vivienda_1">-56.13018000000</SimpleData>
            <SimpleData name="Situaci_1">Pol?gono</SimpleData>
            <SimpleData name="Plantado_f">1899/12/30</SimpleData>
            <SimpleData name="año_usar">1899/12/30</SimpleData>
            <SimpleData name="año">1900.00000000000</SimpleData>
            <SimpleData name="mes">enero</SimpleData>
            <SimpleData name="Grupo_de_p">Lote 1-P1</SimpleData>
            <SimpleData name="ETAPA_FAO">Mantenimiento A?o 1.1</SimpleData>
            <SimpleData name="Estado_del">Activo</SimpleData>
            <SimpleData name="Empresa">Hyh Consultores SRL</SimpleData>
            <SimpleData name="Lote">Lote 1</SimpleData>
            <SimpleData name="X">-56.13174498000</SimpleData>
            <SimpleData name="Y">-24.51279399000</SimpleData>
            <SimpleData name="Sup_SIG">0.82302414618</SimpleData>
          </SchemaData>
        </ExtendedData>
        <Polygon>
          <outerBoundaryIs>
            <LinearRing>
              <coordinates>
                -56.1312367013962,-24.5128067003167,0
                -56.1316900001543,-24.5135800004821,0
                -56.1318749985005,-24.5134667016631,0
                -56.1317534001773,-24.5132041006125,0
                -56.1322733009253,-24.5127867005815,0
                -56.1318619001378,-24.5120584006945,0
                -56.1312367013962,-24.5128067003167,0
              </coordinates>
            </LinearRing>
          </outerBoundaryIs>
        </Polygon>
      </Placemark>
      <Placemark id="Distrito_YRYBUCUA.12">
        <ExtendedData>
          <SchemaData schemaUrl="#Distrito_YRYBUCUA.schema">
            <SimpleData name="Cédula">5316155.00000000000</SimpleData>
            <SimpleData name="Nombres_y_">NILDA VERA OVIEDO</SimpleData>
            <SimpleData name="Sexo">Mujer</SimpleData>
            <SimpleData name="Cambio_de_">NO</SimpleData>
            <SimpleData name="Titular_se">NO</SimpleData>
            <SimpleData name="ci_UNIF">5316155.00000000000</SimpleData>
            <SimpleData name="Situación">NO</SimpleData>
            <SimpleData name="Comunidad">Ind?gena</SimpleData>
            <SimpleData name="Modelo">Modelo 2</SimpleData>
            <SimpleData name="Departamen">SAN PEDRO</SimpleData>
            <SimpleData name="Distrito">YRYBUCUA</SimpleData>
            <SimpleData name="Localidad">COM INDIG Y APY SANTA ISABEL</SimpleData>
            <SimpleData name="Teléfono">0983920702</SimpleData>
            <SimpleData name="Vivienda_L">-24.49459090000</SimpleData>
            <SimpleData name="Vivienda_1">-56.11658840000</SimpleData>
            <SimpleData name="Situaci_1">Pol?gono</SimpleData>
            <SimpleData name="Plantado_f">2025/08/06</SimpleData>
            <SimpleData name="año_usar">2025/08/06</SimpleData>
            <SimpleData name="año">2025.00000000000</SimpleData>
            <SimpleData name="mes">agosto</SimpleData>
            <SimpleData name="Grupo_de_p">Lote 1-P1</SimpleData>
            <SimpleData name="ETAPA_FAO">Mantenimiento A?o 1.1</SimpleData>
            <SimpleData name="Estado_del">Activo</SimpleData>
            <SimpleData name="Empresa">Hyh Consultores SRL</SimpleData>
            <SimpleData name="Lote">Lote 1</SimpleData>
            <SimpleData name="X">-56.12030745000</SimpleData>
            <SimpleData name="Y">-24.49515040000</SimpleData>
            <SimpleData name="Sup_SIG">0.89391143434</SimpleData>
          </SchemaData>
        </ExtendedData>
        <MultiGeometry>
          <Polygon>
            <outerBoundaryIs>
              <LinearRing>
                <coordinates>
                  -56.1194802995134,-24.4950253999151,0
                  -56.120964500682,-24.4955124010929,0
                  -56.1210898999834,-24.49524310058,0
                  -56.1196421998042,-24.4948004000995,0
                  -56.1194802995134,-24.4950253999151,0
                </coordinates>
              </LinearRing>
            </outerBoundaryIs>
          </Polygon>
          <Polygon>
            <outerBoundaryIs>
              <LinearRing>
                <coordinates>
                  -56.1183921999029,-24.4941057999258,0
                  -56.1187853992962,-24.4947584007161,0
                  -56.1191683009212,-24.4945433001926,0
                  -56.1188632997539,-24.4938550007202,0
                  -56.1183921999029,-24.4941057999258,0
                </coordinates>
              </LinearRing>
            </outerBoundaryIs>
          </Polygon>
        </MultiGeometry>
      </Placemark>
      <Placemark id="Distrito_YRYBUCUA.13">
        <ExtendedData>
          <SchemaData schemaUrl="#Distrito_YRYBUCUA.schema">
            <SimpleData name="Cédula">6356737.00000000000</SimpleData>
            <SimpleData name="Nombres_y_">WENEL FRIDA VILLALBA ENCISO</SimpleData>
            <SimpleData name="Sexo">Mujer</SimpleData>
            <SimpleData name="Cambio_de_">NO</SimpleData>
            <SimpleData name="Titular_se">NO</SimpleData>
            <SimpleData name="ci_UNIF">6356737.00000000000</SimpleData>
            <SimpleData name="Situación">NO</SimpleData>
            <SimpleData name="Comunidad">Ind?gena</SimpleData>
            <SimpleData name="Modelo">Modelo 1</SimpleData>
            <SimpleData name="Departamen">SAN PEDRO</SimpleData>
            <SimpleData name="Distrito">YRYBUCUA</SimpleData>
            <SimpleData name="Localidad">COM INDIG Y APY SANTA ISABEL</SimpleData>
            <SimpleData name="Teléfono">0974579312</SimpleData>
            <SimpleData name="Vivienda_L">-24.49238940000</SimpleData>
            <SimpleData name="Vivienda_1">-56.11184990000</SimpleData>
            <SimpleData name="Situaci_1">Pol?gono</SimpleData>
            <SimpleData name="Plantado_f">2025/08/06</SimpleData>
            <SimpleData name="año_usar">2025/08/06</SimpleData>
            <SimpleData name="año">2025.00000000000</SimpleData>
            <SimpleData name="mes">agosto</SimpleData>
            <SimpleData name="Grupo_de_p">Lote 1-P1</SimpleData>
            <SimpleData name="ETAPA_FAO">Mantenimiento A?o 1.1</SimpleData>
            <SimpleData name="Estado_del">Activo</SimpleData>
            <SimpleData name="Empresa">Hyh Consultores SRL</SimpleData>
            <SimpleData name="Lote">Lote 1</SimpleData>
            <SimpleData name="X">-56.11180684000</SimpleData>
            <SimpleData name="Y">-24.49156722000</SimpleData>
            <SimpleData name="Sup_SIG">0.86251784855</SimpleData>
          </SchemaData>
        </ExtendedData>
        <Polygon>
          <outerBoundaryIs>
            <LinearRing>
              <coordinates>
                -56.1114199995867,-24.4918153995744,0
                -56.1119143016842,-24.4921665005415,0
                -56.1125042995731,-24.4916331995653,0
                -56.111311699558,-24.4908499006641,0
                -56.1114199995867,-24.4918153995744,0
              </coordinates>
            </LinearRing>
          </outerBoundaryIs>
        </Polygon>
      </Placemark>
    </Document>
  </Document>
</kml>
