<?xml version="1.0" encoding="UTF-8"?>
<kml xmlns="http://www.opengis.net/kml/2.2">
  <Document id="root_doc">
    <Schema id="Distrito_AZOTEY.schema">
      <SimpleField name="Cédula" type="double"/>
      <SimpleField name="Nombres_y_" type="string"/>
      <SimpleField name="Sexo" type="string"/>
      <SimpleField name="Cambio_de_" type="string"/>
      <SimpleField name="Titular_se" type="string"/>
      <SimpleField name="Cédula_Ti" type="string"/>
      <SimpleField name="ci_UNIF" type="double"/>
      <SimpleField name="Situación" type="string"/>
      <SimpleField name="Comunidad" type="string"/>
      <SimpleField name="Modelo_imp" type="string"/>
      <SimpleField name="Departamen" type="string"/>
      <SimpleField name="Distrito" type="string"/>
      <SimpleField name="Localidad" type="string"/>
      <SimpleField name="Localidad_" type="string"/>
      <SimpleField name="Teléfono" type="string"/>
      <SimpleField name="Vivienda_L" type="double"/>
      <SimpleField name="Vivienda_1" type="double"/>
      <SimpleField name="Superficie" type="double"/>
      <SimpleField name="Fecha_Plan" type="string"/>
      <SimpleField name="Jornales" type="double"/>
      <SimpleField name="Monto" type="double"/>
      <SimpleField name="Grupo_de_p" type="string"/>
      <SimpleField name="ETAPA_FAO" type="string"/>
      <SimpleField name="Estado_del" type="string"/>
      <SimpleField name="Empresa" type="string"/>
      <SimpleField name="Lote" type="string"/>
      <SimpleField name="X" type="double"/>
      <SimpleField name="Y" type="double"/>
      <SimpleField name="Sup_SIG" type="double"/>
      <SimpleField name="cedula" type="string"/>
      <SimpleField name="Shape_Leng" type="double"/>
      <SimpleField name="Shape_Area" type="double"/>
    </Schema>
    <Document id="Distrito_AZOTEY">
      <name>Distrito_AZOTEY</name>
      <Placemark id="Distrito_AZOTEY.1">
        <ExtendedData>
          <SchemaData schemaUrl="#Distrito_AZOTEY.schema">
            <SimpleData name="Cédula">7014363.00000000000</SimpleData>
            <SimpleData name="Nombres_y_">MARILDA BEATRIZ BENITEZ BRITEZ</SimpleData>
            <SimpleData name="Sexo">Mujer</SimpleData>
            <SimpleData name="Cambio_de_">NO</SimpleData>
            <SimpleData name="Titular_se">NO</SimpleData>
            <SimpleData name="Cédula_Ti">NO</SimpleData>
            <SimpleData name="ci_UNIF">7014363.00000000000</SimpleData>
            <SimpleData name="Situación">NO</SimpleData>
            <SimpleData name="Comunidad">Ind?gena</SimpleData>
            <SimpleData name="Modelo_imp">Modelo 5</SimpleData>
            <SimpleData name="Departamen">CONCEPCION</SimpleData>
            <SimpleData name="Distrito">AZOTEY</SimpleData>
            <SimpleData name="Localidad">COM INDIG VYA PAVE-AZOTEY</SimpleData>
            <SimpleData name="Localidad_"><![CDATA[VY'A PAV?]]></SimpleData>
            <SimpleData name="Teléfono">0975268622</SimpleData>
            <SimpleData name="Vivienda_L">-23.35638920000</SimpleData>
            <SimpleData name="Vivienda_1">-56.50467990000</SimpleData>
            <SimpleData name="Superficie">0.70000000000</SimpleData>
            <SimpleData name="Fecha_Plan">2025/12/05</SimpleData>
            <SimpleData name="Jornales">0.00000000000</SimpleData>
            <SimpleData name="Monto">0.00000000000</SimpleData>
            <SimpleData name="Grupo_de_p">J-P3-XX-XX-XX</SimpleData>
            <SimpleData name="ETAPA_FAO">Mantenimiento A?o 1.1</SimpleData>
            <SimpleData name="Estado_del">Activo</SimpleData>
            <SimpleData name="Empresa">Emilio Sol?s Grance</SimpleData>
            <SimpleData name="Lote">J</SimpleData>
            <SimpleData name="X">-56.50453821000</SimpleData>
            <SimpleData name="Y">-23.35504550000</SimpleData>
            <SimpleData name="Sup_SIG">0.70115498332</SimpleData>
            <SimpleData name="cedula">7014363</SimpleData>
            <SimpleData name="Shape_Leng">369.95314237300</SimpleData>
            <SimpleData name="Shape_Area">7011.54983318000</SimpleData>
          </SchemaData>
        </ExtendedData>
        <Point>
          <coordinates>
            -56.5045382123534,-23.355045502319,0
          </coordinates>
        </Point>
      </Placemark>
      <Placemark id="Distrito_AZOTEY.2">
        <ExtendedData>
          <SchemaData schemaUrl="#Distrito_AZOTEY.schema">
            <SimpleData name="Cédula">7419849.00000000000</SimpleData>
            <SimpleData name="Nombres_y_">EVER HERNAN ORTELLADO FERREIRA</SimpleData>
            <SimpleData name="Sexo">Hombre</SimpleData>
            <SimpleData name="Cambio_de_">NO</SimpleData>
            <SimpleData name="Titular_se">NO</SimpleData>
            <SimpleData name="Cédula_Ti">NO</SimpleData>
            <SimpleData name="ci_UNIF">7419849.00000000000</SimpleData>
            <SimpleData name="Situación">NO</SimpleData>
            <SimpleData name="Comunidad">Ind?gena</SimpleData>
            <SimpleData name="Modelo_imp">Modelo 1</SimpleData>
            <SimpleData name="Departamen">CONCEPCION</SimpleData>
            <SimpleData name="Distrito">AZOTEY</SimpleData>
            <SimpleData name="Localidad">COM INDIG VYA PAVE-AZOTEY</SimpleData>
            <SimpleData name="Localidad_"><![CDATA[VY'A PAV?]]></SimpleData>
            <SimpleData name="Teléfono">0976410036</SimpleData>
            <SimpleData name="Vivienda_L">-23.35814330000</SimpleData>
            <SimpleData name="Vivienda_1">-56.50395610000</SimpleData>
            <SimpleData name="Superficie">0.80000000000</SimpleData>
            <SimpleData name="Fecha_Plan">2025/12/05</SimpleData>
            <SimpleData name="Jornales">0.00000000000</SimpleData>
            <SimpleData name="Monto">0.00000000000</SimpleData>
            <SimpleData name="Grupo_de_p">J-P3-XX-XX-XX</SimpleData>
            <SimpleData name="ETAPA_FAO">Mantenimiento A?o 1.1</SimpleData>
            <SimpleData name="Estado_del">Activo</SimpleData>
            <SimpleData name="Empresa">Emilio Sol?s Grance</SimpleData>
            <SimpleData name="Lote">J</SimpleData>
            <SimpleData name="X">-56.50380303000</SimpleData>
            <SimpleData name="Y">-23.35437246000</SimpleData>
            <SimpleData name="Sup_SIG">0.81189748987</SimpleData>
            <SimpleData name="cedula">7419849</SimpleData>
            <SimpleData name="Shape_Leng">383.71551195400</SimpleData>
            <SimpleData name="Shape_Area">8118.97489866000</SimpleData>
          </SchemaData>
        </ExtendedData>
        <Point>
          <coordinates>
            -56.5038030265646,-23.3543724621146,0
          </coordinates>
        </Point>
      </Placemark>
      <Placemark id="Distrito_AZOTEY.3">
        <ExtendedData>
          <SchemaData schemaUrl="#Distrito_AZOTEY.schema">
            <SimpleData name="Cédula">4124059.00000000000</SimpleData>
            <SimpleData name="Nombres_y_">ALICIA SILVA GIMENEZ</SimpleData>
            <SimpleData name="Sexo">Mujer</SimpleData>
            <SimpleData name="Cambio_de_">NO</SimpleData>
            <SimpleData name="Titular_se">NO</SimpleData>
            <SimpleData name="Cédula_Ti">NO</SimpleData>
            <SimpleData name="ci_UNIF">4124059.00000000000</SimpleData>
            <SimpleData name="Situación">NO</SimpleData>
            <SimpleData name="Comunidad">Ind?gena</SimpleData>
            <SimpleData name="Modelo_imp">Modelo 1</SimpleData>
            <SimpleData name="Departamen">CONCEPCION</SimpleData>
            <SimpleData name="Distrito">AZOTEY</SimpleData>
            <SimpleData name="Localidad">COM INDIG VYA PAVE-AZOTEY</SimpleData>
            <SimpleData name="Localidad_"><![CDATA[VY'A PAV?]]></SimpleData>
            <SimpleData name="Teléfono">0983949795</SimpleData>
            <SimpleData name="Vivienda_L">-23.35823090000</SimpleData>
            <SimpleData name="Vivienda_1">-56.50328170000</SimpleData>
            <SimpleData name="Superficie">0.80000000000</SimpleData>
            <SimpleData name="Fecha_Plan">2025/12/05</SimpleData>
            <SimpleData name="Jornales">0.00000000000</SimpleData>
            <SimpleData name="Monto">0.00000000000</SimpleData>
            <SimpleData name="Grupo_de_p">J-P2-XX-XX-XX</SimpleData>
            <SimpleData name="ETAPA_FAO">Mantenimiento A?o 1.1</SimpleData>
            <SimpleData name="Estado_del">Activo</SimpleData>
            <SimpleData name="Empresa">Emilio Sol?s Grance</SimpleData>
            <SimpleData name="Lote">J</SimpleData>
            <SimpleData name="X">-56.50404963000</SimpleData>
            <SimpleData name="Y">-23.35654440000</SimpleData>
            <SimpleData name="Sup_SIG">0.85348118757</SimpleData>
            <SimpleData name="cedula">4124059</SimpleData>
            <SimpleData name="Shape_Leng">410.52402222400</SimpleData>
            <SimpleData name="Shape_Area">8534.81187572000</SimpleData>
          </SchemaData>
        </ExtendedData>
        <Point>
          <coordinates>
            -56.5040496308955,-23.3565444048561,0
          </coordinates>
        </Point>
      </Placemark>
      <Placemark id="Distrito_AZOTEY.4">
        <ExtendedData>
          <SchemaData schemaUrl="#Distrito_AZOTEY.schema">
            <SimpleData name="Cédula">6915925.00000000000</SimpleData>
            <SimpleData name="Nombres_y_">ROCIO SOLEDAD VALIENTE SILVA</SimpleData>
            <SimpleData name="Sexo">Mujer</SimpleData>
            <SimpleData name="Cambio_de_">NO</SimpleData>
            <SimpleData name="Titular_se">NO</SimpleData>
            <SimpleData name="Cédula_Ti">NO</SimpleData>
            <SimpleData name="ci_UNIF">6915925.00000000000</SimpleData>
            <SimpleData name="Situación">NO</SimpleData>
            <SimpleData name="Comunidad">Ind?gena</SimpleData>
            <SimpleData name="Modelo_imp">Modelo 1</SimpleData>
            <SimpleData name="Departamen">CONCEPCION</SimpleData>
            <SimpleData name="Distrito">AZOTEY</SimpleData>
            <SimpleData name="Localidad">COM INDIG VYA PAVE-AZOTEY</SimpleData>
            <SimpleData name="Localidad_"><![CDATA[VY'A PAV?]]></SimpleData>
            <SimpleData name="Teléfono">0987101269</SimpleData>
            <SimpleData name="Vivienda_L">-23.35828260000</SimpleData>
            <SimpleData name="Vivienda_1">-56.50343570000</SimpleData>
            <SimpleData name="Superficie">0.80000000000</SimpleData>
            <SimpleData name="Fecha_Plan">2025/12/05</SimpleData>
            <SimpleData name="Jornales">0.00000000000</SimpleData>
            <SimpleData name="Monto">0.00000000000</SimpleData>
            <SimpleData name="Grupo_de_p">J-P1-XX-XX-XX</SimpleData>
            <SimpleData name="ETAPA_FAO">Mantenimiento A?o 1.1</SimpleData>
            <SimpleData name="Estado_del">Activo</SimpleData>
            <SimpleData name="Empresa">Emilio Sol?s Grance</SimpleData>
            <SimpleData name="Lote">J</SimpleData>
            <SimpleData name="X">-56.50390556000</SimpleData>
            <SimpleData name="Y">-23.35532589000</SimpleData>
            <SimpleData name="Sup_SIG">0.88095888964</SimpleData>
            <SimpleData name="cedula">6915925</SimpleData>
            <SimpleData name="Shape_Leng">401.12588214600</SimpleData>
            <SimpleData name="Shape_Area">8809.58889637000</SimpleData>
          </SchemaData>
        </ExtendedData>
        <Point>
          <coordinates>
            -56.5039055601907,-23.35532588945,0
          </coordinates>
        </Point>
      </Placemark>
    </Document>
  </Document>
</kml>
