<?xml version="1.0" encoding="UTF-8"?>
<kml xmlns="http://www.opengis.net/kml/2.2">
  <Document id="root_doc">
    <Schema id="Distrito_REPATRIACION.schema">
      <SimpleField name="Cédula" type="double"/>
      <SimpleField name="Nombres_y_" type="string"/>
      <SimpleField name="Sexo" type="string"/>
      <SimpleField name="Cambio_de_" type="string"/>
      <SimpleField name="Titular_se" type="string"/>
      <SimpleField name="Cédula_Ti" type="string"/>
      <SimpleField name="ci_UNIF" type="double"/>
      <SimpleField name="Situación" type="string"/>
      <SimpleField name="Comunidad" type="string"/>
      <SimpleField name="Modelo" type="string"/>
      <SimpleField name="Departamen" type="string"/>
      <SimpleField name="Distrito" type="string"/>
      <SimpleField name="Localidad" type="string"/>
      <SimpleField name="Teléfono" type="string"/>
      <SimpleField name="Vivienda_L" type="double"/>
      <SimpleField name="Vivienda_1" type="double"/>
      <SimpleField name="Situaci_1" type="string"/>
      <SimpleField name="Plantado_f" type="string"/>
      <SimpleField name="año_usar" type="string"/>
      <SimpleField name="año" type="double"/>
      <SimpleField name="mes" type="string"/>
      <SimpleField name="Grupo_de_p" type="string"/>
      <SimpleField name="ETAPA_FAO" type="string"/>
      <SimpleField name="Estado_del" type="string"/>
      <SimpleField name="Empresa" type="string"/>
      <SimpleField name="Lote" type="string"/>
      <SimpleField name="X" type="double"/>
      <SimpleField name="Y" type="double"/>
      <SimpleField name="Sup_SIG" type="double"/>
    </Schema>
    <Document id="Distrito_REPATRIACION">
      <name>Distrito_REPATRIACION</name>
      <Placemark id="Distrito_REPATRIACION.1">
        <ExtendedData>
          <SchemaData schemaUrl="#Distrito_REPATRIACION.schema">
            <SimpleData name="Cédula">7539977.00000000000</SimpleData>
            <SimpleData name="Nombres_y_">IRMA DUARTE ROMERO</SimpleData>
            <SimpleData name="Sexo">Mujer</SimpleData>
            <SimpleData name="Cambio_de_">NO</SimpleData>
            <SimpleData name="Titular_se">NO</SimpleData>
            <SimpleData name="ci_UNIF">7539977.00000000000</SimpleData>
            <SimpleData name="Situación">NO</SimpleData>
            <SimpleData name="Comunidad">Ind?gena</SimpleData>
            <SimpleData name="Modelo">Modelo 5</SimpleData>
            <SimpleData name="Departamen">CAAGUAZU</SimpleData>
            <SimpleData name="Distrito">REPATRIACION</SimpleData>
            <SimpleData name="Localidad">COM INDIG KAATYMI</SimpleData>
            <SimpleData name="Teléfono">ND</SimpleData>
            <SimpleData name="Vivienda_L">-25.66051490000</SimpleData>
            <SimpleData name="Vivienda_1">-55.69294050000</SimpleData>
            <SimpleData name="Situaci_1">Pol?gono</SimpleData>
            <SimpleData name="Plantado_f">2025/09/22</SimpleData>
            <SimpleData name="año_usar">2025/09/22</SimpleData>
            <SimpleData name="año">2025.00000000000</SimpleData>
            <SimpleData name="mes">septiembre</SimpleData>
            <SimpleData name="Grupo_de_p">C-GN</SimpleData>
            <SimpleData name="ETAPA_FAO">Plantaci?n</SimpleData>
            <SimpleData name="Estado_del">Activo</SimpleData>
            <SimpleData name="Empresa">Unique Wood Paraguay SA</SimpleData>
            <SimpleData name="Lote">C</SimpleData>
            <SimpleData name="X">-55.69328161000</SimpleData>
            <SimpleData name="Y">-25.66126537000</SimpleData>
            <SimpleData name="Sup_SIG">0.79829508759</SimpleData>
          </SchemaData>
        </ExtendedData>
        <Point>
          <coordinates>
            -55.6932816086587,-25.6612653736403,0
          </coordinates>
        </Point>
      </Placemark>
    </Document>
  </Document>
</kml>
