<?xml version="1.0" encoding="UTF-8"?>
<kml xmlns="http://www.opengis.net/kml/2.2">
  <Document id="root_doc">
    <Schema id="Distrito_ARROYITO.schema">
      <SimpleField name="Cédula" type="double"/>
      <SimpleField name="Nombres_y_" type="string"/>
      <SimpleField name="Sexo" type="string"/>
      <SimpleField name="Cambio_de_" type="string"/>
      <SimpleField name="Titular_se" type="string"/>
      <SimpleField name="Cédula_Ti" type="string"/>
      <SimpleField name="ci_UNIF" type="double"/>
      <SimpleField name="Situación" type="string"/>
      <SimpleField name="Comunidad" type="string"/>
      <SimpleField name="Modelo_imp" type="string"/>
      <SimpleField name="Departamen" type="string"/>
      <SimpleField name="Distrito" type="string"/>
      <SimpleField name="Localidad" type="string"/>
      <SimpleField name="Localidad_" type="string"/>
      <SimpleField name="Teléfono" type="string"/>
      <SimpleField name="Vivienda_L" type="double"/>
      <SimpleField name="Vivienda_1" type="double"/>
      <SimpleField name="Superficie" type="double"/>
      <SimpleField name="Fecha_Plan" type="string"/>
      <SimpleField name="Jornales" type="double"/>
      <SimpleField name="Monto" type="double"/>
      <SimpleField name="Grupo_de_p" type="string"/>
      <SimpleField name="ETAPA_FAO" type="string"/>
      <SimpleField name="Estado_del" type="string"/>
      <SimpleField name="Empresa" type="string"/>
      <SimpleField name="Lote" type="string"/>
      <SimpleField name="X" type="double"/>
      <SimpleField name="Y" type="double"/>
      <SimpleField name="Sup_SIG" type="double"/>
      <SimpleField name="cedula" type="string"/>
    </Schema>
    <Document id="Distrito_ARROYITO">
      <name>Distrito_ARROYITO</name>
      <Placemark id="Distrito_ARROYITO.1">
        <ExtendedData>
          <SchemaData schemaUrl="#Distrito_ARROYITO.schema">
            <SimpleData name="Cédula">6004001.00000000000</SimpleData>
            <SimpleData name="Nombres_y_">GLORIA BEATRIZ MONTIEL MARTINEZ</SimpleData>
            <SimpleData name="Sexo">Mujer</SimpleData>
            <SimpleData name="Cambio_de_">NO</SimpleData>
            <SimpleData name="Titular_se">NO</SimpleData>
            <SimpleData name="Cédula_Ti">NO</SimpleData>
            <SimpleData name="ci_UNIF">6004001.00000000000</SimpleData>
            <SimpleData name="Situación">NO</SimpleData>
            <SimpleData name="Comunidad">Campesina</SimpleData>
            <SimpleData name="Modelo_imp">Modelo 5</SimpleData>
            <SimpleData name="Departamen">CONCEPCION</SimpleData>
            <SimpleData name="Distrito">ARROYITO</SimpleData>
            <SimpleData name="Localidad">NUCLEO 5</SimpleData>
            <SimpleData name="Localidad_">NUCLEO 5</SimpleData>
            <SimpleData name="Teléfono">0971829399</SimpleData>
            <SimpleData name="Vivienda_L">-23.27254780000</SimpleData>
            <SimpleData name="Vivienda_1">-56.72110550000</SimpleData>
            <SimpleData name="Superficie">0.70000000000</SimpleData>
            <SimpleData name="Fecha_Plan">2026/05/04</SimpleData>
            <SimpleData name="Jornales">0.00000000000</SimpleData>
            <SimpleData name="Monto">0.00000000000</SimpleData>
            <SimpleData name="Grupo_de_p">J-P4-XX-XX-XX</SimpleData>
            <SimpleData name="ETAPA_FAO">Plantaci?n</SimpleData>
            <SimpleData name="Estado_del">Activo</SimpleData>
            <SimpleData name="Empresa">Emilio Sol?s Grance</SimpleData>
            <SimpleData name="Lote">J</SimpleData>
            <SimpleData name="X">-56.72012654000</SimpleData>
            <SimpleData name="Y">-23.27221882000</SimpleData>
            <SimpleData name="Sup_SIG">0.72024164396</SimpleData>
            <SimpleData name="cedula">6004001</SimpleData>
          </SchemaData>
        </ExtendedData>
        <Point>
          <coordinates>
            -56.7201265444537,-23.2722188158889,0
          </coordinates>
        </Point>
      </Placemark>
      <Placemark id="Distrito_ARROYITO.2">
        <ExtendedData>
          <SchemaData schemaUrl="#Distrito_ARROYITO.schema">
            <SimpleData name="Cédula">5866461.00000000000</SimpleData>
            <SimpleData name="Nombres_y_">SELVA NOEMI VEGA FRETES</SimpleData>
            <SimpleData name="Sexo">Mujer</SimpleData>
            <SimpleData name="Cambio_de_">NO</SimpleData>
            <SimpleData name="Titular_se">NO</SimpleData>
            <SimpleData name="Cédula_Ti">NO</SimpleData>
            <SimpleData name="ci_UNIF">5866461.00000000000</SimpleData>
            <SimpleData name="Situación">NO</SimpleData>
            <SimpleData name="Comunidad">Campesina</SimpleData>
            <SimpleData name="Modelo_imp">Modelo 5</SimpleData>
            <SimpleData name="Departamen">CONCEPCION</SimpleData>
            <SimpleData name="Distrito">ARROYITO</SimpleData>
            <SimpleData name="Localidad">NUCLEO 5</SimpleData>
            <SimpleData name="Localidad_">NUCLEO 5</SimpleData>
            <SimpleData name="Teléfono">0986855950</SimpleData>
            <SimpleData name="Vivienda_L">-23.26083350000</SimpleData>
            <SimpleData name="Vivienda_1">-56.72207490000</SimpleData>
            <SimpleData name="Superficie">0.70000000000</SimpleData>
            <SimpleData name="Fecha_Plan">2026/05/04</SimpleData>
            <SimpleData name="Jornales">0.00000000000</SimpleData>
            <SimpleData name="Monto">0.00000000000</SimpleData>
            <SimpleData name="Grupo_de_p">J-P4-XX-XX-XX</SimpleData>
            <SimpleData name="ETAPA_FAO">Plantaci?n</SimpleData>
            <SimpleData name="Estado_del">Activo</SimpleData>
            <SimpleData name="Empresa">Emilio Sol?s Grance</SimpleData>
            <SimpleData name="Lote">J</SimpleData>
            <SimpleData name="X">-56.71343491000</SimpleData>
            <SimpleData name="Y">-23.26019459000</SimpleData>
            <SimpleData name="Sup_SIG">0.79114785344</SimpleData>
            <SimpleData name="cedula">5866461</SimpleData>
          </SchemaData>
        </ExtendedData>
        <Point>
          <coordinates>
            -56.7134349135339,-23.260194588573,0
          </coordinates>
        </Point>
      </Placemark>
      <Placemark id="Distrito_ARROYITO.3">
        <ExtendedData>
          <SchemaData schemaUrl="#Distrito_ARROYITO.schema">
            <SimpleData name="Cédula">6004091.00000000000</SimpleData>
            <SimpleData name="Nombres_y_">SINTIA CAROLINA MONTIEL MARTINEZ</SimpleData>
            <SimpleData name="Sexo">Mujer</SimpleData>
            <SimpleData name="Cambio_de_">NO</SimpleData>
            <SimpleData name="Titular_se">NO</SimpleData>
            <SimpleData name="Cédula_Ti">NO</SimpleData>
            <SimpleData name="ci_UNIF">6004091.00000000000</SimpleData>
            <SimpleData name="Situación">NO</SimpleData>
            <SimpleData name="Comunidad">Campesina</SimpleData>
            <SimpleData name="Modelo_imp">Modelo 5</SimpleData>
            <SimpleData name="Departamen">CONCEPCION</SimpleData>
            <SimpleData name="Distrito">ARROYITO</SimpleData>
            <SimpleData name="Localidad">NUCLEO 5</SimpleData>
            <SimpleData name="Localidad_">NUCLEO 5</SimpleData>
            <SimpleData name="Teléfono">0972490601</SimpleData>
            <SimpleData name="Vivienda_L">-23.24777600000</SimpleData>
            <SimpleData name="Vivienda_1">-56.71723040000</SimpleData>
            <SimpleData name="Superficie">0.70000000000</SimpleData>
            <SimpleData name="Fecha_Plan">2026/05/04</SimpleData>
            <SimpleData name="Jornales">0.00000000000</SimpleData>
            <SimpleData name="Monto">0.00000000000</SimpleData>
            <SimpleData name="Grupo_de_p">J-P3-XX-XX-XX</SimpleData>
            <SimpleData name="ETAPA_FAO">Mantenimiento A?o 1.1</SimpleData>
            <SimpleData name="Estado_del">Activo</SimpleData>
            <SimpleData name="Empresa">Emilio Sol?s Grance</SimpleData>
            <SimpleData name="Lote">J</SimpleData>
            <SimpleData name="X">-56.71795547000</SimpleData>
            <SimpleData name="Y">-23.24600755000</SimpleData>
            <SimpleData name="Sup_SIG">0.75753140079</SimpleData>
            <SimpleData name="cedula">6004091</SimpleData>
          </SchemaData>
        </ExtendedData>
        <Point>
          <coordinates>
            -56.7179554731788,-23.246007546413,0
          </coordinates>
        </Point>
      </Placemark>
      <Placemark id="Distrito_ARROYITO.4">
        <ExtendedData>
          <SchemaData schemaUrl="#Distrito_ARROYITO.schema">
            <SimpleData name="Cédula">4996807.00000000000</SimpleData>
            <SimpleData name="Nombres_y_">BLANCA DE BELEN ALMADA CESPEDES</SimpleData>
            <SimpleData name="Sexo">Mujer</SimpleData>
            <SimpleData name="Cambio_de_">NO</SimpleData>
            <SimpleData name="Titular_se">NO</SimpleData>
            <SimpleData name="Cédula_Ti">NO</SimpleData>
            <SimpleData name="ci_UNIF">4996807.00000000000</SimpleData>
            <SimpleData name="Situación">NO</SimpleData>
            <SimpleData name="Comunidad">Campesina</SimpleData>
            <SimpleData name="Modelo_imp">Modelo 5</SimpleData>
            <SimpleData name="Departamen">CONCEPCION</SimpleData>
            <SimpleData name="Distrito">ARROYITO</SimpleData>
            <SimpleData name="Localidad">NUCLEO 5</SimpleData>
            <SimpleData name="Localidad_">NUCLEO 5</SimpleData>
            <SimpleData name="Teléfono">0975620914</SimpleData>
            <SimpleData name="Vivienda_L">-23.25550770000</SimpleData>
            <SimpleData name="Vivienda_1">-56.72636590000</SimpleData>
            <SimpleData name="Superficie">0.70000000000</SimpleData>
            <SimpleData name="Fecha_Plan">2026/05/04</SimpleData>
            <SimpleData name="Jornales">0.00000000000</SimpleData>
            <SimpleData name="Monto">0.00000000000</SimpleData>
            <SimpleData name="Grupo_de_p">J-P3-XX-XX-XX</SimpleData>
            <SimpleData name="ETAPA_FAO">Mantenimiento A?o 1.1</SimpleData>
            <SimpleData name="Estado_del">Activo</SimpleData>
            <SimpleData name="Empresa">Emilio Sol?s Grance</SimpleData>
            <SimpleData name="Lote">J</SimpleData>
            <SimpleData name="X">-56.72693874000</SimpleData>
            <SimpleData name="Y">-23.25471060000</SimpleData>
            <SimpleData name="Sup_SIG">0.75962586241</SimpleData>
            <SimpleData name="cedula">4996807</SimpleData>
          </SchemaData>
        </ExtendedData>
        <Point>
          <coordinates>
            -56.7269387350049,-23.2547105998075,0
          </coordinates>
        </Point>
      </Placemark>
      <Placemark id="Distrito_ARROYITO.5">
        <ExtendedData>
          <SchemaData schemaUrl="#Distrito_ARROYITO.schema">
            <SimpleData name="Cédula">2913537.00000000000</SimpleData>
            <SimpleData name="Nombres_y_">VERONICA GAMARRA DE ZORRILLA</SimpleData>
            <SimpleData name="Sexo">Mujer</SimpleData>
            <SimpleData name="Cambio_de_">NO</SimpleData>
            <SimpleData name="Titular_se">NO</SimpleData>
            <SimpleData name="Cédula_Ti">NO</SimpleData>
            <SimpleData name="ci_UNIF">2913537.00000000000</SimpleData>
            <SimpleData name="Situación">NO</SimpleData>
            <SimpleData name="Comunidad">Campesina</SimpleData>
            <SimpleData name="Modelo_imp">Modelo 5</SimpleData>
            <SimpleData name="Departamen">CONCEPCION</SimpleData>
            <SimpleData name="Distrito">ARROYITO</SimpleData>
            <SimpleData name="Localidad">NUCLEO 5</SimpleData>
            <SimpleData name="Localidad_">NUCLEO 5</SimpleData>
            <SimpleData name="Teléfono">0974232846</SimpleData>
            <SimpleData name="Vivienda_L">-23.25066390000</SimpleData>
            <SimpleData name="Vivienda_1">-56.73157910000</SimpleData>
            <SimpleData name="Superficie">0.70000000000</SimpleData>
            <SimpleData name="Fecha_Plan">2026/05/04</SimpleData>
            <SimpleData name="Jornales">0.00000000000</SimpleData>
            <SimpleData name="Monto">0.00000000000</SimpleData>
            <SimpleData name="Grupo_de_p">J-P3-XX-XX-XX</SimpleData>
            <SimpleData name="ETAPA_FAO">Mantenimiento A?o 1.1</SimpleData>
            <SimpleData name="Estado_del">Activo</SimpleData>
            <SimpleData name="Empresa">Emilio Sol?s Grance</SimpleData>
            <SimpleData name="Lote">J</SimpleData>
            <SimpleData name="X">-56.73221488000</SimpleData>
            <SimpleData name="Y">-23.25016255000</SimpleData>
            <SimpleData name="Sup_SIG">0.80165334405</SimpleData>
            <SimpleData name="cedula">2913537</SimpleData>
          </SchemaData>
        </ExtendedData>
        <Point>
          <coordinates>
            -56.7322148756338,-23.2501625503521,0
          </coordinates>
        </Point>
      </Placemark>
      <Placemark id="Distrito_ARROYITO.6">
        <ExtendedData>
          <SchemaData schemaUrl="#Distrito_ARROYITO.schema">
            <SimpleData name="Cédula">6229421.00000000000</SimpleData>
            <SimpleData name="Nombres_y_">LIA MAYESI LEZCANO CUEVAS</SimpleData>
            <SimpleData name="Sexo">Mujer</SimpleData>
            <SimpleData name="Cambio_de_">NO</SimpleData>
            <SimpleData name="Titular_se">NO</SimpleData>
            <SimpleData name="Cédula_Ti">NO</SimpleData>
            <SimpleData name="ci_UNIF">6229421.00000000000</SimpleData>
            <SimpleData name="Situación">NO</SimpleData>
            <SimpleData name="Comunidad">Campesina</SimpleData>
            <SimpleData name="Modelo_imp">Modelo 5</SimpleData>
            <SimpleData name="Departamen">CONCEPCION</SimpleData>
            <SimpleData name="Distrito">ARROYITO</SimpleData>
            <SimpleData name="Localidad">NUCLEO 5</SimpleData>
            <SimpleData name="Localidad_">NUCLEO 5</SimpleData>
            <SimpleData name="Teléfono">0981293618</SimpleData>
            <SimpleData name="Vivienda_L">-23.25333290000</SimpleData>
            <SimpleData name="Vivienda_1">-56.71419160000</SimpleData>
            <SimpleData name="Superficie">0.70000000000</SimpleData>
            <SimpleData name="Fecha_Plan">2026/05/04</SimpleData>
            <SimpleData name="Jornales">0.00000000000</SimpleData>
            <SimpleData name="Monto">0.00000000000</SimpleData>
            <SimpleData name="Grupo_de_p">J-P3-XX-XX-XX</SimpleData>
            <SimpleData name="ETAPA_FAO">Mantenimiento A?o 1.1</SimpleData>
            <SimpleData name="Estado_del">Activo</SimpleData>
            <SimpleData name="Empresa">Emilio Sol?s Grance</SimpleData>
            <SimpleData name="Lote">J</SimpleData>
            <SimpleData name="X">-56.71401007000</SimpleData>
            <SimpleData name="Y">-23.25476691000</SimpleData>
            <SimpleData name="Sup_SIG">0.78473722485</SimpleData>
            <SimpleData name="cedula">6229421</SimpleData>
          </SchemaData>
        </ExtendedData>
        <Point>
          <coordinates>
            -56.7140100710226,-23.2547669069179,0
          </coordinates>
        </Point>
      </Placemark>
      <Placemark id="Distrito_ARROYITO.7">
        <ExtendedData>
          <SchemaData schemaUrl="#Distrito_ARROYITO.schema">
            <SimpleData name="Cédula">6620709.00000000000</SimpleData>
            <SimpleData name="Nombres_y_">AIDA GRICELDA IRALA GONZALEZ</SimpleData>
            <SimpleData name="Sexo">Mujer</SimpleData>
            <SimpleData name="Cambio_de_">NO</SimpleData>
            <SimpleData name="Titular_se">NO</SimpleData>
            <SimpleData name="Cédula_Ti">NO</SimpleData>
            <SimpleData name="ci_UNIF">6620709.00000000000</SimpleData>
            <SimpleData name="Situación">NO</SimpleData>
            <SimpleData name="Comunidad">Campesina</SimpleData>
            <SimpleData name="Modelo_imp">Modelo 5</SimpleData>
            <SimpleData name="Departamen">CONCEPCION</SimpleData>
            <SimpleData name="Distrito">ARROYITO</SimpleData>
            <SimpleData name="Localidad">NUCLEO 5</SimpleData>
            <SimpleData name="Localidad_">NUCLEO 5</SimpleData>
            <SimpleData name="Teléfono">0976843175</SimpleData>
            <SimpleData name="Vivienda_L">-23.27263470000</SimpleData>
            <SimpleData name="Vivienda_1">-56.72174700000</SimpleData>
            <SimpleData name="Superficie">0.70000000000</SimpleData>
            <SimpleData name="Fecha_Plan">2026/05/04</SimpleData>
            <SimpleData name="Jornales">0.00000000000</SimpleData>
            <SimpleData name="Monto">0.00000000000</SimpleData>
            <SimpleData name="Grupo_de_p">J-P4-XX-XX-XX</SimpleData>
            <SimpleData name="ETAPA_FAO">Plantaci?n</SimpleData>
            <SimpleData name="Estado_del">Activo</SimpleData>
            <SimpleData name="Empresa">Emilio Sol?s Grance</SimpleData>
            <SimpleData name="Lote">J</SimpleData>
            <SimpleData name="X">-56.72008461000</SimpleData>
            <SimpleData name="Y">-23.27282390000</SimpleData>
            <SimpleData name="Sup_SIG">0.70239548403</SimpleData>
            <SimpleData name="cedula">6620709</SimpleData>
          </SchemaData>
        </ExtendedData>
        <MultiGeometry>
          <Point>
            <coordinates>
              -56.7209287902483,-23.2725117301484,0
            </coordinates>
          </Point>
          <Point>
            <coordinates>
              -56.7200162307369,-23.272849185536,0
            </coordinates>
          </Point>
        </MultiGeometry>
      </Placemark>
      <Placemark id="Distrito_ARROYITO.8">
        <ExtendedData>
          <SchemaData schemaUrl="#Distrito_ARROYITO.schema">
            <SimpleData name="Cédula">5742140.00000000000</SimpleData>
            <SimpleData name="Nombres_y_">MIRIAN DIONISIA ALMADA CESPEDES</SimpleData>
            <SimpleData name="Sexo">Mujer</SimpleData>
            <SimpleData name="Cambio_de_">NO</SimpleData>
            <SimpleData name="Titular_se">NO</SimpleData>
            <SimpleData name="Cédula_Ti">NO</SimpleData>
            <SimpleData name="ci_UNIF">5742140.00000000000</SimpleData>
            <SimpleData name="Situación">NO</SimpleData>
            <SimpleData name="Comunidad">Campesina</SimpleData>
            <SimpleData name="Modelo_imp">Modelo 5</SimpleData>
            <SimpleData name="Departamen">CONCEPCION</SimpleData>
            <SimpleData name="Distrito">ARROYITO</SimpleData>
            <SimpleData name="Localidad">NUCLEO 5</SimpleData>
            <SimpleData name="Localidad_">NUCLEO 5</SimpleData>
            <SimpleData name="Teléfono">0975298179</SimpleData>
            <SimpleData name="Vivienda_L">-23.25626840000</SimpleData>
            <SimpleData name="Vivienda_1">-56.72785450000</SimpleData>
            <SimpleData name="Superficie">0.70000000000</SimpleData>
            <SimpleData name="Fecha_Plan">2026/05/04</SimpleData>
            <SimpleData name="Jornales">0.00000000000</SimpleData>
            <SimpleData name="Monto">0.00000000000</SimpleData>
            <SimpleData name="Grupo_de_p">J-P3-XX-XX-XX</SimpleData>
            <SimpleData name="ETAPA_FAO">Mantenimiento A?o 1.1</SimpleData>
            <SimpleData name="Estado_del">Activo</SimpleData>
            <SimpleData name="Empresa">Emilio Sol?s Grance</SimpleData>
            <SimpleData name="Lote">J</SimpleData>
            <SimpleData name="X">-56.72759142000</SimpleData>
            <SimpleData name="Y">-23.25714623000</SimpleData>
            <SimpleData name="Sup_SIG">0.70681107241</SimpleData>
            <SimpleData name="cedula">5742140</SimpleData>
          </SchemaData>
        </ExtendedData>
        <MultiGeometry>
          <Point>
            <coordinates>
              -56.7276455316359,-23.2569658872286,0
            </coordinates>
          </Point>
          <Point>
            <coordinates>
              -56.7273821546629,-23.2578437357817,0
            </coordinates>
          </Point>
        </MultiGeometry>
      </Placemark>
      <Placemark id="Distrito_ARROYITO.9">
        <ExtendedData>
          <SchemaData schemaUrl="#Distrito_ARROYITO.schema">
            <SimpleData name="Cédula">7065795.00000000000</SimpleData>
            <SimpleData name="Nombres_y_">ANIBAL ACOSTA ARCE</SimpleData>
            <SimpleData name="Sexo">Hombre</SimpleData>
            <SimpleData name="Cambio_de_">NO</SimpleData>
            <SimpleData name="Titular_se">NO</SimpleData>
            <SimpleData name="Cédula_Ti">NO</SimpleData>
            <SimpleData name="ci_UNIF">7065795.00000000000</SimpleData>
            <SimpleData name="Situación">NO</SimpleData>
            <SimpleData name="Comunidad">Campesina</SimpleData>
            <SimpleData name="Modelo_imp">Modelo 5</SimpleData>
            <SimpleData name="Departamen">CONCEPCION</SimpleData>
            <SimpleData name="Distrito">ARROYITO</SimpleData>
            <SimpleData name="Localidad">NUCLEO 5</SimpleData>
            <SimpleData name="Localidad_">NUCLEO 5</SimpleData>
            <SimpleData name="Teléfono">0971313335</SimpleData>
            <SimpleData name="Vivienda_L">-23.24827930000</SimpleData>
            <SimpleData name="Vivienda_1">-56.71632190000</SimpleData>
            <SimpleData name="Superficie">0.70000000000</SimpleData>
            <SimpleData name="Fecha_Plan">2026/05/04</SimpleData>
            <SimpleData name="Jornales">0.00000000000</SimpleData>
            <SimpleData name="Monto">0.00000000000</SimpleData>
            <SimpleData name="Grupo_de_p">J-P3-XX-XX-XX</SimpleData>
            <SimpleData name="ETAPA_FAO">Mantenimiento A?o 1.1</SimpleData>
            <SimpleData name="Estado_del">Activo</SimpleData>
            <SimpleData name="Empresa">Emilio Sol?s Grance</SimpleData>
            <SimpleData name="Lote">J</SimpleData>
            <SimpleData name="X">-56.71580454000</SimpleData>
            <SimpleData name="Y">-23.24966771000</SimpleData>
            <SimpleData name="Sup_SIG">0.76834481987</SimpleData>
            <SimpleData name="cedula">7065795</SimpleData>
          </SchemaData>
        </ExtendedData>
        <Point>
          <coordinates>
            -56.7158045449339,-23.249667714804,0
          </coordinates>
        </Point>
      </Placemark>
      <Placemark id="Distrito_ARROYITO.10">
        <ExtendedData>
          <SchemaData schemaUrl="#Distrito_ARROYITO.schema">
            <SimpleData name="Cédula">6646223.00000000000</SimpleData>
            <SimpleData name="Nombres_y_">PAOLA JOHANNA VILLA DE MONTIEL</SimpleData>
            <SimpleData name="Sexo">Mujer</SimpleData>
            <SimpleData name="Cambio_de_">NO</SimpleData>
            <SimpleData name="Titular_se">NO</SimpleData>
            <SimpleData name="Cédula_Ti">NO</SimpleData>
            <SimpleData name="ci_UNIF">6646223.00000000000</SimpleData>
            <SimpleData name="Situación">NO</SimpleData>
            <SimpleData name="Comunidad">Campesina</SimpleData>
            <SimpleData name="Modelo_imp">Modelo 5</SimpleData>
            <SimpleData name="Departamen">CONCEPCION</SimpleData>
            <SimpleData name="Distrito">ARROYITO</SimpleData>
            <SimpleData name="Localidad">NUCLEO 5</SimpleData>
            <SimpleData name="Localidad_">NUCLEO 5</SimpleData>
            <SimpleData name="Teléfono">0975242834</SimpleData>
            <SimpleData name="Vivienda_L">-23.24787150000</SimpleData>
            <SimpleData name="Vivienda_1">-56.71609610000</SimpleData>
            <SimpleData name="Superficie">0.70000000000</SimpleData>
            <SimpleData name="Fecha_Plan">2026/05/04</SimpleData>
            <SimpleData name="Jornales">0.00000000000</SimpleData>
            <SimpleData name="Monto">0.00000000000</SimpleData>
            <SimpleData name="Grupo_de_p">J-P3-XX-XX-XX</SimpleData>
            <SimpleData name="ETAPA_FAO">Mantenimiento A?o 1.1</SimpleData>
            <SimpleData name="Estado_del">Activo</SimpleData>
            <SimpleData name="Empresa">Emilio Sol?s Grance</SimpleData>
            <SimpleData name="Lote">J</SimpleData>
            <SimpleData name="X">-56.71664627000</SimpleData>
            <SimpleData name="Y">-23.24554705000</SimpleData>
            <SimpleData name="Sup_SIG">0.76663399851</SimpleData>
            <SimpleData name="cedula">6646223</SimpleData>
          </SchemaData>
        </ExtendedData>
        <MultiGeometry>
          <Point>
            <coordinates>
              -56.7166462661013,-23.2455470547672,0
            </coordinates>
          </Point>
          <Point>
            <coordinates>
              -56.7035205770479,-23.2439971741902,0
            </coordinates>
          </Point>
        </MultiGeometry>
      </Placemark>
    </Document>
  </Document>
</kml>
