<?xml version="1.0" encoding="UTF-8"?>
<kml xmlns="http://www.opengis.net/kml/2.2">
  <Document id="root_doc">
    <Schema id="Distrito_YH__.schema">
      <SimpleField name="Cédula" type="double"/>
      <SimpleField name="Nombres_y_" type="string"/>
      <SimpleField name="Sexo" type="string"/>
      <SimpleField name="Cambio_de_" type="string"/>
      <SimpleField name="Titular_se" type="string"/>
      <SimpleField name="Cédula_Ti" type="string"/>
      <SimpleField name="ci_UNIF" type="double"/>
      <SimpleField name="Situación" type="string"/>
      <SimpleField name="Comunidad" type="string"/>
      <SimpleField name="Modelo_imp" type="string"/>
      <SimpleField name="Departamen" type="string"/>
      <SimpleField name="Distrito" type="string"/>
      <SimpleField name="Localidad" type="string"/>
      <SimpleField name="Teléfono" type="string"/>
      <SimpleField name="Vivienda_L" type="double"/>
      <SimpleField name="Vivienda_1" type="double"/>
      <SimpleField name="Superficie" type="double"/>
      <SimpleField name="Situaci_1" type="string"/>
      <SimpleField name="Plantado" type="string"/>
      <SimpleField name="Fecha_Plan" type="string"/>
      <SimpleField name="Jornales" type="double"/>
      <SimpleField name="Monto" type="double"/>
      <SimpleField name="Grupo_de_p" type="string"/>
      <SimpleField name="Estado_del" type="string"/>
      <SimpleField name="Empresa" type="string"/>
      <SimpleField name="Lote" type="string"/>
      <SimpleField name="Parametro" type="double"/>
      <SimpleField name="Sup_SIG" type="double"/>
      <SimpleField name="Situacion" type="string"/>
      <SimpleField name="X" type="double"/>
      <SimpleField name="Y" type="double"/>
      <SimpleField name="cedula" type="string"/>
    </Schema>
    <Document id="Distrito_YH__">
      <name>Distrito_YHÃš</name>
      <Placemark id="Distrito_YH__.1">
        <ExtendedData>
          <SchemaData schemaUrl="#Distrito_YH__.schema">
            <SimpleData name="Cédula">4393559.00000000000</SimpleData>
            <SimpleData name="Nombres_y_">GESSICA GRACIELA ALMADA ALVAREZ</SimpleData>
            <SimpleData name="Sexo">Mujer</SimpleData>
            <SimpleData name="Cambio_de_">NO</SimpleData>
            <SimpleData name="Titular_se">NO</SimpleData>
            <SimpleData name="ci_UNIF">4393559.00000000000</SimpleData>
            <SimpleData name="Situación">NO</SimpleData>
            <SimpleData name="Comunidad">Campesina</SimpleData>
            <SimpleData name="Modelo_imp">Modelo 1</SimpleData>
            <SimpleData name="Departamen">CAAGUAZU</SimpleData>
            <SimpleData name="Distrito">YH?</SimpleData>
            <SimpleData name="Localidad">SAN RAMON</SimpleData>
            <SimpleData name="Teléfono">983238673</SimpleData>
            <SimpleData name="Vivienda_L">-25.09479830000</SimpleData>
            <SimpleData name="Vivienda_1">-55.98959670000</SimpleData>
            <SimpleData name="Superficie">0.80000000000</SimpleData>
            <SimpleData name="Situaci_1">Parametro</SimpleData>
            <SimpleData name="Plantado">SI</SimpleData>
            <SimpleData name="Fecha_Plan">2026/05/22</SimpleData>
            <SimpleData name="Jornales">0.00000000000</SimpleData>
            <SimpleData name="Monto">0.00000000000</SimpleData>
            <SimpleData name="Grupo_de_p">D-P4-XX-XX-XX</SimpleData>
            <SimpleData name="Estado_del">Activo</SimpleData>
            <SimpleData name="Empresa">Unique Wood Paraguay SA</SimpleData>
            <SimpleData name="Lote">D</SimpleData>
            <SimpleData name="Sup_SIG">0.85941005211</SimpleData>
            <SimpleData name="X">-56.00585714000</SimpleData>
            <SimpleData name="Y">-25.11124636000</SimpleData>
            <SimpleData name="cedula">4393559</SimpleData>
          </SchemaData>
        </ExtendedData>
        <Point>
          <coordinates>
            -56.0058571358243,-25.1112463630023,0
          </coordinates>
        </Point>
      </Placemark>
      <Placemark id="Distrito_YH__.2">
        <ExtendedData>
          <SchemaData schemaUrl="#Distrito_YH__.schema">
            <SimpleData name="Cédula">6112334.00000000000</SimpleData>
            <SimpleData name="Nombres_y_">BRUNO  MIRANDA AQUINO</SimpleData>
            <SimpleData name="Sexo">Hombre</SimpleData>
            <SimpleData name="Cambio_de_">NO</SimpleData>
            <SimpleData name="Titular_se">NO</SimpleData>
            <SimpleData name="ci_UNIF">6112334.00000000000</SimpleData>
            <SimpleData name="Situación">NO</SimpleData>
            <SimpleData name="Comunidad">Campesina</SimpleData>
            <SimpleData name="Modelo_imp">Modelo 1</SimpleData>
            <SimpleData name="Departamen">CAAGUAZU</SimpleData>
            <SimpleData name="Distrito">YH?</SimpleData>
            <SimpleData name="Localidad">JUAN SINFORIANO BOGARIN</SimpleData>
            <SimpleData name="Teléfono">986238190</SimpleData>
            <SimpleData name="Vivienda_L">-25.16479360000</SimpleData>
            <SimpleData name="Vivienda_1">-55.93560120000</SimpleData>
            <SimpleData name="Superficie">0.80000000000</SimpleData>
            <SimpleData name="Situaci_1">Pol?gono</SimpleData>
            <SimpleData name="Plantado">SI</SimpleData>
            <SimpleData name="Fecha_Plan">2025/10/21</SimpleData>
            <SimpleData name="Jornales">0.00000000000</SimpleData>
            <SimpleData name="Monto">0.00000000000</SimpleData>
            <SimpleData name="Grupo_de_p">D-P3-XX-XX-XX</SimpleData>
            <SimpleData name="Estado_del">Activo</SimpleData>
            <SimpleData name="Empresa">Unique Wood Paraguay SA</SimpleData>
            <SimpleData name="Lote">D</SimpleData>
            <SimpleData name="Sup_SIG">1.00349220703</SimpleData>
            <SimpleData name="X">-55.92918129000</SimpleData>
            <SimpleData name="Y">-25.16431220000</SimpleData>
            <SimpleData name="cedula">6112334</SimpleData>
          </SchemaData>
        </ExtendedData>
        <Point>
          <coordinates>
            -55.9291812923828,-25.1643122010796,0
          </coordinates>
        </Point>
      </Placemark>
      <Placemark id="Distrito_YH__.3">
        <ExtendedData>
          <SchemaData schemaUrl="#Distrito_YH__.schema">
            <SimpleData name="Cédula">5311042.00000000000</SimpleData>
            <SimpleData name="Nombres_y_">PERLA PATRICIA ALONSO</SimpleData>
            <SimpleData name="Sexo">Mujer</SimpleData>
            <SimpleData name="Cambio_de_">NO</SimpleData>
            <SimpleData name="Titular_se">NO</SimpleData>
            <SimpleData name="ci_UNIF">5311042.00000000000</SimpleData>
            <SimpleData name="Situación">NO</SimpleData>
            <SimpleData name="Comunidad">Campesina</SimpleData>
            <SimpleData name="Modelo_imp">Modelo 1</SimpleData>
            <SimpleData name="Departamen">CAAGUAZU</SimpleData>
            <SimpleData name="Distrito">YH?</SimpleData>
            <SimpleData name="Localidad">JUAN SINFORIANO BOGARIN</SimpleData>
            <SimpleData name="Teléfono">983448373</SimpleData>
            <SimpleData name="Vivienda_L">-25.17340170000</SimpleData>
            <SimpleData name="Vivienda_1">-55.93566170000</SimpleData>
            <SimpleData name="Superficie">0.80000000000</SimpleData>
            <SimpleData name="Situaci_1">Pol?gono</SimpleData>
            <SimpleData name="Plantado">SI</SimpleData>
            <SimpleData name="Fecha_Plan">2025/10/22</SimpleData>
            <SimpleData name="Jornales">0.00000000000</SimpleData>
            <SimpleData name="Monto">0.00000000000</SimpleData>
            <SimpleData name="Grupo_de_p">D-P3-XX-XX-XX</SimpleData>
            <SimpleData name="Estado_del">Activo</SimpleData>
            <SimpleData name="Empresa">Unique Wood Paraguay SA</SimpleData>
            <SimpleData name="Lote">D</SimpleData>
            <SimpleData name="Sup_SIG">0.85718278116</SimpleData>
            <SimpleData name="X">-55.92872575000</SimpleData>
            <SimpleData name="Y">-25.16504694000</SimpleData>
            <SimpleData name="cedula">5311042</SimpleData>
          </SchemaData>
        </ExtendedData>
        <Point>
          <coordinates>
            -55.9287257544997,-25.1650469410982,0
          </coordinates>
        </Point>
      </Placemark>
    </Document>
  </Document>
</kml>
