<?xml version="1.0" encoding="UTF-8"?>
<kml xmlns="http://www.opengis.net/kml/2.2">
  <Document id="root_doc">
    <Schema id="Distrito_YBY_PYTA.schema">
      <SimpleField name="Cédula" type="double"/>
      <SimpleField name="Nombres_y_" type="string"/>
      <SimpleField name="Sexo" type="string"/>
      <SimpleField name="Cambio_de_" type="string"/>
      <SimpleField name="Titular_se" type="string"/>
      <SimpleField name="Cédula_Ti" type="string"/>
      <SimpleField name="ci_UNIF" type="double"/>
      <SimpleField name="Situación" type="string"/>
      <SimpleField name="Comunidad" type="string"/>
      <SimpleField name="Modelo_imp" type="string"/>
      <SimpleField name="Departamen" type="string"/>
      <SimpleField name="Distrito" type="string"/>
      <SimpleField name="Localidad" type="string"/>
      <SimpleField name="Teléfono" type="string"/>
      <SimpleField name="Vivienda_L" type="double"/>
      <SimpleField name="Vivienda_1" type="double"/>
      <SimpleField name="Superficie" type="double"/>
      <SimpleField name="Situaci_1" type="string"/>
      <SimpleField name="Plantado" type="string"/>
      <SimpleField name="Fecha_Plan" type="string"/>
      <SimpleField name="Jornales" type="double"/>
      <SimpleField name="Monto" type="double"/>
      <SimpleField name="Grupo_de_p" type="string"/>
      <SimpleField name="Estado_del" type="string"/>
      <SimpleField name="Empresa" type="string"/>
      <SimpleField name="Lote" type="string"/>
      <SimpleField name="Parametro" type="double"/>
      <SimpleField name="Sup_SIG" type="double"/>
      <SimpleField name="Situacion" type="string"/>
      <SimpleField name="X" type="double"/>
      <SimpleField name="Y" type="double"/>
      <SimpleField name="cedula" type="string"/>
    </Schema>
    <Document id="Distrito_YBY_PYTA">
      <name>Distrito_YBY PYTA</name>
      <Placemark id="Distrito_YBY_PYTA.1">
        <ExtendedData>
          <SchemaData schemaUrl="#Distrito_YBY_PYTA.schema">
            <SimpleData name="Cédula">8104074.00000000000</SimpleData>
            <SimpleData name="Nombres_y_">MILAGROS CACERES</SimpleData>
            <SimpleData name="Sexo">Mujer</SimpleData>
            <SimpleData name="Cambio_de_">NO</SimpleData>
            <SimpleData name="Titular_se">NO</SimpleData>
            <SimpleData name="ci_UNIF">8104074.00000000000</SimpleData>
            <SimpleData name="Situación">NO</SimpleData>
            <SimpleData name="Comunidad">Campesina</SimpleData>
            <SimpleData name="Modelo_imp">Modelo 5</SimpleData>
            <SimpleData name="Departamen">CANINDEYU</SimpleData>
            <SimpleData name="Distrito">YBY PYTA</SimpleData>
            <SimpleData name="Localidad">GUYRA KEHA</SimpleData>
            <SimpleData name="Teléfono">0986429813</SimpleData>
            <SimpleData name="Vivienda_L">-24.24786360000</SimpleData>
            <SimpleData name="Vivienda_1">-55.28904890000</SimpleData>
            <SimpleData name="Superficie">0.70000000000</SimpleData>
            <SimpleData name="Situaci_1">Pol?gono</SimpleData>
            <SimpleData name="Plantado">SI</SimpleData>
            <SimpleData name="Fecha_Plan">2025/10/24</SimpleData>
            <SimpleData name="Jornales">0.00000000000</SimpleData>
            <SimpleData name="Monto">0.00000000000</SimpleData>
            <SimpleData name="Grupo_de_p">G-P1-XX-XX-XX</SimpleData>
            <SimpleData name="Estado_del">Activo</SimpleData>
            <SimpleData name="Empresa">Red Forestal Paraguay SA</SimpleData>
            <SimpleData name="Lote">G</SimpleData>
            <SimpleData name="Sup_SIG">0.70559503080</SimpleData>
            <SimpleData name="X">-55.28766661000</SimpleData>
            <SimpleData name="Y">-24.24716107000</SimpleData>
            <SimpleData name="cedula">8104074</SimpleData>
          </SchemaData>
        </ExtendedData>
        <Point>
          <coordinates>
            -55.2876666088197,-24.2471610679564,0
          </coordinates>
        </Point>
      </Placemark>
      <Placemark id="Distrito_YBY_PYTA.2">
        <ExtendedData>
          <SchemaData schemaUrl="#Distrito_YBY_PYTA.schema">
            <SimpleData name="Cédula">5086494.00000000000</SimpleData>
            <SimpleData name="Nombres_y_">DIONICIA  FLEITAS</SimpleData>
            <SimpleData name="Sexo">Mujer</SimpleData>
            <SimpleData name="Cambio_de_">NO</SimpleData>
            <SimpleData name="Titular_se">NO</SimpleData>
            <SimpleData name="ci_UNIF">5086494.00000000000</SimpleData>
            <SimpleData name="Situación">NO</SimpleData>
            <SimpleData name="Comunidad">Campesina</SimpleData>
            <SimpleData name="Modelo_imp">Modelo 1</SimpleData>
            <SimpleData name="Departamen">CANINDEYU</SimpleData>
            <SimpleData name="Distrito">YBY PYTA</SimpleData>
            <SimpleData name="Localidad">GUYRA KEHA - SAN JOSE</SimpleData>
            <SimpleData name="Teléfono">972969702</SimpleData>
            <SimpleData name="Vivienda_L">-24.24389650000</SimpleData>
            <SimpleData name="Vivienda_1">-55.28871780000</SimpleData>
            <SimpleData name="Superficie">0.80000000000</SimpleData>
            <SimpleData name="Situaci_1">Pol?gono</SimpleData>
            <SimpleData name="Plantado">SI</SimpleData>
            <SimpleData name="Fecha_Plan">2025/10/29</SimpleData>
            <SimpleData name="Jornales">0.00000000000</SimpleData>
            <SimpleData name="Monto">0.00000000000</SimpleData>
            <SimpleData name="Grupo_de_p">G-P1-XX-XX-XX</SimpleData>
            <SimpleData name="Estado_del">Activo</SimpleData>
            <SimpleData name="Empresa">Red Forestal Paraguay SA</SimpleData>
            <SimpleData name="Lote">G</SimpleData>
            <SimpleData name="Sup_SIG">0.81202050577</SimpleData>
            <SimpleData name="X">-55.28861336000</SimpleData>
            <SimpleData name="Y">-24.24617037000</SimpleData>
            <SimpleData name="cedula">5086494</SimpleData>
          </SchemaData>
        </ExtendedData>
        <Point>
          <coordinates>
            -55.2886133593371,-24.2461703707972,0
          </coordinates>
        </Point>
      </Placemark>
    </Document>
  </Document>
</kml>
