<?xml version="1.0" encoding="UTF-8"?>
<kml xmlns="http://www.opengis.net/kml/2.2">
  <Document id="root_doc">
    <Schema id="Distrito_TAVA__.schema">
      <SimpleField name="CÈdula" type="double"/>
      <SimpleField name="Nombres_y_" type="string"/>
      <SimpleField name="Sexo" type="string"/>
      <SimpleField name="Cambio_de_" type="string"/>
      <SimpleField name="Titular_se" type="string"/>
      <SimpleField name="CÈdula_Ti" type="string"/>
      <SimpleField name="ci_UNIF" type="double"/>
      <SimpleField name="SituaciÛn" type="string"/>
      <SimpleField name="Comunidad" type="string"/>
      <SimpleField name="Modelo_imp" type="string"/>
      <SimpleField name="Departamen" type="string"/>
      <SimpleField name="Distrito" type="string"/>
      <SimpleField name="Localidad" type="string"/>
      <SimpleField name="TelÈfono" type="string"/>
      <SimpleField name="Vivienda_L" type="double"/>
      <SimpleField name="Vivienda_1" type="double"/>
      <SimpleField name="Superficie" type="double"/>
      <SimpleField name="Situaci_1" type="string"/>
      <SimpleField name="Plantado" type="string"/>
      <SimpleField name="Plantado_f" type="string"/>
      <SimpleField name="Jornales" type="double"/>
      <SimpleField name="Monto" type="double"/>
      <SimpleField name="Grupo_de_p" type="string"/>
      <SimpleField name="Estado_del" type="string"/>
      <SimpleField name="Empresa" type="string"/>
      <SimpleField name="Lote" type="string"/>
      <SimpleField name="Parametro" type="double"/>
      <SimpleField name="Sup_Sig" type="double"/>
      <SimpleField name="Situacion" type="string"/>
      <SimpleField name="X" type="double"/>
      <SimpleField name="Y" type="double"/>
    </Schema>
    <Document id="Distrito_TAVA__">
      <name>Distrito_TAVA√ç</name>
      <Placemark id="Distrito_TAVA__.1">
        <ExtendedData>
          <SchemaData schemaUrl="#Distrito_TAVA__.schema">
            <SimpleData name="CÈdula">5078380.00000000000</SimpleData>
            <SimpleData name="Nombres_y_">MAGNO JAVIER ACOSTA VERA</SimpleData>
            <SimpleData name="Sexo">Hombre</SimpleData>
            <SimpleData name="Cambio_de_">NO</SimpleData>
            <SimpleData name="Titular_se">NO</SimpleData>
            <SimpleData name="ci_UNIF">5078380.00000000000</SimpleData>
            <SimpleData name="SituaciÛn">NO</SimpleData>
            <SimpleData name="Comunidad">Campesina</SimpleData>
            <SimpleData name="Modelo_imp">Modelo 1</SimpleData>
            <SimpleData name="Departamen">CAAZAPA</SimpleData>
            <SimpleData name="Distrito">TAVA?</SimpleData>
            <SimpleData name="Localidad">TORO BLANCO</SimpleData>
            <SimpleData name="TelÈfono">0984957624</SimpleData>
            <SimpleData name="Vivienda_L">-26.23464260000</SimpleData>
            <SimpleData name="Vivienda_1">-55.68552560000</SimpleData>
            <SimpleData name="Superficie">0.90000000000</SimpleData>
            <SimpleData name="Situaci_1">Pol?gono</SimpleData>
            <SimpleData name="Plantado">SI</SimpleData>
            <SimpleData name="Plantado_f">2025/11/11</SimpleData>
            <SimpleData name="Jornales">0.00000000000</SimpleData>
            <SimpleData name="Monto">0.00000000000</SimpleData>
            <SimpleData name="Grupo_de_p">A-P1</SimpleData>
            <SimpleData name="Estado_del">Activo</SimpleData>
            <SimpleData name="Empresa">Red Forestal Paraguay SA</SimpleData>
            <SimpleData name="Lote">A</SimpleData>
            <SimpleData name="Parametro">0.80000000000</SimpleData>
            <SimpleData name="Sup_Sig">0.91496374065</SimpleData>
            <SimpleData name="Situacion">Cumple</SimpleData>
            <SimpleData name="X">-55.67152141000</SimpleData>
            <SimpleData name="Y">-26.23780095000</SimpleData>
          </SchemaData>
        </ExtendedData>
        <Point>
          <coordinates>
            -55.6715214143419,-26.2378009490823,0
          </coordinates>
        </Point>
      </Placemark>
      <Placemark id="Distrito_TAVA__.2">
        <ExtendedData>
          <SchemaData schemaUrl="#Distrito_TAVA__.schema">
            <SimpleData name="CÈdula">4886663.00000000000</SimpleData>
            <SimpleData name="Nombres_y_">BERNARDINO BAEZ AVALOS</SimpleData>
            <SimpleData name="Sexo">Hombre</SimpleData>
            <SimpleData name="Cambio_de_">NO</SimpleData>
            <SimpleData name="Titular_se">NO</SimpleData>
            <SimpleData name="ci_UNIF">4886663.00000000000</SimpleData>
            <SimpleData name="SituaciÛn">NO</SimpleData>
            <SimpleData name="Comunidad">Campesina</SimpleData>
            <SimpleData name="Modelo_imp">Modelo 1</SimpleData>
            <SimpleData name="Departamen">CAAZAPA</SimpleData>
            <SimpleData name="Distrito">TAVA?</SimpleData>
            <SimpleData name="Localidad">ENRAMADITA</SimpleData>
            <SimpleData name="TelÈfono">0984483490</SimpleData>
            <SimpleData name="Vivienda_L">-26.16592190000</SimpleData>
            <SimpleData name="Vivienda_1">-55.67924880000</SimpleData>
            <SimpleData name="Superficie">0.80000000000</SimpleData>
            <SimpleData name="Situaci_1">Pol?gono</SimpleData>
            <SimpleData name="Plantado">SI</SimpleData>
            <SimpleData name="Plantado_f">2025/09/25</SimpleData>
            <SimpleData name="Jornales">0.00000000000</SimpleData>
            <SimpleData name="Monto">0.00000000000</SimpleData>
            <SimpleData name="Grupo_de_p">A-P1</SimpleData>
            <SimpleData name="Estado_del">Activo</SimpleData>
            <SimpleData name="Empresa">Red Forestal Paraguay SA</SimpleData>
            <SimpleData name="Lote">A</SimpleData>
            <SimpleData name="Parametro">0.80000000000</SimpleData>
            <SimpleData name="Sup_Sig">0.89138678998</SimpleData>
            <SimpleData name="Situacion">Cumple</SimpleData>
            <SimpleData name="X">-55.67325962000</SimpleData>
            <SimpleData name="Y">-26.14117702000</SimpleData>
          </SchemaData>
        </ExtendedData>
        <Point>
          <coordinates>
            -55.6732596211138,-26.1411770177378,0
          </coordinates>
        </Point>
      </Placemark>
      <Placemark id="Distrito_TAVA__.3">
        <ExtendedData>
          <SchemaData schemaUrl="#Distrito_TAVA__.schema">
            <SimpleData name="CÈdula">6355091.00000000000</SimpleData>
            <SimpleData name="Nombres_y_">NELSI GABRIELA DUARTE AREVALOS</SimpleData>
            <SimpleData name="Sexo">Mujer</SimpleData>
            <SimpleData name="Cambio_de_">NO</SimpleData>
            <SimpleData name="Titular_se">NO</SimpleData>
            <SimpleData name="ci_UNIF">6355091.00000000000</SimpleData>
            <SimpleData name="SituaciÛn">NO</SimpleData>
            <SimpleData name="Comunidad">Campesina</SimpleData>
            <SimpleData name="Modelo_imp">Modelo 5</SimpleData>
            <SimpleData name="Departamen">CAAZAPA</SimpleData>
            <SimpleData name="Distrito">TAVA?</SimpleData>
            <SimpleData name="Localidad">TORO BLANCO</SimpleData>
            <SimpleData name="TelÈfono">0982962327</SimpleData>
            <SimpleData name="Vivienda_L">-26.24279400000</SimpleData>
            <SimpleData name="Vivienda_1">-55.69301130000</SimpleData>
            <SimpleData name="Superficie">0.70000000000</SimpleData>
            <SimpleData name="Situaci_1">Pol?gono</SimpleData>
            <SimpleData name="Plantado">SI</SimpleData>
            <SimpleData name="Plantado_f">2025/10/12</SimpleData>
            <SimpleData name="Jornales">0.00000000000</SimpleData>
            <SimpleData name="Monto">0.00000000000</SimpleData>
            <SimpleData name="Grupo_de_p">A-P2</SimpleData>
            <SimpleData name="Estado_del">Activo</SimpleData>
            <SimpleData name="Empresa">Red Forestal Paraguay SA</SimpleData>
            <SimpleData name="Lote">A</SimpleData>
            <SimpleData name="Parametro">0.70000000000</SimpleData>
            <SimpleData name="Sup_Sig">0.77324420731</SimpleData>
            <SimpleData name="Situacion">Cumple</SimpleData>
            <SimpleData name="X">-55.69372055000</SimpleData>
            <SimpleData name="Y">-26.24290897000</SimpleData>
          </SchemaData>
        </ExtendedData>
        <MultiGeometry>
          <Point>
            <coordinates>
              -55.6937855629489,-26.2428844167585,0
            </coordinates>
          </Point>
          <Point>
            <coordinates>
              -55.6930210835949,-26.2431731044164,0
            </coordinates>
          </Point>
        </MultiGeometry>
      </Placemark>
      <Placemark id="Distrito_TAVA__.4">
        <ExtendedData>
          <SchemaData schemaUrl="#Distrito_TAVA__.schema">
            <SimpleData name="CÈdula">7201809.00000000000</SimpleData>
            <SimpleData name="Nombres_y_">REINALDO RIVAS BAEZ</SimpleData>
            <SimpleData name="Sexo">Hombre</SimpleData>
            <SimpleData name="Cambio_de_">NO</SimpleData>
            <SimpleData name="Titular_se">NO</SimpleData>
            <SimpleData name="ci_UNIF">7201809.00000000000</SimpleData>
            <SimpleData name="SituaciÛn">NO</SimpleData>
            <SimpleData name="Comunidad">Campesina</SimpleData>
            <SimpleData name="Modelo_imp">Modelo 5</SimpleData>
            <SimpleData name="Departamen">CAAZAPA</SimpleData>
            <SimpleData name="Distrito">TAVA?</SimpleData>
            <SimpleData name="Localidad">VIRGEN DEL CARMEN</SimpleData>
            <SimpleData name="TelÈfono">0985663293</SimpleData>
            <SimpleData name="Vivienda_L">-26.23357470000</SimpleData>
            <SimpleData name="Vivienda_1">-55.67091680000</SimpleData>
            <SimpleData name="Superficie">0.70000000000</SimpleData>
            <SimpleData name="Situaci_1">Pol?gono</SimpleData>
            <SimpleData name="Plantado">SI</SimpleData>
            <SimpleData name="Plantado_f">2025/10/01</SimpleData>
            <SimpleData name="Jornales">0.00000000000</SimpleData>
            <SimpleData name="Monto">0.00000000000</SimpleData>
            <SimpleData name="Grupo_de_p">A-P2</SimpleData>
            <SimpleData name="Estado_del">Activo</SimpleData>
            <SimpleData name="Empresa">Red Forestal Paraguay SA</SimpleData>
            <SimpleData name="Lote">A</SimpleData>
            <SimpleData name="Parametro">0.70000000000</SimpleData>
            <SimpleData name="Sup_Sig">0.74394571542</SimpleData>
            <SimpleData name="Situacion">Cumple</SimpleData>
            <SimpleData name="X">-55.67063721000</SimpleData>
            <SimpleData name="Y">-26.23160987000</SimpleData>
          </SchemaData>
        </ExtendedData>
        <Point>
          <coordinates>
            -55.6706372057215,-26.2316098670961,0
          </coordinates>
        </Point>
      </Placemark>
      <Placemark id="Distrito_TAVA__.5">
        <ExtendedData>
          <SchemaData schemaUrl="#Distrito_TAVA__.schema">
            <SimpleData name="CÈdula">5991202.00000000000</SimpleData>
            <SimpleData name="Nombres_y_">CELINA FERNANDEZ VELAZQUEZ</SimpleData>
            <SimpleData name="Sexo">Mujer</SimpleData>
            <SimpleData name="Cambio_de_">NO</SimpleData>
            <SimpleData name="Titular_se">NO</SimpleData>
            <SimpleData name="ci_UNIF">5991202.00000000000</SimpleData>
            <SimpleData name="SituaciÛn">NO</SimpleData>
            <SimpleData name="Comunidad">Campesina</SimpleData>
            <SimpleData name="Modelo_imp">Modelo 1</SimpleData>
            <SimpleData name="Departamen">CAAZAPA</SimpleData>
            <SimpleData name="Distrito">TAVA?</SimpleData>
            <SimpleData name="Localidad"><![CDATA[VALLE'I]]></SimpleData>
            <SimpleData name="TelÈfono">0984473063</SimpleData>
            <SimpleData name="Vivienda_L">-26.24553930000</SimpleData>
            <SimpleData name="Vivienda_1">-55.65081410000</SimpleData>
            <SimpleData name="Superficie">0.80000000000</SimpleData>
            <SimpleData name="Situaci_1">Par?metro</SimpleData>
            <SimpleData name="Plantado">SI</SimpleData>
            <SimpleData name="Plantado_f">2026/01/15</SimpleData>
            <SimpleData name="Jornales">0.00000000000</SimpleData>
            <SimpleData name="Monto">0.00000000000</SimpleData>
            <SimpleData name="Grupo_de_p">A-P2</SimpleData>
            <SimpleData name="Estado_del">Activo</SimpleData>
            <SimpleData name="Empresa">Red Forestal Paraguay SA</SimpleData>
            <SimpleData name="Lote">A</SimpleData>
            <SimpleData name="Parametro">0.80000000000</SimpleData>
            <SimpleData name="Sup_Sig">0.93412499331</SimpleData>
            <SimpleData name="Situacion">Cumple</SimpleData>
            <SimpleData name="X">-55.64943529000</SimpleData>
            <SimpleData name="Y">-26.24304170000</SimpleData>
          </SchemaData>
        </ExtendedData>
        <Point>
          <coordinates>
            -55.6494352912813,-26.2430416981296,0
          </coordinates>
        </Point>
      </Placemark>
    </Document>
  </Document>
</kml>
