<?xml version="1.0" encoding="UTF-8"?>
<kml xmlns="http://www.opengis.net/kml/2.2">
  <Document id="root_doc">
    <Schema id="Distrito_ITAKYRY.schema">
      <SimpleField name="Cédula" type="double"/>
      <SimpleField name="Nombres_y_" type="string"/>
      <SimpleField name="Sexo" type="string"/>
      <SimpleField name="Cambio_de_" type="string"/>
      <SimpleField name="Titular_se" type="string"/>
      <SimpleField name="Cédula_Ti" type="string"/>
      <SimpleField name="ci_UNIF" type="double"/>
      <SimpleField name="Situación" type="string"/>
      <SimpleField name="Comunidad" type="string"/>
      <SimpleField name="Modelo_imp" type="string"/>
      <SimpleField name="Departamen" type="string"/>
      <SimpleField name="Distrito" type="string"/>
      <SimpleField name="Localidad" type="string"/>
      <SimpleField name="Teléfono" type="string"/>
      <SimpleField name="Vivienda_L" type="double"/>
      <SimpleField name="Vivienda_1" type="double"/>
      <SimpleField name="Superficie" type="double"/>
      <SimpleField name="Situaci_1" type="string"/>
      <SimpleField name="Plantado" type="string"/>
      <SimpleField name="Plantado_f" type="string"/>
      <SimpleField name="Jornales" type="double"/>
      <SimpleField name="Monto" type="double"/>
      <SimpleField name="Grupo_de_p" type="string"/>
      <SimpleField name="Estado_del" type="string"/>
      <SimpleField name="Empresa" type="string"/>
      <SimpleField name="Lote" type="string"/>
      <SimpleField name="Parametro" type="double"/>
      <SimpleField name="Sup_Sig" type="double"/>
      <SimpleField name="Situacion" type="string"/>
      <SimpleField name="X" type="double"/>
      <SimpleField name="Y" type="double"/>
    </Schema>
    <Document id="Distrito_ITAKYRY">
      <name>Distrito_ITAKYRY</name>
      <Placemark id="Distrito_ITAKYRY.1">
        <ExtendedData>
          <SchemaData schemaUrl="#Distrito_ITAKYRY.schema">
            <SimpleData name="Cédula">6605100.00000000000</SimpleData>
            <SimpleData name="Nombres_y_">LOURDES MARTINEZ CARDENA</SimpleData>
            <SimpleData name="Sexo">Mujer</SimpleData>
            <SimpleData name="Cambio_de_">NO</SimpleData>
            <SimpleData name="Titular_se">NO</SimpleData>
            <SimpleData name="ci_UNIF">6605100.00000000000</SimpleData>
            <SimpleData name="Situación">NO</SimpleData>
            <SimpleData name="Comunidad">Campesina</SimpleData>
            <SimpleData name="Modelo_imp">Modelo 6</SimpleData>
            <SimpleData name="Departamen">ALTO PARANA</SimpleData>
            <SimpleData name="Distrito">ITAKYRY</SimpleData>
            <SimpleData name="Localidad">SANTA LUCIA</SimpleData>
            <SimpleData name="Teléfono">0972446679</SimpleData>
            <SimpleData name="Vivienda_L">-24.55935400000</SimpleData>
            <SimpleData name="Vivienda_1">-55.03229640000</SimpleData>
            <SimpleData name="Superficie">0.90000000000</SimpleData>
            <SimpleData name="Situaci_1">Pol?gono</SimpleData>
            <SimpleData name="Plantado">SI</SimpleData>
            <SimpleData name="Plantado_f">2025/11/14</SimpleData>
            <SimpleData name="Jornales">0.00000000000</SimpleData>
            <SimpleData name="Monto">0.00000000000</SimpleData>
            <SimpleData name="Grupo_de_p">F-P1</SimpleData>
            <SimpleData name="Estado_del">Activo</SimpleData>
            <SimpleData name="Empresa">Red Forestal Paraguay SA</SimpleData>
            <SimpleData name="Lote">F</SimpleData>
            <SimpleData name="Parametro">0.90000000000</SimpleData>
            <SimpleData name="Sup_Sig">0.91597501259</SimpleData>
            <SimpleData name="Situacion">Cumple</SimpleData>
            <SimpleData name="X">-55.03965318000</SimpleData>
            <SimpleData name="Y">-24.56193370000</SimpleData>
          </SchemaData>
        </ExtendedData>
        <MultiGeometry>
          <Point>
            <coordinates>
              -55.0396531822398,-24.5619336979657,0
            </coordinates>
          </Point>
          <Point>
            <coordinates>
              -55.0316612557576,-24.5600008161283,0
            </coordinates>
          </Point>
        </MultiGeometry>
      </Placemark>
      <Placemark id="Distrito_ITAKYRY.2">
        <ExtendedData>
          <SchemaData schemaUrl="#Distrito_ITAKYRY.schema">
            <SimpleData name="Cédula">2686293.00000000000</SimpleData>
            <SimpleData name="Nombres_y_">FELICITA CENTURION PEREIRA</SimpleData>
            <SimpleData name="Sexo">Mujer</SimpleData>
            <SimpleData name="Cambio_de_">NO</SimpleData>
            <SimpleData name="Titular_se">NO</SimpleData>
            <SimpleData name="ci_UNIF">2686293.00000000000</SimpleData>
            <SimpleData name="Situación">NO</SimpleData>
            <SimpleData name="Comunidad">Campesina</SimpleData>
            <SimpleData name="Modelo_imp">Modelo 6</SimpleData>
            <SimpleData name="Departamen">ALTO PARANA</SimpleData>
            <SimpleData name="Distrito">ITAKYRY</SimpleData>
            <SimpleData name="Localidad">SANTA LUCIA</SimpleData>
            <SimpleData name="Teléfono">0973879059</SimpleData>
            <SimpleData name="Vivienda_L">-24.56344370000</SimpleData>
            <SimpleData name="Vivienda_1">-55.04798450000</SimpleData>
            <SimpleData name="Superficie">0.90000000000</SimpleData>
            <SimpleData name="Situaci_1">Pol?gono</SimpleData>
            <SimpleData name="Plantado">SI</SimpleData>
            <SimpleData name="Plantado_f">2025/11/08</SimpleData>
            <SimpleData name="Jornales">0.00000000000</SimpleData>
            <SimpleData name="Monto">0.00000000000</SimpleData>
            <SimpleData name="Grupo_de_p">F-P1</SimpleData>
            <SimpleData name="Estado_del">Activo</SimpleData>
            <SimpleData name="Empresa">Red Forestal Paraguay SA</SimpleData>
            <SimpleData name="Lote">F</SimpleData>
            <SimpleData name="Parametro">0.90000000000</SimpleData>
            <SimpleData name="Sup_Sig">0.95330228223</SimpleData>
            <SimpleData name="Situacion">Cumple</SimpleData>
            <SimpleData name="X">-55.04769895000</SimpleData>
            <SimpleData name="Y">-24.56068128000</SimpleData>
          </SchemaData>
        </ExtendedData>
        <MultiGeometry>
          <Point>
            <coordinates>
              -55.0478668019526,-24.563833666636,0
            </coordinates>
          </Point>
          <Point>
            <coordinates>
              -55.0476989483727,-24.5606812824916,0
            </coordinates>
          </Point>
        </MultiGeometry>
      </Placemark>
      <Placemark id="Distrito_ITAKYRY.3">
        <ExtendedData>
          <SchemaData schemaUrl="#Distrito_ITAKYRY.schema">
            <SimpleData name="Cédula">6297487.00000000000</SimpleData>
            <SimpleData name="Nombres_y_">LIZ LORENA QUINTANA BENITEZ</SimpleData>
            <SimpleData name="Sexo">Mujer</SimpleData>
            <SimpleData name="Cambio_de_">NO</SimpleData>
            <SimpleData name="Titular_se">NO</SimpleData>
            <SimpleData name="ci_UNIF">6297487.00000000000</SimpleData>
            <SimpleData name="Situación">NO</SimpleData>
            <SimpleData name="Comunidad">Campesina</SimpleData>
            <SimpleData name="Modelo_imp">Modelo 6</SimpleData>
            <SimpleData name="Departamen">ALTO PARANA</SimpleData>
            <SimpleData name="Distrito">ITAKYRY</SimpleData>
            <SimpleData name="Localidad">SANTA LUCIA</SimpleData>
            <SimpleData name="Teléfono">0975552919</SimpleData>
            <SimpleData name="Vivienda_L">-24.57174600000</SimpleData>
            <SimpleData name="Vivienda_1">-55.04064810000</SimpleData>
            <SimpleData name="Superficie">0.90000000000</SimpleData>
            <SimpleData name="Situaci_1">Pol?gono</SimpleData>
            <SimpleData name="Plantado">SI</SimpleData>
            <SimpleData name="Plantado_f">2025/11/08</SimpleData>
            <SimpleData name="Jornales">0.00000000000</SimpleData>
            <SimpleData name="Monto">0.00000000000</SimpleData>
            <SimpleData name="Grupo_de_p">F-P1</SimpleData>
            <SimpleData name="Estado_del">Activo</SimpleData>
            <SimpleData name="Empresa">Red Forestal Paraguay SA</SimpleData>
            <SimpleData name="Lote">F</SimpleData>
            <SimpleData name="Parametro">0.90000000000</SimpleData>
            <SimpleData name="Sup_Sig">0.97813899838</SimpleData>
            <SimpleData name="Situacion">Cumple</SimpleData>
            <SimpleData name="X">-55.03980446000</SimpleData>
            <SimpleData name="Y">-24.57219034000</SimpleData>
          </SchemaData>
        </ExtendedData>
        <Point>
          <coordinates>
            -55.0398044646214,-24.5721903358926,0
          </coordinates>
        </Point>
      </Placemark>
      <Placemark id="Distrito_ITAKYRY.4">
        <ExtendedData>
          <SchemaData schemaUrl="#Distrito_ITAKYRY.schema">
            <SimpleData name="Cédula">4525932.00000000000</SimpleData>
            <SimpleData name="Nombres_y_">CYNTHIA BEATRIS MARECO BAEZ</SimpleData>
            <SimpleData name="Sexo">Mujer</SimpleData>
            <SimpleData name="Cambio_de_">NO</SimpleData>
            <SimpleData name="Titular_se">NO</SimpleData>
            <SimpleData name="ci_UNIF">4525932.00000000000</SimpleData>
            <SimpleData name="Situación">NO</SimpleData>
            <SimpleData name="Comunidad">Campesina</SimpleData>
            <SimpleData name="Modelo_imp">Modelo 6</SimpleData>
            <SimpleData name="Departamen">ALTO PARANA</SimpleData>
            <SimpleData name="Distrito">ITAKYRY</SimpleData>
            <SimpleData name="Localidad">SANTA LUCIA</SimpleData>
            <SimpleData name="Teléfono">0986840335</SimpleData>
            <SimpleData name="Vivienda_L">-24.56791560000</SimpleData>
            <SimpleData name="Vivienda_1">-55.02722110000</SimpleData>
            <SimpleData name="Superficie">0.90000000000</SimpleData>
            <SimpleData name="Situaci_1">Pol?gono</SimpleData>
            <SimpleData name="Plantado">SI</SimpleData>
            <SimpleData name="Plantado_f">2025/11/14</SimpleData>
            <SimpleData name="Jornales">0.00000000000</SimpleData>
            <SimpleData name="Monto">0.00000000000</SimpleData>
            <SimpleData name="Grupo_de_p">F-P1</SimpleData>
            <SimpleData name="Estado_del">Activo</SimpleData>
            <SimpleData name="Empresa">Red Forestal Paraguay SA</SimpleData>
            <SimpleData name="Lote">F</SimpleData>
            <SimpleData name="Parametro">0.90000000000</SimpleData>
            <SimpleData name="Sup_Sig">0.91494010764</SimpleData>
            <SimpleData name="Situacion">Cumple</SimpleData>
            <SimpleData name="X">-55.01786166000</SimpleData>
            <SimpleData name="Y">-24.55717351000</SimpleData>
          </SchemaData>
        </ExtendedData>
        <Point>
          <coordinates>
            -55.0178616619144,-24.5571735109269,0
          </coordinates>
        </Point>
      </Placemark>
    </Document>
  </Document>
</kml>
