<?xml version="1.0" encoding="UTF-8"?>
<kml xmlns="http://www.opengis.net/kml/2.2">
  <Document id="root_doc">
    <Schema id="Distrito_MBARACAYU.schema">
      <SimpleField name="Cédula" type="double"/>
      <SimpleField name="Nombres_y_" type="string"/>
      <SimpleField name="Sexo" type="string"/>
      <SimpleField name="Cambio_de_" type="string"/>
      <SimpleField name="Titular_se" type="string"/>
      <SimpleField name="Cédula_Ti" type="string"/>
      <SimpleField name="ci_UNIF" type="double"/>
      <SimpleField name="Situación" type="string"/>
      <SimpleField name="Comunidad" type="string"/>
      <SimpleField name="Modelo_imp" type="string"/>
      <SimpleField name="Departamen" type="string"/>
      <SimpleField name="Distrito" type="string"/>
      <SimpleField name="Localidad" type="string"/>
      <SimpleField name="Localidad_" type="string"/>
      <SimpleField name="Teléfono" type="string"/>
      <SimpleField name="Vivienda_L" type="double"/>
      <SimpleField name="Vivienda_1" type="double"/>
      <SimpleField name="Superficie" type="double"/>
      <SimpleField name="Fecha_Plan" type="string"/>
      <SimpleField name="Jornales" type="double"/>
      <SimpleField name="Monto" type="double"/>
      <SimpleField name="Grupo_de_p" type="string"/>
      <SimpleField name="ETAPA_FAO" type="string"/>
      <SimpleField name="Estado_del" type="string"/>
      <SimpleField name="Empresa" type="string"/>
      <SimpleField name="Lote" type="string"/>
      <SimpleField name="X" type="double"/>
      <SimpleField name="Y" type="double"/>
      <SimpleField name="Sup_SIG" type="double"/>
      <SimpleField name="cedula" type="string"/>
    </Schema>
    <Document id="Distrito_MBARACAYU">
      <name>Distrito_MBARACAYU</name>
      <Placemark id="Distrito_MBARACAYU.1">
        <ExtendedData>
          <SchemaData schemaUrl="#Distrito_MBARACAYU.schema">
            <SimpleData name="Cédula">4117402.00000000000</SimpleData>
            <SimpleData name="Nombres_y_">EZEQUIEL OVIEDO VILLALBA</SimpleData>
            <SimpleData name="Sexo">Hombre</SimpleData>
            <SimpleData name="Cambio_de_">NO</SimpleData>
            <SimpleData name="Titular_se">NO</SimpleData>
            <SimpleData name="Cédula_Ti">NO</SimpleData>
            <SimpleData name="ci_UNIF">4117402.00000000000</SimpleData>
            <SimpleData name="Situación">NO</SimpleData>
            <SimpleData name="Comunidad">Ind?gena</SimpleData>
            <SimpleData name="Modelo_imp">Modelo 3</SimpleData>
            <SimpleData name="Departamen">ALTO PARANA</SimpleData>
            <SimpleData name="Distrito">MBARACAYU</SimpleData>
            <SimpleData name="Localidad">COM INDIG KIRITO PINDO</SimpleData>
            <SimpleData name="Localidad_">KIRITO- BARRIO PINDO</SimpleData>
            <SimpleData name="Teléfono">0983681253</SimpleData>
            <SimpleData name="Vivienda_L">-25.11149440000</SimpleData>
            <SimpleData name="Vivienda_1">-54.81582650000</SimpleData>
            <SimpleData name="Superficie">1.00000000000</SimpleData>
            <SimpleData name="Fecha_Plan">2025/11/20</SimpleData>
            <SimpleData name="Jornales">0.00000000000</SimpleData>
            <SimpleData name="Monto">0.00000000000</SimpleData>
            <SimpleData name="Grupo_de_p">F-P1-XX-XX-XX</SimpleData>
            <SimpleData name="ETAPA_FAO">Mantenimiento A?o 1.1</SimpleData>
            <SimpleData name="Estado_del">Activo</SimpleData>
            <SimpleData name="Empresa">Red Forestal Paraguay SA</SimpleData>
            <SimpleData name="Lote">F</SimpleData>
            <SimpleData name="X">-54.81398243000</SimpleData>
            <SimpleData name="Y">-25.11229711000</SimpleData>
            <SimpleData name="Sup_SIG">1.20719214605</SimpleData>
            <SimpleData name="cedula">4117402</SimpleData>
          </SchemaData>
        </ExtendedData>
        <Point>
          <coordinates>
            -54.8139824324788,-25.1122971135059,0
          </coordinates>
        </Point>
      </Placemark>
      <Placemark id="Distrito_MBARACAYU.2">
        <ExtendedData>
          <SchemaData schemaUrl="#Distrito_MBARACAYU.schema">
            <SimpleData name="Cédula">5155613.00000000000</SimpleData>
            <SimpleData name="Nombres_y_">SANTA VIVIANA ROJAS PALACIOS</SimpleData>
            <SimpleData name="Sexo">Mujer</SimpleData>
            <SimpleData name="Cambio_de_">NO</SimpleData>
            <SimpleData name="Titular_se">NO</SimpleData>
            <SimpleData name="Cédula_Ti">NO</SimpleData>
            <SimpleData name="ci_UNIF">5155613.00000000000</SimpleData>
            <SimpleData name="Situación">NO</SimpleData>
            <SimpleData name="Comunidad">Ind?gena</SimpleData>
            <SimpleData name="Modelo_imp">Modelo 5</SimpleData>
            <SimpleData name="Departamen">ALTO PARANA</SimpleData>
            <SimpleData name="Distrito">MBARACAYU</SimpleData>
            <SimpleData name="Localidad">COM INDIG KIRITO PINDO</SimpleData>
            <SimpleData name="Localidad_">KIRITO- BARRIO PINDO</SimpleData>
            <SimpleData name="Teléfono">ND</SimpleData>
            <SimpleData name="Vivienda_L">-25.10615370000</SimpleData>
            <SimpleData name="Vivienda_1">-54.82481510000</SimpleData>
            <SimpleData name="Superficie">0.70000000000</SimpleData>
            <SimpleData name="Fecha_Plan">2025/10/24</SimpleData>
            <SimpleData name="Jornales">0.00000000000</SimpleData>
            <SimpleData name="Monto">0.00000000000</SimpleData>
            <SimpleData name="Grupo_de_p">F-P1-XX-XX-XX</SimpleData>
            <SimpleData name="ETAPA_FAO">Mantenimiento A?o 1.1</SimpleData>
            <SimpleData name="Estado_del">Activo</SimpleData>
            <SimpleData name="Empresa">Red Forestal Paraguay SA</SimpleData>
            <SimpleData name="Lote">F</SimpleData>
            <SimpleData name="X">-54.82424501000</SimpleData>
            <SimpleData name="Y">-25.10479461000</SimpleData>
            <SimpleData name="Sup_SIG">0.70804194869</SimpleData>
            <SimpleData name="cedula">5155613</SimpleData>
          </SchemaData>
        </ExtendedData>
        <Point>
          <coordinates>
            -54.8242450053285,-25.1047946063097,0
          </coordinates>
        </Point>
      </Placemark>
    </Document>
  </Document>
</kml>
